{
  "type": "FeatureCollection",
  "features": [
    {
      "type": "Feature",
      "geometry": {
        "type": "MultiPolygon",
        "coordinates": [
          [
            [
              [
                -76.986942,
                39.827049
              ],
              [
                -76.986881,
                39.827049
              ],
              [
                -76.986881,
                39.827028
              ],
              [
                -76.98685,
                39.827028
              ],
              [
                -76.98685,
                39.827013
              ],
              [
                -76.986916,
                39.827013
              ],
              [
                -76.986916,
                39.826956
              ],
              [
                -76.986878,
                39.826956
              ],
              [
                -76.986878,
                39.826813
              ],
              [
                -76.986916,
                39.826813
              ],
              [
                -76.986916,
                39.826803
              ],
              [
                -76.986985,
                39.826803
              ],
              [
                -76.986985,
                39.827027
              ],
              [
                -76.986958,
                39.827027
              ],
              [
                -76.986958,
                39.827036
              ],
              [
                -76.986942,
                39.827036
              ],
              [
                -76.986942,
                39.827049
              ]
            ]
          ],
          [
            [
              [
                -76.986985,
                39.826778
              ],
              [
                -76.986915,
                39.826778
              ],
              [
                -76.986915,
                39.826575
              ],
              [
                -76.986985,
                39.826575
              ],
              [
                -76.986985,
                39.826778
              ]
            ]
          ],
          [
            [
              [
                -76.987018,
                39.826778
              ],
              [
                -76.987018,
                39.826669
              ],
              [
                -76.987007,
                39.826669
              ],
              [
                -76.987007,
                39.826578
              ],
              [
                -76.98705,
                39.826578
              ],
              [
                -76.98705,
                39.826778
              ],
              [
                -76.987018,
                39.826778
              ]
            ]
          ],
          [
            [
              [
                -76.98705,
                39.826813
              ],
              [
                -76.987018,
                39.826813
              ],
              [
                -76.987018,
                39.826935
              ],
              [
                -76.98705,
                39.826935
              ],
              [
                -76.98705,
                39.826813
              ]
            ]
          ],
          [
            [
              [
                -76.987047,
                39.827049
              ],
              [
                -76.987125,
                39.827049
              ],
              [
                -76.987125,
                39.827033
              ],
              [
                -76.987095,
                39.827033
              ],
              [
                -76.987095,
                39.827029
              ],
              [
                -76.987087,
                39.827029
              ],
              [
                -76.987087,
                39.826993
              ],
              [
                -76.987018,
                39.826993
              ],
              [
                -76.987018,
                39.827027
              ],
              [
                -76.987047,
                39.827027
              ],
              [
                -76.987047,
                39.827049
              ]
            ]
          ],
          [
            [
              [
                -76.986821,
                39.826974
              ],
              [
                -76.986792,
                39.826974
              ],
              [
                -76.986792,
                39.826851
              ],
              [
                -76.986821,
                39.826851
              ],
              [
                -76.986821,
                39.826974
              ]
            ]
          ],
          [
            [
              [
                -76.986878,
                39.827013
              ],
              [
                -76.986916,
                39.827013
              ],
              [
                -76.986916,
                39.826956
              ],
              [
                -76.986878,
                39.826956
              ],
              [
                -76.986878,
                39.827013
              ]
            ]
          ],
          [
            [
              [
                -76.986953,
                39.826814
              ],
              [
                -76.986916,
                39.826814
              ],
              [
                -76.986916,
                39.826843
              ],
              [
                -76.986953,
                39.826843
              ],
              [
                -76.986953,
                39.826814
              ]
            ]
          ],
          [
            [
              [
                -76.987125,
                39.827033
              ],
              [
                -76.987095,
                39.827033
              ],
              [
                -76.987095,
                39.827029
              ],
              [
                -76.987087,
                39.827029
              ],
              [
                -76.987087,
                39.826993
              ],
              [
                -76.98705,
                39.826993
              ],
              [
                -76.98705,
                39.826813
              ],
              [
                -76.987087,
                39.826813
              ],
              [
                -76.987087,
                39.826778
              ],
              [
                -76.987087,
                39.826758
              ],
              [
                -76.98705,
                39.826758
              ],
              [
                -76.98705,
                39.826578
              ],
              [
                -76.98702,
                39.826578
              ],
              [
                -76.98702,
                39.826566
              ],
              [
                -76.987087,
                39.826566
              ],
              [
                -76.987087,
                39.826528
              ],
              [
                -76.987125,
                39.826528
              ],
              [
                -76.987125,
                39.827033
              ]
            ]
          ],
          [
            [
              [
                -76.986915,
                39.826778
              ],
              [
                -76.986915,
                39.826575
              ],
              [
                -76.986985,
                39.826575
              ],
              [
                -76.986985,
                39.826566
              ],
              [
                -76.986915,
                39.826566
              ],
              [
                -76.986915,
                39.826573
              ],
              [
                -76.986863,
                39.826573
              ],
              [
                -76.986863,
                39.82663
              ],
              [
                -76.986805,
                39.82663
              ],
              [
                -76.986805,
                39.826771
              ],
              [
                -76.986834,
                39.826771
              ],
              [
                -76.986834,
                39.826778
              ],
              [
                -76.986915,
                39.826778
              ]
            ]
          ],
          [
            [
              [
                -76.986654,
                39.826813
              ],
              [
                -76.986654,
                39.827003
              ],
              [
                -76.986682,
                39.827003
              ],
              [
                -76.986682,
                39.827028
              ],
              [
                -76.98673,
                39.827028
              ],
              [
                -76.98673,
                39.827049
              ],
              [
                -76.986881,
                39.827049
              ],
              [
                -76.986881,
                39.827028
              ],
              [
                -76.98685,
                39.827028
              ],
              [
                -76.98685,
                39.827013
              ],
              [
                -76.986878,
                39.827013
              ],
              [
                -76.986878,
                39.826851
              ],
              [
                -76.98685,
                39.826851
              ],
              [
                -76.98685,
                39.826832
              ],
              [
                -76.986878,
                39.826832
              ],
              [
                -76.986878,
                39.826813
              ],
              [
                -76.98685,
                39.826813
              ],
              [
                -76.98685,
                39.826803
              ],
              [
                -76.986752,
                39.826804
              ],
              [
                -76.986752,
                39.826813
              ],
              [
                -76.986654,
                39.826813
              ]
            ]
          ],
          [
            [
              [
                -76.987018,
                39.826993
              ],
              [
                -76.98705,
                39.826993
              ],
              [
                -76.98705,
                39.826935
              ],
              [
                -76.987018,
                39.826935
              ],
              [
                -76.987018,
                39.826993
              ]
            ]
          ],
          [
            [
              [
                -76.986805,
                39.826573
              ],
              [
                -76.986805,
                39.826771
              ],
              [
                -76.986834,
                39.826771
              ],
              [
                -76.986834,
                39.826778
              ],
              [
                -76.986777,
                39.826778
              ],
              [
                -76.986777,
                39.826772
              ],
              [
                -76.986749,
                39.826772
              ],
              [
                -76.986749,
                39.826573
              ],
              [
                -76.986805,
                39.826573
              ]
            ]
          ],
          [
            [
              [
                -76.986539,
                39.826573
              ],
              [
                -76.986485,
                39.826573
              ],
              [
                -76.986485,
                39.826576
              ],
              [
                -76.986379,
                39.826576
              ],
              [
                -76.986379,
                39.826573
              ],
              [
                -76.986329,
                39.826573
              ],
              [
                -76.986329,
                39.826645
              ],
              [
                -76.986353,
                39.826645
              ],
              [
                -76.986353,
                39.826736
              ],
              [
                -76.986379,
                39.826736
              ],
              [
                -76.986379,
                39.826772
              ],
              [
                -76.986432,
                39.826772
              ],
              [
                -76.986432,
                39.826762
              ],
              [
                -76.986485,
                39.826762
              ],
              [
                -76.986485,
                39.826772
              ],
              [
                -76.986511,
                39.826772
              ],
              [
                -76.986511,
                39.826736
              ],
              [
                -76.986539,
                39.826736
              ],
              [
                -76.986539,
                39.826573
              ]
            ]
          ],
          [
            [
              [
                -76.986583,
                39.826573
              ],
              [
                -76.986539,
                39.826573
              ],
              [
                -76.986539,
                39.826736
              ],
              [
                -76.986511,
                39.826736
              ],
              [
                -76.986511,
                39.826772
              ],
              [
                -76.986539,
                39.826772
              ],
              [
                -76.986539,
                39.826774
              ],
              [
                -76.986583,
                39.826774
              ],
              [
                -76.986583,
                39.826778
              ],
              [
                -76.986635,
                39.826778
              ],
              [
                -76.986635,
                39.826773
              ],
              [
                -76.986609,
                39.826773
              ],
              [
                -76.986609,
                39.826609
              ],
              [
                -76.986583,
                39.826609
              ],
              [
                -76.986583,
                39.826573
              ]
            ]
          ],
          [
            [
              [
                -76.985755,
                39.826812
              ],
              [
                -76.985755,
                39.826912
              ],
              [
                -76.985782,
                39.826912
              ],
              [
                -76.985782,
                39.826931
              ],
              [
                -76.985829,
                39.826931
              ],
              [
                -76.98589,
                39.826931
              ],
              [
                -76.98589,
                39.826947
              ],
              [
                -76.986042,
                39.826947
              ],
              [
                -76.986042,
                39.826931
              ],
              [
                -76.986051,
                39.826931
              ],
              [
                -76.986051,
                39.826803
              ],
              [
                -76.986062,
                39.826803
              ],
              [
                -76.986051,
                39.826803
              ],
              [
                -76.986051,
                39.826796
              ],
              [
                -76.986003,
                39.826796
              ],
              [
                -76.98579,
                39.826796
              ],
              [
                -76.98579,
                39.826812
              ],
              [
                -76.985755,
                39.826812
              ]
            ]
          ],
          [
            [
              [
                -76.985755,
                39.827027
              ],
              [
                -76.985776,
                39.827027
              ],
              [
                -76.985776,
                39.827037
              ],
              [
                -76.985755,
                39.827037
              ],
              [
                -76.985755,
                39.827049
              ],
              [
                -76.985834,
                39.827049
              ],
              [
                -76.985834,
                39.827036
              ],
              [
                -76.98585,
                39.827036
              ],
              [
                -76.98585,
                39.827049
              ],
              [
                -76.98603,
                39.827049
              ],
              [
                -76.98603,
                39.827039
              ],
              [
                -76.98603,
                39.827027
              ],
              [
                -76.986042,
                39.827027
              ],
              [
                -76.986042,
                39.827005
              ],
              [
                -76.986042,
                39.82699
              ],
              [
                -76.986041,
                39.82699
              ],
              [
                -76.986041,
                39.826962
              ],
              [
                -76.986042,
                39.826962
              ],
              [
                -76.986042,
                39.826947
              ],
              [
                -76.98589,
                39.826947
              ],
              [
                -76.98589,
                39.826931
              ],
              [
                -76.985829,
                39.826931
              ],
              [
                -76.985782,
                39.826931
              ],
              [
                -76.985782,
                39.826912
              ],
              [
                -76.985755,
                39.826912
              ],
              [
                -76.985755,
                39.827027
              ]
            ]
          ],
          [
            [
              [
                -76.986062,
                39.826803
              ],
              [
                -76.986051,
                39.826803
              ],
              [
                -76.986051,
                39.826931
              ],
              [
                -76.986051,
                39.826937
              ],
              [
                -76.986051,
                39.827027
              ],
              [
                -76.98603,
                39.827027
              ],
              [
                -76.98603,
                39.827049
              ],
              [
                -76.986156,
                39.827049
              ],
              [
                -76.986156,
                39.827036
              ],
              [
                -76.986173,
                39.827036
              ],
              [
                -76.986173,
                39.827049
              ],
              [
                -76.986268,
                39.827049
              ],
              [
                -76.986268,
                39.827029
              ],
              [
                -76.986298,
                39.827029
              ],
              [
                -76.986298,
                39.827027
              ],
              [
                -76.986325,
                39.827027
              ],
              [
                -76.986325,
                39.827008
              ],
              [
                -76.986189,
                39.827009
              ],
              [
                -76.986189,
                39.827029
              ],
              [
                -76.986163,
                39.827029
              ],
              [
                -76.986163,
                39.826948
              ],
              [
                -76.986196,
                39.826948
              ],
              [
                -76.986196,
                39.826908
              ],
              [
                -76.98619,
                39.826908
              ],
              [
                -76.98619,
                39.826867
              ],
              [
                -76.986273,
                39.826867
              ],
              [
                -76.986273,
                39.826891
              ],
              [
                -76.986325,
                39.826891
              ],
              [
                -76.986325,
                39.8269
              ],
              [
                -76.9863,
                39.8269
              ],
              [
                -76.9863,
                39.826938
              ],
              [
                -76.986325,
                39.826938
              ],
              [
                -76.986325,
                39.826811
              ],
              [
                -76.986273,
                39.826811
              ],
              [
                -76.986273,
                39.826803
              ],
              [
                -76.986062,
                39.826803
              ]
            ]
          ],
          [
            [
              [
                -76.986369,
                39.826885
              ],
              [
                -76.98634,
                39.826885
              ],
              [
                -76.98634,
                39.826813
              ],
              [
                -76.986369,
                39.826813
              ],
              [
                -76.986369,
                39.826885
              ]
            ]
          ],
          [
            [
              [
                -76.986749,
                39.826573
              ],
              [
                -76.986749,
                39.826772
              ],
              [
                -76.986727,
                39.826772
              ],
              [
                -76.986705,
                39.826772
              ],
              [
                -76.986705,
                39.826754
              ],
              [
                -76.986727,
                39.826754
              ],
              [
                -76.986727,
                39.826736
              ],
              [
                -76.986683,
                39.826736
              ],
              [
                -76.986683,
                39.826772
              ],
              [
                -76.986635,
                39.826772
              ],
              [
                -76.986635,
                39.826773
              ],
              [
                -76.986609,
                39.826773
              ],
              [
                -76.986609,
                39.826772
              ],
              [
                -76.986609,
                39.826609
              ],
              [
                -76.986583,
                39.826609
              ],
              [
                -76.986583,
                39.826573
              ],
              [
                -76.986749,
                39.826573
              ]
            ]
          ],
          [
            [
              [
                -76.986255,
                39.826772
              ],
              [
                -76.986255,
                39.826573
              ],
              [
                -76.986233,
                39.826573
              ],
              [
                -76.986233,
                39.826566
              ],
              [
                -76.986137,
                39.826566
              ],
              [
                -76.986137,
                39.826573
              ],
              [
                -76.986115,
                39.826573
              ],
              [
                -76.986115,
                39.826772
              ],
              [
                -76.986255,
                39.826772
              ]
            ]
          ],
          [
            [
              [
                -76.986863,
                39.82663
              ],
              [
                -76.986805,
                39.82663
              ],
              [
                -76.986805,
                39.826573
              ],
              [
                -76.986863,
                39.826573
              ],
              [
                -76.986863,
                39.82663
              ]
            ]
          ],
          [
            [
              [
                -76.986683,
                39.826772
              ],
              [
                -76.986705,
                39.826772
              ],
              [
                -76.986705,
                39.826754
              ],
              [
                -76.986727,
                39.826754
              ],
              [
                -76.986727,
                39.826736
              ],
              [
                -76.986683,
                39.826736
              ],
              [
                -76.986683,
                39.826772
              ]
            ]
          ],
          [
            [
              [
                -76.986513,
                39.826489
              ],
              [
                -76.986513,
                39.826504
              ],
              [
                -76.986503,
                39.826504
              ],
              [
                -76.986503,
                39.826545
              ],
              [
                -76.986773,
                39.826545
              ],
              [
                -76.986773,
                39.826539
              ],
              [
                -76.986829,
                39.826539
              ],
              [
                -76.986829,
                39.826545
              ],
              [
                -76.986887,
                39.826545
              ],
              [
                -76.986897,
                39.826545
              ],
              [
                -76.986897,
                39.826539
              ],
              [
                -76.98688,
                39.826539
              ],
              [
                -76.98688,
                39.826501
              ],
              [
                -76.986875,
                39.826501
              ],
              [
                -76.986875,
                39.826489
              ],
              [
                -76.986817,
                39.826489
              ],
              [
                -76.986817,
                39.826502
              ],
              [
                -76.986798,
                39.826502
              ],
              [
                -76.986798,
                39.826489
              ],
              [
                -76.986513,
                39.826489
              ]
            ]
          ],
          [
            [
              [
                -76.985867,
                39.826754
              ],
              [
                -76.985954,
                39.826754
              ],
              [
                -76.985954,
                39.826672
              ],
              [
                -76.985809,
                39.826672
              ],
              [
                -76.985809,
                39.826656
              ],
              [
                -76.985782,
                39.826656
              ],
              [
                -76.985782,
                39.826754
              ],
              [
                -76.985809,
                39.826754
              ],
              [
                -76.985809,
                39.826737
              ],
              [
                -76.985867,
                39.826737
              ],
              [
                -76.985867,
                39.826754
              ]
            ]
          ],
          [
            [
              [
                -76.986462,
                39.827049
              ],
              [
                -76.986462,
                39.82703
              ],
              [
                -76.986451,
                39.82703
              ],
              [
                -76.986451,
                39.827004
              ],
              [
                -76.986474,
                39.827004
              ],
              [
                -76.986474,
                39.826823
              ],
              [
                -76.986451,
                39.826823
              ],
              [
                -76.986451,
                39.826803
              ],
              [
                -76.986622,
                39.826803
              ],
              [
                -76.986622,
                39.826813
              ],
              [
                -76.986654,
                39.826813
              ],
              [
                -76.986654,
                39.827003
              ],
              [
                -76.98667,
                39.827003
              ],
              [
                -76.986682,
                39.827003
              ],
              [
                -76.986681,
                39.827028
              ],
              [
                -76.986698,
                39.827028
              ],
              [
                -76.986698,
                39.827049
              ],
              [
                -76.986462,
                39.827049
              ]
            ]
          ],
          [
            [
              [
                -76.986325,
                39.827008
              ],
              [
                -76.986189,
                39.827009
              ],
              [
                -76.986189,
                39.827029
              ],
              [
                -76.986163,
                39.827029
              ],
              [
                -76.986163,
                39.826948
              ],
              [
                -76.986196,
                39.826948
              ],
              [
                -76.986196,
                39.826908
              ],
              [
                -76.98619,
                39.826908
              ],
              [
                -76.98619,
                39.826867
              ],
              [
                -76.986273,
                39.826867
              ],
              [
                -76.986273,
                39.826891
              ],
              [
                -76.986325,
                39.826891
              ],
              [
                -76.986325,
                39.8269
              ],
              [
                -76.9863,
                39.8269
              ],
              [
                -76.9863,
                39.826938
              ],
              [
                -76.986325,
                39.826938
              ],
              [
                -76.986325,
                39.827008
              ]
            ]
          ],
          [
            [
              [
                -76.98634,
                39.827049
              ],
              [
                -76.98634,
                39.826885
              ],
              [
                -76.986369,
                39.826885
              ],
              [
                -76.986369,
                39.827012
              ],
              [
                -76.986383,
                39.827012
              ],
              [
                -76.986397,
                39.827012
              ],
              [
                -76.986397,
                39.82703
              ],
              [
                -76.986371,
                39.82703
              ],
              [
                -76.986371,
                39.827049
              ],
              [
                -76.98634,
                39.827049
              ]
            ]
          ],
          [
            [
              [
                -76.986037,
                39.82677
              ],
              [
                -76.985806,
                39.82677
              ],
              [
                -76.985806,
                39.826754
              ],
              [
                -76.985809,
                39.826754
              ],
              [
                -76.985809,
                39.826737
              ],
              [
                -76.985867,
                39.826737
              ],
              [
                -76.985867,
                39.826754
              ],
              [
                -76.986037,
                39.826754
              ],
              [
                -76.986037,
                39.82677
              ]
            ]
          ],
          [
            [
              [
                -76.986089,
                39.826573
              ],
              [
                -76.986115,
                39.826573
              ],
              [
                -76.986115,
                39.826772
              ],
              [
                -76.986089,
                39.826772
              ],
              [
                -76.986089,
                39.826573
              ]
            ]
          ],
          [
            [
              [
                -76.986561,
                39.826874
              ],
              [
                -76.986592,
                39.826874
              ],
              [
                -76.986592,
                39.826989
              ],
              [
                -76.986561,
                39.826989
              ],
              [
                -76.986561,
                39.826874
              ]
            ]
          ],
          [
            [
              [
                -76.986606,
                39.827008
              ],
              [
                -76.986579,
                39.827008
              ],
              [
                -76.986562,
                39.827008
              ],
              [
                -76.986562,
                39.827022
              ],
              [
                -76.986606,
                39.827022
              ],
              [
                -76.986621,
                39.827022
              ],
              [
                -76.986621,
                39.827008
              ],
              [
                -76.986606,
                39.827008
              ]
            ]
          ],
          [
            [
              [
                -76.986379,
                39.826736
              ],
              [
                -76.986379,
                39.826772
              ],
              [
                -76.986432,
                39.826772
              ],
              [
                -76.986432,
                39.826778
              ],
              [
                -76.986281,
                39.826778
              ],
              [
                -76.986281,
                39.826772
              ],
              [
                -76.986255,
                39.826772
              ],
              [
                -76.986255,
                39.826699
              ],
              [
                -76.986281,
                39.826699
              ],
              [
                -76.986281,
                39.826663
              ],
              [
                -76.986255,
                39.826663
              ],
              [
                -76.986255,
                39.826573
              ],
              [
                -76.986329,
                39.826573
              ],
              [
                -76.986329,
                39.826645
              ],
              [
                -76.986353,
                39.826645
              ],
              [
                -76.986353,
                39.826736
              ],
              [
                -76.986379,
                39.826736
              ]
            ]
          ],
          [
            [
              [
                -76.985752,
                39.826781
              ],
              [
                -76.985721,
                39.826781
              ],
              [
                -76.985721,
                39.82659
              ],
              [
                -76.985752,
                39.82659
              ],
              [
                -76.985752,
                39.826781
              ]
            ]
          ],
          [
            [
              [
                -76.985929,
                39.826539
              ],
              [
                -76.98579,
                39.826539
              ],
              [
                -76.98579,
                39.826532
              ],
              [
                -76.985755,
                39.826532
              ],
              [
                -76.985755,
                39.826489
              ],
              [
                -76.9859,
                39.826489
              ],
              [
                -76.9859,
                39.826506
              ],
              [
                -76.985929,
                39.826506
              ],
              [
                -76.985929,
                39.826539
              ]
            ]
          ],
          [
            [
              [
                -76.986037,
                39.82677
              ],
              [
                -76.986037,
                39.826786
              ],
              [
                -76.98579,
                39.826786
              ],
              [
                -76.98579,
                39.826781
              ],
              [
                -76.985755,
                39.826781
              ],
              [
                -76.985755,
                39.826562
              ],
              [
                -76.98579,
                39.826562
              ],
              [
                -76.98579,
                39.826557
              ],
              [
                -76.985809,
                39.826557
              ],
              [
                -76.985968,
                39.826557
              ],
              [
                -76.98606,
                39.826557
              ],
              [
                -76.98606,
                39.826749
              ],
              [
                -76.986052,
                39.826749
              ],
              [
                -76.986052,
                39.826754
              ],
              [
                -76.985968,
                39.826754
              ],
              [
                -76.985968,
                39.826591
              ],
              [
                -76.985954,
                39.826591
              ],
              [
                -76.985954,
                39.826672
              ],
              [
                -76.985809,
                39.826672
              ],
              [
                -76.985809,
                39.826656
              ],
              [
                -76.985782,
                39.826656
              ],
              [
                -76.985782,
                39.826754
              ],
              [
                -76.985806,
                39.826754
              ],
              [
                -76.985806,
                39.82677
              ],
              [
                -76.986037,
                39.82677
              ]
            ]
          ],
          [
            [
              [
                -76.985752,
                39.827049
              ],
              [
                -76.985518,
                39.827049
              ],
              [
                -76.985405,
                39.826975
              ],
              [
                -76.985404,
                39.826976
              ],
              [
                -76.985401,
                39.826974
              ],
              [
                -76.985416,
                39.826965
              ],
              [
                -76.985419,
                39.826963
              ],
              [
                -76.985529,
                39.827034
              ],
              [
                -76.985731,
                39.827034
              ],
              [
                -76.985731,
                39.827037
              ],
              [
                -76.985752,
                39.827037
              ],
              [
                -76.985752,
                39.827049
              ]
            ]
          ],
          [
            [
              [
                -76.985752,
                39.827025
              ],
              [
                -76.985731,
                39.827025
              ],
              [
                -76.985535,
                39.827025
              ],
              [
                -76.98542,
                39.82695
              ],
              [
                -76.985406,
                39.826958
              ],
              [
                -76.985403,
                39.826957
              ],
              [
                -76.985388,
                39.826966
              ],
              [
                -76.985359,
                39.826947
              ],
              [
                -76.985359,
                39.826818
              ],
              [
                -76.985421,
                39.826818
              ],
              [
                -76.985421,
                39.826806
              ],
              [
                -76.985717,
                39.826806
              ],
              [
                -76.985717,
                39.826812
              ],
              [
                -76.985752,
                39.826812
              ],
              [
                -76.985752,
                39.827025
              ]
            ]
          ],
          [
            [
              [
                -76.985462,
                39.826453
              ],
              [
                -76.985436,
                39.826453
              ],
              [
                -76.985436,
                39.826466
              ],
              [
                -76.985417,
                39.826466
              ],
              [
                -76.985417,
                39.826453
              ],
              [
                -76.985359,
                39.826453
              ],
              [
                -76.985359,
                39.826755
              ],
              [
                -76.985439,
                39.826755
              ],
              [
                -76.985439,
                39.826778
              ],
              [
                -76.985717,
                39.826778
              ],
              [
                -76.985717,
                39.826781
              ],
              [
                -76.985721,
                39.826781
              ],
              [
                -76.985721,
                39.82659
              ],
              [
                -76.985752,
                39.82659
              ],
              [
                -76.985752,
                39.826562
              ],
              [
                -76.985705,
                39.826562
              ],
              [
                -76.985705,
                39.826547
              ],
              [
                -76.985682,
                39.826547
              ],
              [
                -76.985682,
                39.826542
              ],
              [
                -76.985462,
                39.826542
              ],
              [
                -76.985462,
                39.826453
              ]
            ]
          ],
          [
            [
              [
                -76.985606,
                39.826453
              ],
              [
                -76.985606,
                39.82652
              ],
              [
                -76.98567,
                39.82652
              ],
              [
                -76.98567,
                39.826512
              ],
              [
                -76.985706,
                39.826512
              ],
              [
                -76.985706,
                39.826453
              ],
              [
                -76.985606,
                39.826453
              ]
            ]
          ],
          [
            [
              [
                -76.985929,
                39.826539
              ],
              [
                -76.986011,
                39.826539
              ],
              [
                -76.986011,
                39.826511
              ],
              [
                -76.986017,
                39.826511
              ],
              [
                -76.986017,
                39.826489
              ],
              [
                -76.9859,
                39.826489
              ],
              [
                -76.9859,
                39.826506
              ],
              [
                -76.985929,
                39.826506
              ],
              [
                -76.985929,
                39.826539
              ]
            ]
          ],
          [
            [
              [
                -76.986936,
                39.826545
              ],
              [
                -76.986897,
                39.826545
              ],
              [
                -76.986897,
                39.826539
              ],
              [
                -76.98688,
                39.826539
              ],
              [
                -76.98688,
                39.826501
              ],
              [
                -76.986875,
                39.826501
              ],
              [
                -76.986875,
                39.826489
              ],
              [
                -76.986941,
                39.826489
              ],
              [
                -76.986941,
                39.826499
              ],
              [
                -76.986936,
                39.826499
              ],
              [
                -76.986936,
                39.826545
              ]
            ]
          ],
          [
            [
              [
                -76.986432,
                39.826778
              ],
              [
                -76.986432,
                39.826762
              ],
              [
                -76.986485,
                39.826762
              ],
              [
                -76.986485,
                39.826772
              ],
              [
                -76.986539,
                39.826772
              ],
              [
                -76.986539,
                39.826774
              ],
              [
                -76.986583,
                39.826774
              ],
              [
                -76.986583,
                39.826778
              ],
              [
                -76.986432,
                39.826778
              ]
            ]
          ],
          [
            [
              [
                -76.986451,
                39.826803
              ],
              [
                -76.98634,
                39.826803
              ],
              [
                -76.98634,
                39.826813
              ],
              [
                -76.986397,
                39.826813
              ],
              [
                -76.986397,
                39.826831
              ],
              [
                -76.986451,
                39.826831
              ],
              [
                -76.986451,
                39.826803
              ]
            ]
          ],
          [
            [
              [
                -76.986371,
                39.827049
              ],
              [
                -76.986371,
                39.82703
              ],
              [
                -76.986397,
                39.82703
              ],
              [
                -76.986397,
                39.827012
              ],
              [
                -76.986369,
                39.827012
              ],
              [
                -76.986369,
                39.826813
              ],
              [
                -76.986397,
                39.826813
              ],
              [
                -76.986397,
                39.826831
              ],
              [
                -76.986451,
                39.826831
              ],
              [
                -76.986451,
                39.826823
              ],
              [
                -76.986474,
                39.826823
              ],
              [
                -76.986474,
                39.827004
              ],
              [
                -76.986451,
                39.827004
              ],
              [
                -76.986451,
                39.827013
              ],
              [
                -76.986451,
                39.82703
              ],
              [
                -76.986462,
                39.82703
              ],
              [
                -76.986462,
                39.827049
              ],
              [
                -76.986371,
                39.827049
              ]
            ]
          ],
          [
            [
              [
                -76.986255,
                39.826663
              ],
              [
                -76.986281,
                39.826663
              ],
              [
                -76.986281,
                39.826699
              ],
              [
                -76.986255,
                39.826699
              ],
              [
                -76.986255,
                39.826663
              ]
            ]
          ],
          [
            [
              [
                -76.985752,
                39.826453
              ],
              [
                -76.985359,
                39.826453
              ],
              [
                -76.985359,
                39.826947
              ],
              [
                -76.985404,
                39.826976
              ],
              [
                -76.985405,
                39.826975
              ],
              [
                -76.985518,
                39.827049
              ],
              [
                -76.985752,
                39.827049
              ],
              [
                -76.985752,
                39.826453
              ]
            ]
          ]
        ]
      },
      "properties": {
        "fill": "#D9E2F6",
        "stroke-width": "0.5",
        "stroke": "#96A3BD",
        "opacity": "0.75"
      }
    },
    {
      "type": "Feature",
      "geometry": {
        "type": "MultiLineString",
        "coordinates": []
      },
      "properties": {
        "stroke-width": "0.5"
      }
    },
    {
      "type": "Feature",
      "geometry": {
        "type": "Point",
        "coordinates": [
          -76.986763,
          39.826836
        ]
      },
      "properties": {
        "type": "P",
        "sub_category": "ServiceDesks",
        "poi_name": "MILLWORK DESK",
        "profile": "STORE SERVICES",
        "icon_id": "millwork_desk",
        "orientation": 0
      }
    },
    {
      "type": "Feature",
      "geometry": {
        "type": "Point",
        "coordinates": [
          -76.986132,
          39.826887
        ]
      },
      "properties": {
        "type": "P",
        "sub_category": "ServiceDesks",
        "poi_name": "APPLIANCE DESK",
        "profile": "STORE SERVICES",
        "icon_id": "appliance_desk",
        "orientation": 0
      }
    },
    {
      "type": "Feature",
      "geometry": {
        "type": "Point",
        "coordinates": [
          -76.986105,
          39.826527
        ]
      },
      "properties": {
        "type": "P",
        "sub_category": "ServiceDesks",
        "poi_name": "CUSTOMER SERVICE",
        "profile": "BASIC INFO",
        "icon_id": "customer_service_desk",
        "orientation": 0
      }
    },
    {
      "type": "Feature",
      "geometry": {
        "type": "Point",
        "coordinates": [
          -76.986335,
          39.826556
        ]
      },
      "properties": {
        "type": "P",
        "sub_category": "Checkouts",
        "poi_name": "MAIN CHECKOUT",
        "profile": "BASIC INFO",
        "icon_id": "checkouts",
        "orientation": 0
      }
    },
    {
      "type": "Feature",
      "geometry": {
        "type": "Point",
        "coordinates": [
          -76.986105,
          39.826535
        ]
      },
      "properties": {
        "type": "P",
        "sub_category": "Services",
        "poi_name": "RETURNS",
        "profile": "BASIC INFO",
        "icon_id": "returns",
        "orientation": 0
      }
    },
    {
      "type": "Feature",
      "geometry": {
        "type": "Point",
        "coordinates": [
          -76.986211,
          39.826496
        ]
      },
      "properties": {
        "type": "P",
        "sub_category": "Services",
        "poi_name": "PRODUCT PICK-UP",
        "profile": "BASIC INFO",
        "icon_id": "store_pick_up",
        "orientation": 0
      }
    },
    {
      "type": "Feature",
      "geometry": {
        "type": "Point",
        "coordinates": [
          -76.986182,
          39.826495
        ]
      },
      "properties": {
        "type": "P",
        "sub_category": "Services",
        "poi_name": "PICKUP LOCKER",
        "profile": "BASIC INFO",
        "icon_id": "pickup_lockers",
        "orientation": 0
      }
    },
    {
      "type": "Feature",
      "geometry": {
        "type": "Point",
        "coordinates": [
          -76.986382,
          39.826556
        ]
      },
      "properties": {
        "type": "P",
        "sub_category": "Checkouts",
        "poi_name": "MAIN SELF-CHECKOUT",
        "profile": "BASIC INFO",
        "icon_id": "checkouts",
        "orientation": 0
      }
    },
    {
      "type": "Feature",
      "geometry": {
        "type": "Point",
        "coordinates": [
          -76.986086,
          39.826427
        ]
      },
      "properties": {
        "type": "P",
        "sub_category": "EntryExit",
        "poi_name": "MAIN ENTRANCE",
        "profile": "BASIC INFO",
        "icon_id": "entrance_exit",
        "orientation": 0
      }
    },
    {
      "type": "Feature",
      "geometry": {
        "type": "Point",
        "coordinates": [
          -76.986376,
          39.826489
        ]
      },
      "properties": {
        "type": "P",
        "sub_category": "EntryExit",
        "poi_name": "MAIN EXIT",
        "profile": "BASIC INFO",
        "icon_id": "entrance_exit",
        "orientation": 0
      }
    },
    {
      "type": "Feature",
      "geometry": {
        "type": "Point",
        "coordinates": [
          -76.986987,
          39.826479
        ]
      },
      "properties": {
        "type": "P",
        "sub_category": "EntryExit",
        "poi_name": "PRO ENTRANCE",
        "profile": "BASIC INFO",
        "icon_id": "entrance_exit",
        "orientation": 0
      }
    },
    {
      "type": "Feature",
      "geometry": {
        "type": "Point",
        "coordinates": [
          -76.98699,
          39.826507
        ]
      },
      "properties": {
        "type": "P",
        "sub_category": "EntryExit",
        "poi_name": "PRO EXIT",
        "profile": "BASIC INFO",
        "icon_id": "entrance_exit",
        "orientation": 0
      }
    },
    {
      "type": "Feature",
      "geometry": {
        "type": "Point",
        "coordinates": [
          -76.985532,
          39.826441
        ]
      },
      "properties": {
        "type": "P",
        "sub_category": "EntryExit",
        "poi_name": "GARDEN CENTER ENTRANCE",
        "profile": "BASIC INFO",
        "icon_id": "entrance_exit",
        "orientation": 0
      }
    },
    {
      "type": "Feature",
      "geometry": {
        "type": "Point",
        "coordinates": [
          -76.985535,
          39.826469
        ]
      },
      "properties": {
        "type": "P",
        "sub_category": "EntryExit",
        "poi_name": "GARDEN CENTER EXIT",
        "profile": "BASIC INFO",
        "icon_id": "entrance_exit",
        "orientation": 0
      }
    },
    {
      "type": "Feature",
      "geometry": {
        "type": "Point",
        "coordinates": [
          -76.986513,
          39.826474
        ]
      },
      "properties": {
        "type": "P",
        "sub_category": "Restrooms",
        "poi_name": "MEN/WOMEN’S RESTROOMS",
        "profile": "BASIC INFO",
        "icon_id": "restrooms",
        "orientation": 0
      }
    },
    {
      "type": "Feature",
      "geometry": {
        "type": "Point",
        "coordinates": [
          -76.986551,
          39.826467
        ]
      },
      "properties": {
        "type": "P",
        "sub_category": "Restrooms",
        "poi_name": "UNISEX",
        "profile": "BASIC INFO",
        "icon_id": "restrooms",
        "orientation": 0
      }
    },
    {
      "type": "Feature",
      "geometry": {
        "type": "Point",
        "coordinates": [
          -76.986634,
          39.827031
        ]
      },
      "properties": {
        "type": "P",
        "sub_category": "Services",
        "poi_name": "CARPET CUTTING",
        "profile": "STORE SERVICES",
        "icon_id": "carpet_cutting",
        "orientation": 0
      }
    },
    {
      "type": "Feature",
      "geometry": {
        "type": "Point",
        "coordinates": [
          -76.987073,
          39.826535
        ]
      },
      "properties": {
        "type": "P",
        "sub_category": "ServiceDesks",
        "poi_name": "PRO SERVICE DESK",
        "profile": "BASIC INFO",
        "icon_id": "pro_service_desk",
        "orientation": 0
      }
    },
    {
      "type": "Feature",
      "geometry": {
        "type": "Point",
        "coordinates": [
          -76.986305,
          39.826749
        ]
      },
      "properties": {
        "type": "P",
        "sub_category": "ServiceDesks",
        "poi_name": "HOME DECOR DESK",
        "profile": "STORE SERVICES",
        "icon_id": "home_décor_desk",
        "orientation": 0
      }
    },
    {
      "type": "Feature",
      "geometry": {
        "type": "Point",
        "coordinates": [
          -76.986992,
          39.826543
        ]
      },
      "properties": {
        "type": "P",
        "sub_category": "Checkouts",
        "poi_name": "PRO CHECKOUT",
        "profile": "BASIC INFO",
        "icon_id": "checkouts",
        "orientation": 0
      }
    },
    {
      "type": "Feature",
      "geometry": {
        "type": "Point",
        "coordinates": [
          -76.986252,
          39.826984
        ]
      },
      "properties": {
        "type": "P",
        "sub_category": "ServiceDesks",
        "poi_name": "KITCHEN DESIGN DESK",
        "profile": "STORE SERVICES",
        "icon_id": "kitchen_design_desk",
        "orientation": 0
      }
    },
    {
      "type": "Feature",
      "geometry": {
        "type": "Point",
        "coordinates": [
          -76.985533,
          39.826527
        ]
      },
      "properties": {
        "type": "P",
        "sub_category": "Checkouts",
        "poi_name": "GARDEN CENTER CHECKOUT",
        "profile": "BASIC INFO",
        "icon_id": "checkouts",
        "orientation": 0
      }
    },
    {
      "type": "Feature",
      "geometry": {
        "type": "Point",
        "coordinates": [
          -76.986655,
          39.826627
        ]
      },
      "properties": {
        "type": "P",
        "sub_category": "Services",
        "poi_name": "CHAIN AND ROPE CUTTING",
        "profile": "STORE SERVICES",
        "icon_id": "chain_rope_cutting",
        "orientation": 0
      }
    },
    {
      "type": "Feature",
      "geometry": {
        "type": "Point",
        "coordinates": [
          -76.986701,
          39.826582
        ]
      },
      "properties": {
        "type": "P",
        "sub_category": "Services",
        "poi_name": "KEY CUTTING",
        "profile": "STORE SERVICES",
        "icon_id": "key_copying",
        "orientation": 0
      }
    },
    {
      "type": "Feature",
      "geometry": {
        "type": "Point",
        "coordinates": [
          -76.986618,
          39.826581
        ]
      },
      "properties": {
        "type": "P",
        "sub_category": "Services",
        "poi_name": "GLASS CUTTING",
        "profile": "STORE SERVICES",
        "icon_id": "glass_cutting",
        "orientation": 0
      }
    },
    {
      "type": "Feature",
      "geometry": {
        "type": "Point",
        "coordinates": [
          -76.987047,
          39.827009
        ]
      },
      "properties": {
        "type": "P",
        "sub_category": "Services",
        "poi_name": "WOOD CUTTING",
        "profile": "STORE SERVICES",
        "icon_id": "wood_cutting",
        "orientation": 0
      }
    },
    {
      "type": "Feature",
      "geometry": {
        "type": "Point",
        "coordinates": [
          -76.986347,
          39.82669
        ]
      },
      "properties": {
        "type": "P",
        "sub_category": "Services",
        "poi_name": "BLIND CUTTING",
        "profile": "STORE SERVICES",
        "icon_id": "blind_cutting",
        "orientation": 0
      }
    },
    {
      "type": "Feature",
      "geometry": {
        "type": "Point",
        "coordinates": [
          -76.986542,
          39.826765
        ]
      },
      "properties": {
        "type": "P",
        "sub_category": "Services",
        "poi_name": "WIRE CUTTING",
        "profile": "STORE SERVICES",
        "icon_id": "wire_cutting",
        "orientation": 0
      }
    },
    {
      "type": "Feature",
      "geometry": {
        "type": "Point",
        "coordinates": [
          -76.986565,
          39.82685
        ]
      },
      "properties": {
        "type": "P",
        "sub_category": "ServiceDesks",
        "poi_name": "FLOORING DESK",
        "profile": "STORE SERVICES",
        "icon_id": "flooring_desk",
        "orientation": 0
      }
    },
    {
      "type": "Feature",
      "geometry": {
        "type": "Point",
        "coordinates": [
          -76.986522,
          39.827146
        ]
      },
      "properties": {
        "type": "P",
        "sub_category": "ServiceDesks",
        "poi_name": "RECEIVING DESK",
        "profile": "BASIC INFO",
        "icon_id": "receiving_desk",
        "orientation": 0
      }
    },
    {
      "type": "Feature",
      "geometry": {
        "type": "Point",
        "coordinates": [
          -76.986917,
          39.826926
        ]
      },
      "properties": {
        "name": "LUMBER",
        "orientation": 0
      }
    },
    {
      "type": "Feature",
      "geometry": {
        "type": "Point",
        "coordinates": [
          -76.98695,
          39.826677
        ]
      },
      "properties": {
        "name": "LUMBER",
        "orientation": 0
      }
    },
    {
      "type": "Feature",
      "geometry": {
        "type": "Point",
        "coordinates": [
          -76.987029,
          39.826678
        ]
      },
      "properties": {
        "name": "LUMBER",
        "orientation": 0
      }
    },
    {
      "type": "Feature",
      "geometry": {
        "type": "Point",
        "coordinates": [
          -76.987034,
          39.826874
        ]
      },
      "properties": {
        "name": "LUMBER",
        "orientation": 0
      }
    },
    {
      "type": "Feature",
      "geometry": {
        "type": "Point",
        "coordinates": [
          -76.987071,
          39.827021
        ]
      },
      "properties": {
        "name": "LUMBER",
        "orientation": 0
      }
    },
    {
      "type": "Feature",
      "geometry": {
        "type": "Point",
        "coordinates": [
          -76.986806,
          39.826912
        ]
      },
      "properties": {
        "name": "BUILDING MATERIALS",
        "orientation": 0
      }
    },
    {
      "type": "Feature",
      "geometry": {
        "type": "Point",
        "coordinates": [
          -76.986897,
          39.826984
        ]
      },
      "properties": {
        "name": "BUILDING MATERIALS",
        "orientation": 0
      }
    },
    {
      "type": "Feature",
      "geometry": {
        "type": "Point",
        "coordinates": [
          -76.986935,
          39.826829
        ]
      },
      "properties": {
        "name": "BUILDING MATERIALS",
        "orientation": 0
      }
    },
    {
      "type": "Feature",
      "geometry": {
        "type": "Point",
        "coordinates": [
          -76.987073,
          39.826781
        ]
      },
      "properties": {
        "name": "BUILDING MATERIALS",
        "orientation": 0
      }
    },
    {
      "type": "Feature",
      "geometry": {
        "type": "Point",
        "coordinates": [
          -76.986895,
          39.826672
        ]
      },
      "properties": {
        "name": "BUILDING MATERIALS",
        "orientation": 0
      }
    },
    {
      "type": "Feature",
      "geometry": {
        "type": "Point",
        "coordinates": [
          -76.986768,
          39.826926
        ]
      },
      "properties": {
        "name": "MILLWORK",
        "orientation": 0
      }
    },
    {
      "type": "Feature",
      "geometry": {
        "type": "Point",
        "coordinates": [
          -76.987034,
          39.826964
        ]
      },
      "properties": {
        "name": "MILLWORK",
        "orientation": 0
      }
    },
    {
      "type": "Feature",
      "geometry": {
        "type": "Point",
        "coordinates": [
          -76.986791,
          39.826676
        ]
      },
      "properties": {
        "name": "MILLWORK",
        "orientation": 0
      }
    },
    {
      "type": "Feature",
      "geometry": {
        "type": "Point",
        "coordinates": [
          -76.986434,
          39.826672
        ]
      },
      "properties": {
        "name": "LIGHTING",
        "orientation": 0
      }
    },
    {
      "type": "Feature",
      "geometry": {
        "type": "Point",
        "coordinates": [
          -76.986573,
          39.826676
        ]
      },
      "properties": {
        "name": "ROUGH ELECTRICAL",
        "orientation": 0
      }
    },
    {
      "type": "Feature",
      "geometry": {
        "type": "Point",
        "coordinates": [
          -76.985909,
          39.826872
        ]
      },
      "properties": {
        "name": "FASHION PLUMBING",
        "orientation": 0
      }
    },
    {
      "type": "Feature",
      "geometry": {
        "type": "Point",
        "coordinates": [
          -76.985899,
          39.82698
        ]
      },
      "properties": {
        "name": "ROUGH PLUMBING",
        "orientation": 0
      }
    },
    {
      "type": "Feature",
      "geometry": {
        "type": "Point",
        "coordinates": [
          -76.986177,
          39.826926
        ]
      },
      "properties": {
        "name": "APPLIANCES",
        "orientation": 0
      }
    },
    {
      "type": "Feature",
      "geometry": {
        "type": "Point",
        "coordinates": [
          -76.986355,
          39.826849
        ]
      },
      "properties": {
        "name": "APPLIANCES",
        "orientation": 0
      }
    },
    {
      "type": "Feature",
      "geometry": {
        "type": "Point",
        "coordinates": [
          -76.986666,
          39.826673
        ]
      },
      "properties": {
        "name": "HARDWARE",
        "orientation": 0
      }
    },
    {
      "type": "Feature",
      "geometry": {
        "type": "Point",
        "coordinates": [
          -76.986185,
          39.826669
        ]
      },
      "properties": {
        "name": "PAINT",
        "orientation": 0
      }
    },
    {
      "type": "Feature",
      "geometry": {
        "type": "Point",
        "coordinates": [
          -76.986834,
          39.826601
        ]
      },
      "properties": {
        "name": "TOOLS",
        "orientation": 0
      }
    },
    {
      "type": "Feature",
      "geometry": {
        "type": "Point",
        "coordinates": [
          -76.986705,
          39.826754
        ]
      },
      "properties": {
        "name": "TOOLS",
        "orientation": 0
      }
    },
    {
      "type": "Feature",
      "geometry": {
        "type": "Point",
        "coordinates": [
          -76.9867,
          39.826517
        ]
      },
      "properties": {
        "name": "TOOLS",
        "orientation": 0
      }
    },
    {
      "type": "Feature",
      "geometry": {
        "type": "Point",
        "coordinates": [
          -76.985868,
          39.826705
        ]
      },
      "properties": {
        "name": "OUTDOOR POWER EQUIPMENT",
        "orientation": 0
      }
    },
    {
      "type": "Feature",
      "geometry": {
        "type": "Point",
        "coordinates": [
          -76.986574,
          39.826926
        ]
      },
      "properties": {
        "name": "FLOORING",
        "orientation": 0
      }
    },
    {
      "type": "Feature",
      "geometry": {
        "type": "Point",
        "coordinates": [
          -76.986244,
          39.826948
        ]
      },
      "properties": {
        "name": "CABINETS",
        "orientation": 0
      }
    },
    {
      "type": "Feature",
      "geometry": {
        "type": "Point",
        "coordinates": [
          -76.986369,
          39.826967
        ]
      },
      "properties": {
        "name": "CABINETS",
        "orientation": 0
      }
    },
    {
      "type": "Feature",
      "geometry": {
        "type": "Point",
        "coordinates": [
          -76.985922,
          39.826754
        ]
      },
      "properties": {
        "name": "CLEANING",
        "orientation": 0
      }
    },
    {
      "type": "Feature",
      "geometry": {
        "type": "Point",
        "coordinates": [
          -76.986102,
          39.826672
        ]
      },
      "properties": {
        "name": "CLEANING",
        "orientation": 0
      }
    },
    {
      "type": "Feature",
      "geometry": {
        "type": "Point",
        "coordinates": [
          -76.986577,
          39.826932
        ]
      },
      "properties": {
        "name": "HOME DECOR",
        "orientation": 0
      }
    },
    {
      "type": "Feature",
      "geometry": {
        "type": "Point",
        "coordinates": [
          -76.986592,
          39.827015
        ]
      },
      "properties": {
        "name": "HOME DECOR",
        "orientation": 0
      }
    },
    {
      "type": "Feature",
      "geometry": {
        "type": "Point",
        "coordinates": [
          -76.986344,
          39.826676
        ]
      },
      "properties": {
        "name": "HOME DECOR",
        "orientation": 0
      }
    },
    {
      "type": "Feature",
      "geometry": {
        "type": "Point",
        "coordinates": [
          -76.985736,
          39.826686
        ]
      },
      "properties": {
        "name": "INSIDE LAWN AND GARDEN",
        "orientation": 0
      }
    },
    {
      "type": "Feature",
      "geometry": {
        "type": "Point",
        "coordinates": [
          -76.985842,
          39.826514
        ]
      },
      "properties": {
        "name": "INSIDE LAWN AND GARDEN",
        "orientation": 0
      }
    },
    {
      "type": "Feature",
      "geometry": {
        "type": "Point",
        "coordinates": [
          -76.985908,
          39.826671
        ]
      },
      "properties": {
        "name": "INSIDE LAWN AND GARDEN",
        "orientation": 0
      }
    },
    {
      "type": "Feature",
      "geometry": {
        "type": "Point",
        "coordinates": [
          -76.985576,
          39.827006
        ]
      },
      "properties": {
        "name": "OUTSIDE LAWN AND GARDEN",
        "orientation": 0
      }
    },
    {
      "type": "Feature",
      "geometry": {
        "type": "Point",
        "coordinates": [
          -76.985555,
          39.826916
        ]
      },
      "properties": {
        "name": "OUTSIDE LAWN AND GARDEN",
        "orientation": 0
      }
    },
    {
      "type": "Feature",
      "geometry": {
        "type": "Point",
        "coordinates": [
          -76.985555,
          39.826617
        ]
      },
      "properties": {
        "name": "OUTSIDE LAWN AND GARDEN",
        "orientation": 0
      }
    },
    {
      "type": "Feature",
      "geometry": {
        "type": "Point",
        "coordinates": [
          -76.985656,
          39.826487
        ]
      },
      "properties": {
        "name": "OUTSIDE LAWN AND GARDEN",
        "orientation": 0
      }
    },
    {
      "type": "Feature",
      "geometry": {
        "type": "Point",
        "coordinates": [
          -76.986421,
          39.826931
        ]
      },
      "properties": {
        "name": "STORAGE",
        "orientation": 0
      }
    },
    {
      "type": "Feature",
      "geometry": {
        "type": "Point",
        "coordinates": [
          -76.986268,
          39.826681
        ]
      },
      "properties": {
        "name": "STORAGE",
        "orientation": 0
      }
    },
    {
      "type": "Feature",
      "geometry": {
        "type": "Point",
        "coordinates": [
          -76.985555,
          39.826751
        ]
      },
      "properties": {
        "name": "GARDEN CENTER",
        "orientation": 0
      }
    }
  ]
}