{
  "type": "FeatureCollection",
  "features": [
    {
      "type": "Feature",
      "geometry": {
        "type": "MultiPolygon",
        "coordinates": [
          [
            [
              [
                -76.986998,
                39.826843
              ],
              [
                -76.986998,
                39.82708
              ],
              [
                -76.986974,
                39.82708
              ],
              [
                -76.986974,
                39.827089
              ],
              [
                -76.986959,
                39.827089
              ],
              [
                -76.986959,
                39.827103
              ],
              [
                -76.986935,
                39.827103
              ],
              [
                -76.986887,
                39.827103
              ],
              [
                -76.986887,
                39.827078
              ],
              [
                -76.986936,
                39.827078
              ],
              [
                -76.986936,
                39.827053
              ],
              [
                -76.986901,
                39.827053
              ],
              [
                -76.986901,
                39.826888
              ],
              [
                -76.986935,
                39.826888
              ],
              [
                -76.986935,
                39.826953
              ],
              [
                -76.986971,
                39.826953
              ],
              [
                -76.986971,
                39.826886
              ],
              [
                -76.986935,
                39.826886
              ],
              [
                -76.986935,
                39.826866
              ],
              [
                -76.986971,
                39.826866
              ],
              [
                -76.986971,
                39.826843
              ],
              [
                -76.986998,
                39.826843
              ]
            ]
          ],
          [
            [
              [
                -76.986754,
                39.827012
              ],
              [
                -76.986728,
                39.827012
              ],
              [
                -76.986728,
                39.827053
              ],
              [
                -76.986754,
                39.827053
              ],
              [
                -76.986754,
                39.827012
              ]
            ]
          ],
          [
            [
              [
                -76.986998,
                39.826589
              ],
              [
                -76.986998,
                39.826809
              ],
              [
                -76.986931,
                39.826809
              ],
              [
                -76.986931,
                39.826589
              ],
              [
                -76.986998,
                39.826589
              ]
            ]
          ],
          [
            [
              [
                -76.987057,
                39.826846
              ],
              [
                -76.987029,
                39.826846
              ],
              [
                -76.987029,
                39.82708
              ],
              [
                -76.987051,
                39.82708
              ],
              [
                -76.987051,
                39.827103
              ],
              [
                -76.987098,
                39.827103
              ],
              [
                -76.987098,
                39.82708
              ],
              [
                -76.98709,
                39.82708
              ],
              [
                -76.98709,
                39.827051
              ],
              [
                -76.98709,
                39.827042
              ],
              [
                -76.987057,
                39.827042
              ],
              [
                -76.987057,
                39.826846
              ]
            ]
          ],
          [
            [
              [
                -76.986754,
                39.82695
              ],
              [
                -76.986728,
                39.82695
              ],
              [
                -76.986728,
                39.826908
              ],
              [
                -76.986754,
                39.826908
              ],
              [
                -76.986754,
                39.82695
              ]
            ]
          ],
          [
            [
              [
                -76.98709,
                39.826579
              ],
              [
                -76.98709,
                39.826593
              ],
              [
                -76.987057,
                39.826593
              ],
              [
                -76.987057,
                39.826799
              ],
              [
                -76.987029,
                39.826799
              ],
              [
                -76.987029,
                39.826651
              ],
              [
                -76.987018,
                39.826651
              ],
              [
                -76.987018,
                39.826592
              ],
              [
                -76.98703,
                39.826592
              ],
              [
                -76.98703,
                39.826579
              ],
              [
                -76.98709,
                39.826579
              ]
            ]
          ],
          [
            [
              [
                -76.986833,
                39.826637
              ],
              [
                -76.986808,
                39.826637
              ],
              [
                -76.986808,
                39.826803
              ],
              [
                -76.986833,
                39.826803
              ],
              [
                -76.986833,
                39.826637
              ]
            ]
          ],
          [
            [
              [
                -76.986804,
                39.826919
              ],
              [
                -76.986778,
                39.826919
              ],
              [
                -76.986778,
                39.826908
              ],
              [
                -76.986754,
                39.826908
              ],
              [
                -76.986754,
                39.827053
              ],
              [
                -76.986778,
                39.827053
              ],
              [
                -76.986804,
                39.827053
              ],
              [
                -76.986804,
                39.826919
              ]
            ]
          ],
          [
            [
              [
                -76.986971,
                39.826886
              ],
              [
                -76.986935,
                39.826886
              ],
              [
                -76.986935,
                39.826953
              ],
              [
                -76.986971,
                39.826953
              ],
              [
                -76.986971,
                39.826886
              ]
            ]
          ],
          [
            [
              [
                -76.986887,
                39.827078
              ],
              [
                -76.986887,
                39.827103
              ],
              [
                -76.986667,
                39.827103
              ],
              [
                -76.986667,
                39.827078
              ],
              [
                -76.986887,
                39.827078
              ]
            ]
          ],
          [
            [
              [
                -76.986998,
                39.826579
              ],
              [
                -76.986931,
                39.826579
              ],
              [
                -76.986861,
                39.826579
              ],
              [
                -76.986861,
                39.826586
              ],
              [
                -76.986888,
                39.826586
              ],
              [
                -76.986888,
                39.826799
              ],
              [
                -76.986913,
                39.826799
              ],
              [
                -76.986931,
                39.826799
              ],
              [
                -76.986931,
                39.826589
              ],
              [
                -76.986998,
                39.826589
              ],
              [
                -76.986998,
                39.826579
              ]
            ]
          ],
          [
            [
              [
                -76.987125,
                39.827103
              ],
              [
                -76.987098,
                39.827103
              ],
              [
                -76.987098,
                39.82708
              ],
              [
                -76.98709,
                39.82708
              ],
              [
                -76.98709,
                39.827042
              ],
              [
                -76.987057,
                39.827042
              ],
              [
                -76.987057,
                39.826846
              ],
              [
                -76.98709,
                39.826846
              ],
              [
                -76.98709,
                39.826836
              ],
              [
                -76.98709,
                39.826807
              ],
              [
                -76.98709,
                39.8268
              ],
              [
                -76.98709,
                39.826799
              ],
              [
                -76.987057,
                39.826799
              ],
              [
                -76.987057,
                39.826593
              ],
              [
                -76.98709,
                39.826593
              ],
              [
                -76.98709,
                39.826534
              ],
              [
                -76.987125,
                39.826534
              ],
              [
                -76.987125,
                39.827103
              ]
            ]
          ],
          [
            [
              [
                -76.986935,
                39.826838
              ],
              [
                -76.986935,
                39.826843
              ],
              [
                -76.986971,
                39.826843
              ],
              [
                -76.986971,
                39.826866
              ],
              [
                -76.986935,
                39.826866
              ],
              [
                -76.986935,
                39.826888
              ],
              [
                -76.986901,
                39.826888
              ],
              [
                -76.986901,
                39.827053
              ],
              [
                -76.986936,
                39.827053
              ],
              [
                -76.986936,
                39.827078
              ],
              [
                -76.986678,
                39.827078
              ],
              [
                -76.986678,
                39.827053
              ],
              [
                -76.986652,
                39.827053
              ],
              [
                -76.986652,
                39.826846
              ],
              [
                -76.986728,
                39.826846
              ],
              [
                -76.986728,
                39.826838
              ],
              [
                -76.986935,
                39.826838
              ]
            ]
          ],
          [
            [
              [
                -76.986931,
                39.826809
              ],
              [
                -76.986862,
                39.826809
              ],
              [
                -76.986862,
                39.826803
              ],
              [
                -76.986833,
                39.826803
              ],
              [
                -76.986833,
                39.826586
              ],
              [
                -76.986861,
                39.826586
              ],
              [
                -76.986888,
                39.826586
              ],
              [
                -76.986888,
                39.826799
              ],
              [
                -76.986931,
                39.826799
              ],
              [
                -76.986931,
                39.826809
              ]
            ]
          ],
          [
            [
              [
                -76.986554,
                39.826586
              ],
              [
                -76.986529,
                39.826586
              ],
              [
                -76.986529,
                39.82659
              ],
              [
                -76.986427,
                39.82659
              ],
              [
                -76.986427,
                39.826586
              ],
              [
                -76.98635,
                39.826586
              ],
              [
                -76.98635,
                39.826763
              ],
              [
                -76.986374,
                39.826763
              ],
              [
                -76.986374,
                39.826803
              ],
              [
                -76.9864,
                39.826803
              ],
              [
                -76.986427,
                39.826803
              ],
              [
                -76.986427,
                39.826802
              ],
              [
                -76.986479,
                39.826802
              ],
              [
                -76.986479,
                39.826772
              ],
              [
                -76.986529,
                39.826772
              ],
              [
                -76.986529,
                39.826803
              ],
              [
                -76.986554,
                39.826803
              ],
              [
                -76.986554,
                39.826586
              ]
            ]
          ],
          [
            [
              [
                -76.98665,
                39.826803
              ],
              [
                -76.986554,
                39.826803
              ],
              [
                -76.986554,
                39.826586
              ],
              [
                -76.98665,
                39.826586
              ],
              [
                -76.98665,
                39.826803
              ]
            ]
          ],
          [
            [
              [
                -76.986284,
                39.826838
              ],
              [
                -76.986212,
                39.826838
              ],
              [
                -76.986212,
                39.826894
              ],
              [
                -76.986284,
                39.826894
              ],
              [
                -76.986284,
                39.826838
              ]
            ]
          ],
          [
            [
              [
                -76.986031,
                39.826994
              ],
              [
                -76.985769,
                39.826994
              ],
              [
                -76.985769,
                39.826827
              ],
              [
                -76.98604,
                39.826827
              ],
              [
                -76.98604,
                39.826939
              ],
              [
                -76.986031,
                39.826939
              ],
              [
                -76.986031,
                39.826994
              ]
            ]
          ],
          [
            [
              [
                -76.985716,
                39.826956
              ],
              [
                -76.985742,
                39.826956
              ],
              [
                -76.985742,
                39.826846
              ],
              [
                -76.985716,
                39.826846
              ],
              [
                -76.985716,
                39.826956
              ]
            ]
          ],
          [
            [
              [
                -76.985888,
                39.827103
              ],
              [
                -76.986053,
                39.827103
              ],
              [
                -76.986053,
                39.827079
              ],
              [
                -76.986032,
                39.827079
              ],
              [
                -76.986032,
                39.827055
              ],
              [
                -76.986031,
                39.827055
              ],
              [
                -76.986031,
                39.826994
              ],
              [
                -76.985769,
                39.826994
              ],
              [
                -76.985769,
                39.827075
              ],
              [
                -76.985888,
                39.827075
              ],
              [
                -76.985888,
                39.827103
              ]
            ]
          ],
          [
            [
              [
                -76.985845,
                39.827103
              ],
              [
                -76.985716,
                39.827103
              ],
              [
                -76.985716,
                39.827071
              ],
              [
                -76.985742,
                39.827071
              ],
              [
                -76.985742,
                39.827084
              ],
              [
                -76.985845,
                39.827084
              ],
              [
                -76.985845,
                39.827103
              ]
            ]
          ],
          [
            [
              [
                -76.985742,
                39.826956
              ],
              [
                -76.985716,
                39.826956
              ],
              [
                -76.985716,
                39.827059
              ],
              [
                -76.985742,
                39.827059
              ],
              [
                -76.985742,
                39.826956
              ]
            ]
          ],
          [
            [
              [
                -76.986357,
                39.826846
              ],
              [
                -76.986332,
                39.826846
              ],
              [
                -76.986332,
                39.826845
              ],
              [
                -76.986307,
                39.826845
              ],
              [
                -76.986307,
                39.826923
              ],
              [
                -76.98632,
                39.826923
              ],
              [
                -76.986332,
                39.826923
              ],
              [
                -76.986332,
                39.826945
              ],
              [
                -76.986332,
                39.826949
              ],
              [
                -76.98632,
                39.826949
              ],
              [
                -76.986306,
                39.826949
              ],
              [
                -76.986306,
                39.826994
              ],
              [
                -76.986332,
                39.826994
              ],
              [
                -76.986332,
                39.826964
              ],
              [
                -76.986357,
                39.826964
              ],
              [
                -76.986357,
                39.826846
              ]
            ]
          ],
          [
            [
              [
                -76.98641,
                39.827103
              ],
              [
                -76.986053,
                39.827103
              ],
              [
                -76.986053,
                39.827079
              ],
              [
                -76.98604,
                39.827079
              ],
              [
                -76.98604,
                39.826838
              ],
              [
                -76.986212,
                39.826838
              ],
              [
                -76.986212,
                39.826894
              ],
              [
                -76.986177,
                39.826894
              ],
              [
                -76.986177,
                39.826906
              ],
              [
                -76.986156,
                39.826906
              ],
              [
                -76.986156,
                39.826961
              ],
              [
                -76.986196,
                39.826961
              ],
              [
                -76.986196,
                39.827051
              ],
              [
                -76.986163,
                39.827051
              ],
              [
                -76.986163,
                39.827083
              ],
              [
                -76.986306,
                39.827083
              ],
              [
                -76.986381,
                39.827083
              ],
              [
                -76.986381,
                39.827084
              ],
              [
                -76.98641,
                39.827084
              ],
              [
                -76.98641,
                39.827103
              ]
            ]
          ],
          [
            [
              [
                -76.986808,
                39.826803
              ],
              [
                -76.986671,
                39.826803
              ],
              [
                -76.98665,
                39.826803
              ],
              [
                -76.98665,
                39.826586
              ],
              [
                -76.986715,
                39.826586
              ],
              [
                -76.986715,
                39.826579
              ],
              [
                -76.986761,
                39.826579
              ],
              [
                -76.986761,
                39.826586
              ],
              [
                -76.986783,
                39.826586
              ],
              [
                -76.986783,
                39.826665
              ],
              [
                -76.986808,
                39.826665
              ],
              [
                -76.986808,
                39.826803
              ]
            ]
          ],
          [
            [
              [
                -76.986579,
                39.826743
              ],
              [
                -76.986603,
                39.826743
              ],
              [
                -76.986603,
                39.826783
              ],
              [
                -76.986579,
                39.826783
              ],
              [
                -76.986579,
                39.826743
              ]
            ]
          ],
          [
            [
              [
                -76.986239,
                39.826802
              ],
              [
                -76.986197,
                39.826802
              ],
              [
                -76.986197,
                39.826803
              ],
              [
                -76.986107,
                39.826803
              ],
              [
                -76.986107,
                39.826802
              ],
              [
                -76.986085,
                39.826802
              ],
              [
                -76.986085,
                39.826586
              ],
              [
                -76.986107,
                39.826586
              ],
              [
                -76.986107,
                39.826579
              ],
              [
                -76.986197,
                39.826579
              ],
              [
                -76.986197,
                39.826586
              ],
              [
                -76.986218,
                39.826586
              ],
              [
                -76.986218,
                39.826743
              ],
              [
                -76.986239,
                39.826743
              ],
              [
                -76.986239,
                39.826802
              ]
            ]
          ],
          [
            [
              [
                -76.986833,
                39.826586
              ],
              [
                -76.986783,
                39.826586
              ],
              [
                -76.986783,
                39.826665
              ],
              [
                -76.986808,
                39.826665
              ],
              [
                -76.986808,
                39.826637
              ],
              [
                -76.986833,
                39.826637
              ],
              [
                -76.986833,
                39.826586
              ]
            ]
          ],
          [
            [
              [
                -76.986457,
                39.826555
              ],
              [
                -76.986457,
                39.82651
              ],
              [
                -76.986466,
                39.82651
              ],
              [
                -76.986466,
                39.826494
              ],
              [
                -76.986921,
                39.826494
              ],
              [
                -76.986925,
                39.826494
              ],
              [
                -76.986925,
                39.826506
              ],
              [
                -76.98691,
                39.826506
              ],
              [
                -76.98691,
                39.826549
              ],
              [
                -76.986923,
                39.826549
              ],
              [
                -76.986923,
                39.826555
              ],
              [
                -76.986457,
                39.826555
              ]
            ]
          ],
          [
            [
              [
                -76.985922,
                39.826679
              ],
              [
                -76.985922,
                39.826747
              ],
              [
                -76.985909,
                39.826747
              ],
              [
                -76.985909,
                39.826693
              ],
              [
                -76.985779,
                39.826693
              ],
              [
                -76.985779,
                39.826711
              ],
              [
                -76.985741,
                39.826711
              ],
              [
                -76.985741,
                39.826782
              ],
              [
                -76.985779,
                39.826782
              ],
              [
                -76.985779,
                39.826764
              ],
              [
                -76.986014,
                39.826764
              ],
              [
                -76.986014,
                39.826745
              ],
              [
                -76.986028,
                39.826745
              ],
              [
                -76.986028,
                39.826741
              ],
              [
                -76.986035,
                39.826741
              ],
              [
                -76.986035,
                39.826679
              ],
              [
                -76.985922,
                39.826679
              ]
            ]
          ],
          [
            [
              [
                -76.986652,
                39.826846
              ],
              [
                -76.986626,
                39.826846
              ],
              [
                -76.986626,
                39.826838
              ],
              [
                -76.986428,
                39.826838
              ],
              [
                -76.986428,
                39.826857
              ],
              [
                -76.986448,
                39.826857
              ],
              [
                -76.986448,
                39.827084
              ],
              [
                -76.986477,
                39.827084
              ],
              [
                -76.986477,
                39.827103
              ],
              [
                -76.986668,
                39.827103
              ],
              [
                -76.986668,
                39.827089
              ],
              [
                -76.986667,
                39.827078
              ],
              [
                -76.986678,
                39.827078
              ],
              [
                -76.986678,
                39.827053
              ],
              [
                -76.986652,
                39.827053
              ],
              [
                -76.986626,
                39.827053
              ],
              [
                -76.986626,
                39.827032
              ],
              [
                -76.986652,
                39.827032
              ],
              [
                -76.986652,
                39.826846
              ]
            ]
          ],
          [
            [
              [
                -76.986357,
                39.826964
              ],
              [
                -76.986357,
                39.826984
              ],
              [
                -76.986357,
                39.827063
              ],
              [
                -76.986381,
                39.827062
              ],
              [
                -76.986381,
                39.827083
              ],
              [
                -76.986306,
                39.827083
              ],
              [
                -76.986163,
                39.827083
              ],
              [
                -76.986163,
                39.827051
              ],
              [
                -76.986196,
                39.827051
              ],
              [
                -76.986196,
                39.826961
              ],
              [
                -76.986156,
                39.826961
              ],
              [
                -76.986156,
                39.826906
              ],
              [
                -76.986177,
                39.826906
              ],
              [
                -76.986177,
                39.826894
              ],
              [
                -76.986284,
                39.826894
              ],
              [
                -76.986284,
                39.826845
              ],
              [
                -76.986307,
                39.826845
              ],
              [
                -76.986307,
                39.826923
              ],
              [
                -76.986332,
                39.826923
              ],
              [
                -76.986332,
                39.826949
              ],
              [
                -76.986306,
                39.826949
              ],
              [
                -76.986306,
                39.826994
              ],
              [
                -76.986332,
                39.826994
              ],
              [
                -76.986332,
                39.826964
              ],
              [
                -76.986357,
                39.826964
              ]
            ]
          ],
          [
            [
              [
                -76.986085,
                39.826802
              ],
              [
                -76.98606,
                39.826802
              ],
              [
                -76.98606,
                39.826586
              ],
              [
                -76.986085,
                39.826586
              ],
              [
                -76.986085,
                39.826802
              ]
            ]
          ],
          [
            [
              [
                -76.986015,
                39.826782
              ],
              [
                -76.985754,
                39.826782
              ],
              [
                -76.985754,
                39.826799
              ],
              [
                -76.986015,
                39.826799
              ],
              [
                -76.986015,
                39.826782
              ]
            ]
          ],
          [
            [
              [
                -76.9866,
                39.827075
              ],
              [
                -76.986573,
                39.827075
              ],
              [
                -76.986545,
                39.827075
              ],
              [
                -76.986545,
                39.827044
              ],
              [
                -76.986573,
                39.827044
              ],
              [
                -76.986573,
                39.82692
              ],
              [
                -76.9866,
                39.82692
              ],
              [
                -76.9866,
                39.827075
              ]
            ]
          ],
          [
            [
              [
                -76.986374,
                39.826802
              ],
              [
                -76.986374,
                39.826809
              ],
              [
                -76.986239,
                39.826809
              ],
              [
                -76.986239,
                39.826763
              ],
              [
                -76.986263,
                39.826763
              ],
              [
                -76.986263,
                39.826586
              ],
              [
                -76.98635,
                39.826586
              ],
              [
                -76.98635,
                39.826763
              ],
              [
                -76.986374,
                39.826763
              ],
              [
                -76.986374,
                39.826802
              ]
            ]
          ],
          [
            [
              [
                -76.986239,
                39.826645
              ],
              [
                -76.986218,
                39.826645
              ],
              [
                -76.986218,
                39.826586
              ],
              [
                -76.986239,
                39.826586
              ],
              [
                -76.986239,
                39.826645
              ]
            ]
          ],
          [
            [
              [
                -76.986015,
                39.826817
              ],
              [
                -76.985747,
                39.826817
              ],
              [
                -76.985747,
                39.826813
              ],
              [
                -76.985716,
                39.826813
              ],
              [
                -76.985716,
                39.826574
              ],
              [
                -76.985747,
                39.826574
              ],
              [
                -76.985747,
                39.826567
              ],
              [
                -76.986035,
                39.826567
              ],
              [
                -76.986035,
                39.826679
              ],
              [
                -76.985922,
                39.826679
              ],
              [
                -76.985922,
                39.82664
              ],
              [
                -76.985909,
                39.82664
              ],
              [
                -76.985909,
                39.826693
              ],
              [
                -76.985779,
                39.826693
              ],
              [
                -76.985779,
                39.826711
              ],
              [
                -76.985741,
                39.826711
              ],
              [
                -76.985741,
                39.826782
              ],
              [
                -76.985754,
                39.826782
              ],
              [
                -76.985754,
                39.826799
              ],
              [
                -76.986015,
                39.826799
              ],
              [
                -76.986015,
                39.826817
              ]
            ]
          ],
          [
            [
              [
                -76.985831,
                39.826782
              ],
              [
                -76.986014,
                39.826782
              ],
              [
                -76.986014,
                39.826764
              ],
              [
                -76.985831,
                39.826764
              ],
              [
                -76.985831,
                39.826782
              ]
            ]
          ],
          [
            [
              [
                -76.985906,
                39.826494
              ],
              [
                -76.985906,
                39.826513
              ],
              [
                -76.985879,
                39.826513
              ],
              [
                -76.985879,
                39.826548
              ],
              [
                -76.985747,
                39.826548
              ],
              [
                -76.985747,
                39.826541
              ],
              [
                -76.985716,
                39.826541
              ],
              [
                -76.985716,
                39.826494
              ],
              [
                -76.985732,
                39.826494
              ],
              [
                -76.985732,
                39.826509
              ],
              [
                -76.985747,
                39.826509
              ],
              [
                -76.985747,
                39.826494
              ],
              [
                -76.985906,
                39.826494
              ]
            ]
          ],
          [
            [
              [
                -76.985686,
                39.826771
              ],
              [
                -76.985713,
                39.826771
              ],
              [
                -76.985713,
                39.826626
              ],
              [
                -76.985686,
                39.826626
              ],
              [
                -76.985686,
                39.826771
              ]
            ]
          ],
          [
            [
              [
                -76.985679,
                39.826956
              ],
              [
                -76.985644,
                39.826956
              ],
              [
                -76.985644,
                39.826894
              ],
              [
                -76.985609,
                39.826894
              ],
              [
                -76.985609,
                39.826915
              ],
              [
                -76.985576,
                39.826915
              ],
              [
                -76.985576,
                39.826894
              ],
              [
                -76.985609,
                39.826894
              ],
              [
                -76.985609,
                39.826884
              ],
              [
                -76.985679,
                39.826884
              ],
              [
                -76.985679,
                39.826956
              ]
            ]
          ],
          [
            [
              [
                -76.985711,
                39.826847
              ],
              [
                -76.985697,
                39.826847
              ],
              [
                -76.985697,
                39.826884
              ],
              [
                -76.985381,
                39.826884
              ],
              [
                -76.985381,
                39.826865
              ],
              [
                -76.985355,
                39.826865
              ],
              [
                -76.985352,
                39.826865
              ],
              [
                -76.985352,
                39.827068
              ],
              [
                -76.985371,
                39.827068
              ],
              [
                -76.985371,
                39.82707
              ],
              [
                -76.985672,
                39.82707
              ],
              [
                -76.985672,
                39.82706
              ],
              [
                -76.985694,
                39.82706
              ],
              [
                -76.985694,
                39.827059
              ],
              [
                -76.985713,
                39.827059
              ],
              [
                -76.985713,
                39.826847
              ],
              [
                -76.985711,
                39.826847
              ]
            ]
          ],
          [
            [
              [
                -76.985713,
                39.827071
              ],
              [
                -76.985694,
                39.827071
              ],
              [
                -76.985694,
                39.827069
              ],
              [
                -76.985685,
                39.827069
              ],
              [
                -76.985685,
                39.82708
              ],
              [
                -76.985371,
                39.82708
              ],
              [
                -76.985371,
                39.827081
              ],
              [
                -76.985352,
                39.827081
              ],
              [
                -76.985352,
                39.827104
              ],
              [
                -76.985502,
                39.827104
              ],
              [
                -76.985502,
                39.827103
              ],
              [
                -76.985713,
                39.827103
              ],
              [
                -76.985713,
                39.827071
              ]
            ]
          ],
          [
            [
              [
                -76.985672,
                39.826526
              ],
              [
                -76.98558,
                39.826526
              ],
              [
                -76.98558,
                39.826455
              ],
              [
                -76.985672,
                39.826455
              ],
              [
                -76.985672,
                39.826526
              ]
            ]
          ],
          [
            [
              [
                -76.985713,
                39.826812
              ],
              [
                -76.985682,
                39.826812
              ],
              [
                -76.985682,
                39.82682
              ],
              [
                -76.985672,
                39.82682
              ],
              [
                -76.985672,
                39.826853
              ],
              [
                -76.985408,
                39.826853
              ],
              [
                -76.985408,
                39.826796
              ],
              [
                -76.985352,
                39.826796
              ],
              [
                -76.985352,
                39.826455
              ],
              [
                -76.98538,
                39.826455
              ],
              [
                -76.98538,
                39.82647
              ],
              [
                -76.985397,
                39.82647
              ],
              [
                -76.985397,
                39.826455
              ],
              [
                -76.985453,
                39.826455
              ],
              [
                -76.985453,
                39.82655
              ],
              [
                -76.985632,
                39.82655
              ],
              [
                -76.985632,
                39.826557
              ],
              [
                -76.985671,
                39.826557
              ],
              [
                -76.985671,
                39.826574
              ],
              [
                -76.985713,
                39.826574
              ],
              [
                -76.985713,
                39.826626
              ],
              [
                -76.985686,
                39.826626
              ],
              [
                -76.985686,
                39.826771
              ],
              [
                -76.985713,
                39.826771
              ],
              [
                -76.985713,
                39.826812
              ]
            ]
          ],
          [
            [
              [
                -76.986978,
                39.826494
              ],
              [
                -76.986925,
                39.826494
              ],
              [
                -76.986925,
                39.826506
              ],
              [
                -76.98691,
                39.826506
              ],
              [
                -76.98691,
                39.826549
              ],
              [
                -76.986923,
                39.826549
              ],
              [
                -76.986923,
                39.826555
              ],
              [
                -76.986952,
                39.826555
              ],
              [
                -76.986952,
                39.826506
              ],
              [
                -76.986978,
                39.826506
              ],
              [
                -76.986978,
                39.826494
              ]
            ]
          ],
          [
            [
              [
                -76.985906,
                39.826494
              ],
              [
                -76.985906,
                39.826513
              ],
              [
                -76.985879,
                39.826513
              ],
              [
                -76.985879,
                39.826548
              ],
              [
                -76.985747,
                39.826548
              ],
              [
                -76.986031,
                39.826548
              ],
              [
                -76.986031,
                39.826518
              ],
              [
                -76.986011,
                39.826518
              ],
              [
                -76.986011,
                39.826494
              ],
              [
                -76.985906,
                39.826494
              ]
            ]
          ],
          [
            [
              [
                -76.986237,
                39.826517
              ],
              [
                -76.986173,
                39.826517
              ],
              [
                -76.986173,
                39.826553
              ],
              [
                -76.986237,
                39.826553
              ],
              [
                -76.986237,
                39.826517
              ]
            ]
          ],
          [
            [
              [
                -76.986862,
                39.826809
              ],
              [
                -76.986374,
                39.826809
              ],
              [
                -76.986374,
                39.826803
              ],
              [
                -76.9864,
                39.826803
              ],
              [
                -76.986427,
                39.826803
              ],
              [
                -76.986427,
                39.826802
              ],
              [
                -76.986479,
                39.826802
              ],
              [
                -76.986479,
                39.826772
              ],
              [
                -76.986529,
                39.826772
              ],
              [
                -76.986529,
                39.826803
              ],
              [
                -76.986554,
                39.826803
              ],
              [
                -76.98665,
                39.826803
              ],
              [
                -76.986671,
                39.826803
              ],
              [
                -76.986808,
                39.826803
              ],
              [
                -76.986862,
                39.826803
              ],
              [
                -76.986862,
                39.826809
              ]
            ]
          ],
          [
            [
              [
                -76.98641,
                39.827084
              ],
              [
                -76.986381,
                39.827084
              ],
              [
                -76.986381,
                39.827062
              ],
              [
                -76.986357,
                39.827062
              ],
              [
                -76.986357,
                39.827023
              ],
              [
                -76.986357,
                39.826984
              ],
              [
                -76.986357,
                39.826846
              ],
              [
                -76.986381,
                39.826846
              ],
              [
                -76.986428,
                39.826846
              ],
              [
                -76.986428,
                39.826857
              ],
              [
                -76.986448,
                39.826857
              ],
              [
                -76.986448,
                39.827053
              ],
              [
                -76.986448,
                39.827084
              ],
              [
                -76.98641,
                39.827084
              ]
            ]
          ],
          [
            [
              [
                -76.986263,
                39.826763
              ],
              [
                -76.986239,
                39.826763
              ],
              [
                -76.986239,
                39.826743
              ],
              [
                -76.986218,
                39.826743
              ],
              [
                -76.986218,
                39.826645
              ],
              [
                -76.986239,
                39.826645
              ],
              [
                -76.986239,
                39.826586
              ],
              [
                -76.986263,
                39.826586
              ],
              [
                -76.986263,
                39.826763
              ]
            ]
          ],
          [
            [
              [
                -76.985352,
                39.826455
              ],
              [
                -76.985713,
                39.826455
              ],
              [
                -76.985713,
                39.827103
              ],
              [
                -76.985502,
                39.827103
              ],
              [
                -76.985502,
                39.827104
              ],
              [
                -76.985352,
                39.827104
              ],
              [
                -76.985352,
                39.826455
              ]
            ]
          ]
        ]
      },
      "properties": {
        "fill": "#D9E2F6",
        "stroke-width": "0.5",
        "stroke": "#96A3BD",
        "opacity": "0.75"
      }
    },
    {
      "type": "Feature",
      "geometry": {
        "type": "MultiLineString",
        "coordinates": []
      },
      "properties": {
        "stroke-width": "0.5"
      }
    },
    {
      "type": "Feature",
      "geometry": {
        "type": "Point",
        "coordinates": [
          -76.987016,
          39.826516
        ]
      },
      "properties": {
        "type": "P",
        "sub_category": "EntryExit",
        "poi_name": "PRO EXIT",
        "profile": "BASIC INFO",
        "icon_id": "entrance_exit",
        "orientation": 0
      }
    },
    {
      "type": "Feature",
      "geometry": {
        "type": "Point",
        "coordinates": [
          -76.985516,
          39.82641
        ]
      },
      "properties": {
        "type": "P",
        "sub_category": "EntryExit",
        "poi_name": "GARDEN CENTER ENTRANCE",
        "profile": "BASIC INFO",
        "icon_id": "entrance_exit",
        "orientation": 0
      }
    },
    {
      "type": "Feature",
      "geometry": {
        "type": "Point",
        "coordinates": [
          -76.985516,
          39.826468
        ]
      },
      "properties": {
        "type": "P",
        "sub_category": "EntryExit",
        "poi_name": "GARDEN CENTER EXIT",
        "profile": "BASIC INFO",
        "icon_id": "entrance_exit",
        "orientation": 0
      }
    },
    {
      "type": "Feature",
      "geometry": {
        "type": "Point",
        "coordinates": [
          -76.986461,
          39.826478
        ]
      },
      "properties": {
        "type": "P",
        "sub_category": "Restrooms",
        "poi_name": "MEN/WOMEN’S RESTROOMS",
        "profile": "BASIC INFO",
        "icon_id": "restrooms",
        "orientation": 0
      }
    },
    {
      "type": "Feature",
      "geometry": {
        "type": "Point",
        "coordinates": [
          -76.986495,
          39.826472
        ]
      },
      "properties": {
        "type": "P",
        "sub_category": "Restrooms",
        "poi_name": "UNISEX",
        "profile": "BASIC INFO",
        "icon_id": "restrooms",
        "orientation": 0
      }
    },
    {
      "type": "Feature",
      "geometry": {
        "type": "Point",
        "coordinates": [
          -76.986136,
          39.826933
        ]
      },
      "properties": {
        "type": "P",
        "sub_category": "ServiceDesks",
        "poi_name": "APPLIANCE DESK",
        "profile": "STORE SERVICES",
        "icon_id": "appliance_desk",
        "orientation": 0
      }
    },
    {
      "type": "Feature",
      "geometry": {
        "type": "Point",
        "coordinates": [
          -76.986543,
          39.826867
        ]
      },
      "properties": {
        "type": "P",
        "sub_category": "ServiceDesks",
        "poi_name": "FLOORING DESK",
        "profile": "STORE SERVICES",
        "icon_id": "flooring_desk",
        "orientation": 0
      }
    },
    {
      "type": "Feature",
      "geometry": {
        "type": "Point",
        "coordinates": [
          -76.986307,
          39.826778
        ]
      },
      "properties": {
        "type": "P",
        "sub_category": "ServiceDesks",
        "poi_name": "HOME DECOR DESK",
        "profile": "STORE SERVICES",
        "icon_id": "home_décor_desk",
        "orientation": 0
      }
    },
    {
      "type": "Feature",
      "geometry": {
        "type": "Point",
        "coordinates": [
          -76.986271,
          39.827022
        ]
      },
      "properties": {
        "type": "P",
        "sub_category": "ServiceDesks",
        "poi_name": "KITCHEN DESIGN DESK",
        "profile": "STORE SERVICES",
        "icon_id": "kitchen_design_desk",
        "orientation": 0
      }
    },
    {
      "type": "Feature",
      "geometry": {
        "type": "Point",
        "coordinates": [
          -76.986153,
          39.826584
        ]
      },
      "properties": {
        "type": "P",
        "sub_category": "ServiceDesks",
        "poi_name": "PAINT DESK",
        "profile": "STORE SERVICES",
        "icon_id": "paint_desk",
        "orientation": 0
      }
    },
    {
      "type": "Feature",
      "geometry": {
        "type": "Point",
        "coordinates": [
          -76.986095,
          39.826458
        ]
      },
      "properties": {
        "type": "P",
        "sub_category": "Services",
        "poi_name": "PICKUP LOCKER",
        "profile": "BASIC INFO",
        "icon_id": "pickup_lockers",
        "orientation": 0
      }
    },
    {
      "type": "Feature",
      "geometry": {
        "type": "Point",
        "coordinates": [
          -76.986595,
          39.827084
        ]
      },
      "properties": {
        "type": "P",
        "sub_category": "Services",
        "poi_name": "CARPET CUTTING",
        "profile": "STORE SERVICES",
        "icon_id": "carpet_cutting",
        "orientation": 0
      }
    },
    {
      "type": "Feature",
      "geometry": {
        "type": "Point",
        "coordinates": [
          -76.986697,
          39.826665
        ]
      },
      "properties": {
        "type": "P",
        "sub_category": "Services",
        "poi_name": "CHAIN AND ROPE CUTTING",
        "profile": "STORE SERVICES",
        "icon_id": "chain_rope_cutting",
        "orientation": 0
      }
    },
    {
      "type": "Feature",
      "geometry": {
        "type": "Point",
        "coordinates": [
          -76.986689,
          39.826596
        ]
      },
      "properties": {
        "type": "P",
        "sub_category": "Services",
        "poi_name": "KEY CUTTING",
        "profile": "STORE SERVICES",
        "icon_id": "key_copying",
        "orientation": 0
      }
    },
    {
      "type": "Feature",
      "geometry": {
        "type": "Point",
        "coordinates": [
          -76.986736,
          39.826636
        ]
      },
      "properties": {
        "type": "P",
        "sub_category": "Services",
        "poi_name": "GLASS CUTTING",
        "profile": "STORE SERVICES",
        "icon_id": "glass_cutting",
        "orientation": 0
      }
    },
    {
      "type": "Feature",
      "geometry": {
        "type": "Point",
        "coordinates": [
          -76.987055,
          39.827059
        ]
      },
      "properties": {
        "type": "P",
        "sub_category": "Services",
        "poi_name": "WOOD CUTTING",
        "profile": "STORE SERVICES",
        "icon_id": "wood_cutting",
        "orientation": 0
      }
    },
    {
      "type": "Feature",
      "geometry": {
        "type": "Point",
        "coordinates": [
          -76.986312,
          39.826714
        ]
      },
      "properties": {
        "type": "P",
        "sub_category": "Services",
        "poi_name": "BLIND CUTTING",
        "profile": "STORE SERVICES",
        "icon_id": "blind_cutting",
        "orientation": 0
      }
    },
    {
      "type": "Feature",
      "geometry": {
        "type": "Point",
        "coordinates": [
          -76.986092,
          39.826539
        ]
      },
      "properties": {
        "type": "P",
        "sub_category": "ServiceDesks",
        "poi_name": "CUSTOMER SERVICE",
        "profile": "BASIC INFO",
        "icon_id": "customer_service_desk",
        "orientation": 0
      }
    },
    {
      "type": "Feature",
      "geometry": {
        "type": "Point",
        "coordinates": [
          -76.986335,
          39.826569
        ]
      },
      "properties": {
        "type": "P",
        "sub_category": "Checkouts",
        "poi_name": "MAIN SELF-CHECKOUT",
        "profile": "BASIC INFO",
        "icon_id": "checkouts",
        "orientation": 0
      }
    },
    {
      "type": "Feature",
      "geometry": {
        "type": "Point",
        "coordinates": [
          -76.986091,
          39.826517
        ]
      },
      "properties": {
        "type": "P",
        "sub_category": "Services",
        "poi_name": "RETURNS",
        "profile": "BASIC INFO",
        "icon_id": "returns",
        "orientation": 0
      }
    },
    {
      "type": "Feature",
      "geometry": {
        "type": "Point",
        "coordinates": [
          -76.986162,
          39.826501
        ]
      },
      "properties": {
        "type": "P",
        "sub_category": "Services",
        "poi_name": "PRODUCT PICK-UP",
        "profile": "BASIC INFO",
        "icon_id": "store_pick_up",
        "orientation": 0
      }
    },
    {
      "type": "Feature",
      "geometry": {
        "type": "Point",
        "coordinates": [
          -76.986188,
          39.826501
        ]
      },
      "properties": {
        "type": "P",
        "sub_category": "Services",
        "poi_name": "PICKUP LOCKER",
        "profile": "BASIC INFO",
        "icon_id": "pickup_lockers",
        "orientation": 0
      }
    },
    {
      "type": "Feature",
      "geometry": {
        "type": "Point",
        "coordinates": [
          -76.986278,
          39.826562
        ]
      },
      "properties": {
        "type": "P",
        "sub_category": "Checkouts",
        "poi_name": "MAIN CHECKOUT",
        "profile": "BASIC INFO",
        "icon_id": "checkouts",
        "orientation": 0
      }
    },
    {
      "type": "Feature",
      "geometry": {
        "type": "Point",
        "coordinates": [
          -76.986078,
          39.826434
        ]
      },
      "properties": {
        "type": "P",
        "sub_category": "EntryExit",
        "poi_name": "MAIN ENTRANCE",
        "profile": "BASIC INFO",
        "icon_id": "entrance_exit",
        "orientation": 0
      }
    },
    {
      "type": "Feature",
      "geometry": {
        "type": "Point",
        "coordinates": [
          -76.987016,
          39.826484
        ]
      },
      "properties": {
        "type": "P",
        "sub_category": "EntryExit",
        "poi_name": "PRO ENTRANCE",
        "profile": "BASIC INFO",
        "icon_id": "entrance_exit",
        "orientation": 0
      }
    },
    {
      "type": "Feature",
      "geometry": {
        "type": "Point",
        "coordinates": [
          -76.98708,
          39.826543
        ]
      },
      "properties": {
        "type": "P",
        "sub_category": "ServiceDesks",
        "poi_name": "PRO SERVICE DESK",
        "profile": "BASIC INFO",
        "icon_id": "pro_service_desk",
        "orientation": 0
      }
    },
    {
      "type": "Feature",
      "geometry": {
        "type": "Point",
        "coordinates": [
          -76.986854,
          39.826849
        ]
      },
      "properties": {
        "type": "P",
        "sub_category": "ServiceDesks",
        "poi_name": "MILLWORK DESK",
        "profile": "STORE SERVICES",
        "icon_id": "millwork_desk",
        "orientation": 0
      }
    },
    {
      "type": "Feature",
      "geometry": {
        "type": "Point",
        "coordinates": [
          -76.986617,
          39.826793
        ]
      },
      "properties": {
        "type": "P",
        "sub_category": "Services",
        "poi_name": "WIRE CUTTING",
        "profile": "STORE SERVICES",
        "icon_id": "wire_cutting",
        "orientation": 0
      }
    },
    {
      "type": "Feature",
      "geometry": {
        "type": "Point",
        "coordinates": [
          -76.987016,
          39.82654
        ]
      },
      "properties": {
        "type": "P",
        "sub_category": "Checkouts",
        "poi_name": "PRO CHECKOUT",
        "profile": "BASIC INFO",
        "icon_id": "checkouts",
        "orientation": 0
      }
    },
    {
      "type": "Feature",
      "geometry": {
        "type": "Point",
        "coordinates": [
          -76.985516,
          39.826537
        ]
      },
      "properties": {
        "type": "P",
        "sub_category": "Checkouts",
        "poi_name": "GARDEN CENTER CHECKOUT",
        "profile": "BASIC INFO",
        "icon_id": "checkouts",
        "orientation": 0
      }
    },
    {
      "type": "Feature",
      "geometry": {
        "type": "Point",
        "coordinates": [
          -76.986196,
          39.827173
        ]
      },
      "properties": {
        "type": "P",
        "sub_category": "ServiceDesks",
        "poi_name": "RECEIVING DESK",
        "profile": "BASIC INFO",
        "icon_id": "receiving_desk",
        "orientation": 0
      }
    },
    {
      "type": "Feature",
      "geometry": {
        "type": "Point",
        "coordinates": [
          -76.986942,
          39.826973
        ]
      },
      "properties": {
        "name": "LUMBER",
        "orientation": 0
      }
    },
    {
      "type": "Feature",
      "geometry": {
        "type": "Point",
        "coordinates": [
          -76.986741,
          39.827032
        ]
      },
      "properties": {
        "name": "LUMBER",
        "orientation": 0
      }
    },
    {
      "type": "Feature",
      "geometry": {
        "type": "Point",
        "coordinates": [
          -76.986965,
          39.826699
        ]
      },
      "properties": {
        "name": "LUMBER",
        "orientation": 0
      }
    },
    {
      "type": "Feature",
      "geometry": {
        "type": "Point",
        "coordinates": [
          -76.987064,
          39.826974
        ]
      },
      "properties": {
        "name": "LUMBER",
        "orientation": 0
      }
    },
    {
      "type": "Feature",
      "geometry": {
        "type": "Point",
        "coordinates": [
          -76.986741,
          39.826929
        ]
      },
      "properties": {
        "name": "LUMBER",
        "orientation": 0
      }
    },
    {
      "type": "Feature",
      "geometry": {
        "type": "Point",
        "coordinates": [
          -76.987054,
          39.826689
        ]
      },
      "properties": {
        "name": "LUMBER",
        "orientation": 0
      }
    },
    {
      "type": "Feature",
      "geometry": {
        "type": "Point",
        "coordinates": [
          -76.986821,
          39.82672
        ]
      },
      "properties": {
        "name": "BUILDING MATERIALS",
        "orientation": 0
      }
    },
    {
      "type": "Feature",
      "geometry": {
        "type": "Point",
        "coordinates": [
          -76.986779,
          39.82698
        ]
      },
      "properties": {
        "name": "BUILDING MATERIALS",
        "orientation": 0
      }
    },
    {
      "type": "Feature",
      "geometry": {
        "type": "Point",
        "coordinates": [
          -76.986953,
          39.82692
        ]
      },
      "properties": {
        "name": "BUILDING MATERIALS",
        "orientation": 0
      }
    },
    {
      "type": "Feature",
      "geometry": {
        "type": "Point",
        "coordinates": [
          -76.986777,
          39.827091
        ]
      },
      "properties": {
        "name": "BUILDING MATERIALS",
        "orientation": 0
      }
    },
    {
      "type": "Feature",
      "geometry": {
        "type": "Point",
        "coordinates": [
          -76.98693,
          39.826689
        ]
      },
      "properties": {
        "name": "BUILDING MATERIALS",
        "orientation": 0
      }
    },
    {
      "type": "Feature",
      "geometry": {
        "type": "Point",
        "coordinates": [
          -76.987091,
          39.826819
        ]
      },
      "properties": {
        "name": "BUILDING MATERIALS",
        "orientation": 0
      }
    },
    {
      "type": "Feature",
      "geometry": {
        "type": "Point",
        "coordinates": [
          -76.986811,
          39.826958
        ]
      },
      "properties": {
        "name": "MILLWORK",
        "orientation": 0
      }
    },
    {
      "type": "Feature",
      "geometry": {
        "type": "Point",
        "coordinates": [
          -76.986882,
          39.826698
        ]
      },
      "properties": {
        "name": "MILLWORK",
        "orientation": 0
      }
    },
    {
      "type": "Feature",
      "geometry": {
        "type": "Point",
        "coordinates": [
          -76.986452,
          39.826694
        ]
      },
      "properties": {
        "name": "LIGHTING",
        "orientation": 0
      }
    },
    {
      "type": "Feature",
      "geometry": {
        "type": "Point",
        "coordinates": [
          -76.986602,
          39.826695
        ]
      },
      "properties": {
        "name": "ROUGH ELECTRICAL",
        "orientation": 0
      }
    },
    {
      "type": "Feature",
      "geometry": {
        "type": "Point",
        "coordinates": [
          -76.986248,
          39.826866
        ]
      },
      "properties": {
        "name": "FASHION PLUMBING",
        "orientation": 0
      }
    },
    {
      "type": "Feature",
      "geometry": {
        "type": "Point",
        "coordinates": [
          -76.985905,
          39.826911
        ]
      },
      "properties": {
        "name": "FASHION PLUMBING",
        "orientation": 0
      }
    },
    {
      "type": "Feature",
      "geometry": {
        "type": "Point",
        "coordinates": [
          -76.985729,
          39.826901
        ]
      },
      "properties": {
        "name": "FASHION PLUMBING",
        "orientation": 0
      }
    },
    {
      "type": "Feature",
      "geometry": {
        "type": "Point",
        "coordinates": [
          -76.985911,
          39.827049
        ]
      },
      "properties": {
        "name": "ROUGH PLUMBING",
        "orientation": 0
      }
    },
    {
      "type": "Feature",
      "geometry": {
        "type": "Point",
        "coordinates": [
          -76.985781,
          39.827087
        ]
      },
      "properties": {
        "name": "ROUGH PLUMBING",
        "orientation": 0
      }
    },
    {
      "type": "Feature",
      "geometry": {
        "type": "Point",
        "coordinates": [
          -76.985729,
          39.827008
        ]
      },
      "properties": {
        "name": "ROUGH PLUMBING",
        "orientation": 0
      }
    },
    {
      "type": "Feature",
      "geometry": {
        "type": "Point",
        "coordinates": [
          -76.986332,
          39.82692
        ]
      },
      "properties": {
        "name": "APPLIANCES",
        "orientation": 0
      }
    },
    {
      "type": "Feature",
      "geometry": {
        "type": "Point",
        "coordinates": [
          -76.986225,
          39.82697
        ]
      },
      "properties": {
        "name": "APPLIANCES",
        "orientation": 0
      }
    },
    {
      "type": "Feature",
      "geometry": {
        "type": "Point",
        "coordinates": [
          -76.986729,
          39.826691
        ]
      },
      "properties": {
        "name": "HARDWARE",
        "orientation": 0
      }
    },
    {
      "type": "Feature",
      "geometry": {
        "type": "Point",
        "coordinates": [
          -76.986591,
          39.826763
        ]
      },
      "properties": {
        "name": "HARDWARE",
        "orientation": 0
      }
    },
    {
      "type": "Feature",
      "geometry": {
        "type": "Point",
        "coordinates": [
          -76.986162,
          39.826691
        ]
      },
      "properties": {
        "name": "PAINT",
        "orientation": 0
      }
    },
    {
      "type": "Feature",
      "geometry": {
        "type": "Point",
        "coordinates": [
          -76.986808,
          39.826625
        ]
      },
      "properties": {
        "name": "TOOLS",
        "orientation": 0
      }
    },
    {
      "type": "Feature",
      "geometry": {
        "type": "Point",
        "coordinates": [
          -76.986691,
          39.826525
        ]
      },
      "properties": {
        "name": "TOOLS",
        "orientation": 0
      }
    },
    {
      "type": "Feature",
      "geometry": {
        "type": "Point",
        "coordinates": [
          -76.985888,
          39.82673
        ]
      },
      "properties": {
        "name": "OUTDOOR POWER EQUIPMENT",
        "orientation": 0
      }
    },
    {
      "type": "Feature",
      "geometry": {
        "type": "Point",
        "coordinates": [
          -76.986553,
          39.82697
        ]
      },
      "properties": {
        "name": "FLOORING",
        "orientation": 0
      }
    },
    {
      "type": "Feature",
      "geometry": {
        "type": "Point",
        "coordinates": [
          -76.986268,
          39.826964
        ]
      },
      "properties": {
        "name": "CABINETS",
        "orientation": 0
      }
    },
    {
      "type": "Feature",
      "geometry": {
        "type": "Point",
        "coordinates": [
          -76.986073,
          39.826694
        ]
      },
      "properties": {
        "name": "CLEANING",
        "orientation": 0
      }
    },
    {
      "type": "Feature",
      "geometry": {
        "type": "Point",
        "coordinates": [
          -76.985885,
          39.82679
        ]
      },
      "properties": {
        "name": "CLEANING",
        "orientation": 0
      }
    },
    {
      "type": "Feature",
      "geometry": {
        "type": "Point",
        "coordinates": [
          -76.986573,
          39.826997
        ]
      },
      "properties": {
        "name": "HOME DECOR",
        "orientation": 0
      }
    },
    {
      "type": "Feature",
      "geometry": {
        "type": "Point",
        "coordinates": [
          -76.986307,
          39.826698
        ]
      },
      "properties": {
        "name": "HOME DECOR",
        "orientation": 0
      }
    },
    {
      "type": "Feature",
      "geometry": {
        "type": "Point",
        "coordinates": [
          -76.986228,
          39.826615
        ]
      },
      "properties": {
        "name": "HOME DECOR",
        "orientation": 0
      }
    },
    {
      "type": "Feature",
      "geometry": {
        "type": "Point",
        "coordinates": [
          -76.985875,
          39.826692
        ]
      },
      "properties": {
        "name": "INSIDE LAWN AND GARDEN",
        "orientation": 0
      }
    },
    {
      "type": "Feature",
      "geometry": {
        "type": "Point",
        "coordinates": [
          -76.985922,
          39.826773
        ]
      },
      "properties": {
        "name": "INSIDE LAWN AND GARDEN",
        "orientation": 0
      }
    },
    {
      "type": "Feature",
      "geometry": {
        "type": "Point",
        "coordinates": [
          -76.985811,
          39.826521
        ]
      },
      "properties": {
        "name": "INSIDE LAWN AND GARDEN",
        "orientation": 0
      }
    },
    {
      "type": "Feature",
      "geometry": {
        "type": "Point",
        "coordinates": [
          -76.985699,
          39.826698
        ]
      },
      "properties": {
        "name": "INSIDE LAWN AND GARDEN",
        "orientation": 0
      }
    },
    {
      "type": "Feature",
      "geometry": {
        "type": "Point",
        "coordinates": [
          -76.985627,
          39.82692
        ]
      },
      "properties": {
        "name": "INSIDE LAWN AND GARDEN",
        "orientation": 0
      }
    },
    {
      "type": "Feature",
      "geometry": {
        "type": "Point",
        "coordinates": [
          -76.985533,
          39.826958
        ]
      },
      "properties": {
        "name": "OUTSIDE LAWN AND GARDEN",
        "orientation": 0
      }
    },
    {
      "type": "Feature",
      "geometry": {
        "type": "Point",
        "coordinates": [
          -76.985533,
          39.827087
        ]
      },
      "properties": {
        "name": "OUTSIDE LAWN AND GARDEN",
        "orientation": 0
      }
    },
    {
      "type": "Feature",
      "geometry": {
        "type": "Point",
        "coordinates": [
          -76.985626,
          39.826491
        ]
      },
      "properties": {
        "name": "OUTSIDE LAWN AND GARDEN",
        "orientation": 0
      }
    },
    {
      "type": "Feature",
      "geometry": {
        "type": "Point",
        "coordinates": [
          -76.985533,
          39.826654
        ]
      },
      "properties": {
        "name": "OUTSIDE LAWN AND GARDEN",
        "orientation": 0
      }
    },
    {
      "type": "Feature",
      "geometry": {
        "type": "Point",
        "coordinates": [
          -76.986403,
          39.826965
        ]
      },
      "properties": {
        "name": "STORAGE",
        "orientation": 0
      }
    },
    {
      "type": "Feature",
      "geometry": {
        "type": "Point",
        "coordinates": [
          -76.98624,
          39.826674
        ]
      },
      "properties": {
        "name": "STORAGE",
        "orientation": 0
      }
    },
    {
      "type": "Feature",
      "geometry": {
        "type": "Point",
        "coordinates": [
          -76.985533,
          39.82678
        ]
      },
      "properties": {
        "name": "GARDEN CENTER",
        "orientation": 0
      }
    }
  ]
}