{
  "type": "FeatureCollection",
  "features": [
    {
      "type": "Feature",
      "geometry": {
        "type": "MultiPolygon",
        "coordinates": [
          [
            [
              [
                -76.987003,
                39.826825
              ],
              [
                -76.987035,
                39.826825
              ],
              [
                -76.987035,
                39.826989
              ],
              [
                -76.987073,
                39.826989
              ],
              [
                -76.987073,
                39.827071
              ],
              [
                -76.987003,
                39.827071
              ],
              [
                -76.987003,
                39.826825
              ]
            ]
          ],
          [
            [
              [
                -76.986862,
                39.826826
              ],
              [
                -76.9869,
                39.826826
              ],
              [
                -76.9869,
                39.82686
              ],
              [
                -76.986938,
                39.82686
              ],
              [
                -76.986938,
                39.826826
              ],
              [
                -76.98697,
                39.826826
              ],
              [
                -76.98697,
                39.827071
              ],
              [
                -76.986943,
                39.827071
              ],
              [
                -76.986943,
                39.827081
              ],
              [
                -76.986926,
                39.827081
              ],
              [
                -76.986926,
                39.827075
              ],
              [
                -76.9869,
                39.827075
              ],
              [
                -76.9869,
                39.827033
              ],
              [
                -76.986862,
                39.827033
              ],
              [
                -76.986862,
                39.826826
              ]
            ]
          ],
          [
            [
              [
                -76.987036,
                39.826557
              ],
              [
                -76.987073,
                39.826557
              ],
              [
                -76.987073,
                39.826543
              ],
              [
                -76.987005,
                39.826543
              ],
              [
                -76.987005,
                39.826557
              ],
              [
                -76.987004,
                39.826557
              ],
              [
                -76.986992,
                39.826557
              ],
              [
                -76.986992,
                39.826661
              ],
              [
                -76.987004,
                39.826661
              ],
              [
                -76.987004,
                39.826786
              ],
              [
                -76.987036,
                39.826786
              ],
              [
                -76.987036,
                39.826557
              ]
            ]
          ],
          [
            [
              [
                -76.986899,
                39.826543
              ],
              [
                -76.98697,
                39.826543
              ],
              [
                -76.98697,
                39.826786
              ],
              [
                -76.986899,
                39.826786
              ],
              [
                -76.986899,
                39.826543
              ]
            ]
          ],
          [
            [
              [
                -76.987073,
                39.8265
              ],
              [
                -76.987112,
                39.8265
              ],
              [
                -76.987112,
                39.827096
              ],
              [
                -76.987026,
                39.827096
              ],
              [
                -76.987027,
                39.827071
              ],
              [
                -76.987073,
                39.827071
              ],
              [
                -76.987073,
                39.826989
              ],
              [
                -76.987035,
                39.826989
              ],
              [
                -76.987035,
                39.826825
              ],
              [
                -76.987073,
                39.826825
              ],
              [
                -76.987073,
                39.826763
              ],
              [
                -76.987036,
                39.826763
              ],
              [
                -76.987036,
                39.826557
              ],
              [
                -76.987073,
                39.826557
              ],
              [
                -76.987073,
                39.8265
              ]
            ]
          ],
          [
            [
              [
                -76.986847,
                39.826551
              ],
              [
                -76.986899,
                39.826551
              ],
              [
                -76.986899,
                39.826777
              ],
              [
                -76.986788,
                39.826777
              ],
              [
                -76.986788,
                39.826616
              ],
              [
                -76.986847,
                39.826616
              ],
              [
                -76.986847,
                39.826551
              ]
            ]
          ],
          [
            [
              [
                -76.9869,
                39.826826
              ],
              [
                -76.986938,
                39.826826
              ],
              [
                -76.986938,
                39.82686
              ],
              [
                -76.9869,
                39.82686
              ],
              [
                -76.9869,
                39.826826
              ]
            ]
          ],
          [
            [
              [
                -76.986861,
                39.827075
              ],
              [
                -76.986926,
                39.827075
              ],
              [
                -76.986926,
                39.827096
              ],
              [
                -76.986861,
                39.827096
              ],
              [
                -76.986861,
                39.827075
              ]
            ]
          ],
          [
            [
              [
                -76.986774,
                39.827045
              ],
              [
                -76.986746,
                39.827045
              ],
              [
                -76.986746,
                39.826892
              ],
              [
                -76.986774,
                39.826892
              ],
              [
                -76.986774,
                39.827045
              ]
            ]
          ],
          [
            [
              [
                -76.986635,
                39.826826
              ],
              [
                -76.986719,
                39.826826
              ],
              [
                -76.986719,
                39.826816
              ],
              [
                -76.986833,
                39.826816
              ],
              [
                -76.986833,
                39.826826
              ],
              [
                -76.986862,
                39.826826
              ],
              [
                -76.986862,
                39.827033
              ],
              [
                -76.9869,
                39.827033
              ],
              [
                -76.9869,
                39.827075
              ],
              [
                -76.986861,
                39.827075
              ],
              [
                -76.986861,
                39.827096
              ],
              [
                -76.986675,
                39.827096
              ],
              [
                -76.986675,
                39.827067
              ],
              [
                -76.986664,
                39.827067
              ],
              [
                -76.986664,
                39.827044
              ],
              [
                -76.986635,
                39.827044
              ],
              [
                -76.986635,
                39.826826
              ]
            ]
          ],
          [
            [
              [
                -76.986788,
                39.826551
              ],
              [
                -76.986731,
                39.826551
              ],
              [
                -76.986731,
                39.826779
              ],
              [
                -76.986759,
                39.826779
              ],
              [
                -76.986759,
                39.826777
              ],
              [
                -76.986788,
                39.826777
              ],
              [
                -76.986788,
                39.826551
              ]
            ]
          ],
          [
            [
              [
                -76.986518,
                39.826551
              ],
              [
                -76.986463,
                39.826551
              ],
              [
                -76.986463,
                39.826555
              ],
              [
                -76.986356,
                39.826555
              ],
              [
                -76.986356,
                39.826551
              ],
              [
                -76.986305,
                39.826551
              ],
              [
                -76.986305,
                39.826634
              ],
              [
                -76.986329,
                39.826634
              ],
              [
                -76.986329,
                39.826737
              ],
              [
                -76.986356,
                39.826737
              ],
              [
                -76.986356,
                39.826778
              ],
              [
                -76.98641,
                39.826778
              ],
              [
                -76.98641,
                39.826768
              ],
              [
                -76.986463,
                39.826768
              ],
              [
                -76.986463,
                39.826779
              ],
              [
                -76.986518,
                39.826779
              ],
              [
                -76.986518,
                39.826551
              ]
            ]
          ],
          [
            [
              [
                -76.986518,
                39.826551
              ],
              [
                -76.986563,
                39.826551
              ],
              [
                -76.986563,
                39.826592
              ],
              [
                -76.986589,
                39.826592
              ],
              [
                -76.986589,
                39.82678
              ],
              [
                -76.986518,
                39.82678
              ],
              [
                -76.986518,
                39.826551
              ]
            ]
          ],
          [
            [
              [
                -76.98604,
                39.826807
              ],
              [
                -76.985784,
                39.826807
              ],
              [
                -76.985784,
                39.826961
              ],
              [
                -76.985875,
                39.826961
              ],
              [
                -76.985875,
                39.82698
              ],
              [
                -76.986029,
                39.82698
              ],
              [
                -76.986029,
                39.826921
              ],
              [
                -76.98604,
                39.826921
              ],
              [
                -76.98604,
                39.826807
              ]
            ]
          ],
          [
            [
              [
                -76.985751,
                39.826824
              ],
              [
                -76.985724,
                39.826824
              ],
              [
                -76.985724,
                39.826939
              ],
              [
                -76.985751,
                39.826939
              ],
              [
                -76.985751,
                39.826824
              ]
            ]
          ],
          [
            [
              [
                -76.986029,
                39.82698
              ],
              [
                -76.985875,
                39.82698
              ],
              [
                -76.985875,
                39.826961
              ],
              [
                -76.985784,
                39.826961
              ],
              [
                -76.985784,
                39.827064
              ],
              [
                -76.985997,
                39.827064
              ],
              [
                -76.985997,
                39.827096
              ],
              [
                -76.98608,
                39.827096
              ],
              [
                -76.98608,
                39.827074
              ],
              [
                -76.98604,
                39.827074
              ],
              [
                -76.98604,
                39.827029
              ],
              [
                -76.986029,
                39.827029
              ],
              [
                -76.986029,
                39.82698
              ]
            ]
          ],
          [
            [
              [
                -76.985751,
                39.826939
              ],
              [
                -76.985724,
                39.826939
              ],
              [
                -76.985724,
                39.827072
              ],
              [
                -76.985751,
                39.827072
              ],
              [
                -76.985751,
                39.826939
              ]
            ]
          ],
          [
            [
              [
                -76.985745,
                39.827075
              ],
              [
                -76.985954,
                39.827075
              ],
              [
                -76.985954,
                39.827096
              ],
              [
                -76.985724,
                39.827096
              ],
              [
                -76.985724,
                39.827083
              ],
              [
                -76.985745,
                39.827083
              ],
              [
                -76.985745,
                39.827075
              ]
            ]
          ],
          [
            [
              [
                -76.98604,
                39.826816
              ],
              [
                -76.986195,
                39.826816
              ],
              [
                -76.986195,
                39.826897
              ],
              [
                -76.986135,
                39.826897
              ],
              [
                -76.986135,
                39.826953
              ],
              [
                -76.986205,
                39.826953
              ],
              [
                -76.986205,
                39.827041
              ],
              [
                -76.986174,
                39.827041
              ],
              [
                -76.986174,
                39.827074
              ],
              [
                -76.986196,
                39.827074
              ],
              [
                -76.986196,
                39.827052
              ],
              [
                -76.986303,
                39.827052
              ],
              [
                -76.986303,
                39.827074
              ],
              [
                -76.986265,
                39.827074
              ],
              [
                -76.986265,
                39.827096
              ],
              [
                -76.98608,
                39.827096
              ],
              [
                -76.98608,
                39.827074
              ],
              [
                -76.98604,
                39.827074
              ],
              [
                -76.98604,
                39.826816
              ]
            ]
          ],
          [
            [
              [
                -76.986346,
                39.826826
              ],
              [
                -76.986317,
                39.826826
              ],
              [
                -76.986317,
                39.826816
              ],
              [
                -76.986267,
                39.826816
              ],
              [
                -76.986267,
                39.826824
              ],
              [
                -76.98629,
                39.826824
              ],
              [
                -76.98629,
                39.826907
              ],
              [
                -76.986317,
                39.826907
              ],
              [
                -76.986317,
                39.82693
              ],
              [
                -76.986346,
                39.82693
              ],
              [
                -76.986346,
                39.826826
              ]
            ]
          ],
          [
            [
              [
                -76.986563,
                39.826551
              ],
              [
                -76.986664,
                39.826551
              ],
              [
                -76.986664,
                39.826571
              ],
              [
                -76.986687,
                39.826571
              ],
              [
                -76.986687,
                39.826551
              ],
              [
                -76.986731,
                39.826551
              ],
              [
                -76.986731,
                39.826779
              ],
              [
                -76.986589,
                39.826779
              ],
              [
                -76.986589,
                39.826592
              ],
              [
                -76.986563,
                39.826592
              ],
              [
                -76.986563,
                39.826551
              ]
            ]
          ],
          [
            [
              [
                -76.986231,
                39.826779
              ],
              [
                -76.986089,
                39.826779
              ],
              [
                -76.986089,
                39.826551
              ],
              [
                -76.986111,
                39.826551
              ],
              [
                -76.986111,
                39.826543
              ],
              [
                -76.986208,
                39.826543
              ],
              [
                -76.986208,
                39.826551
              ],
              [
                -76.986231,
                39.826551
              ],
              [
                -76.986231,
                39.826779
              ]
            ]
          ],
          [
            [
              [
                -76.986929,
                39.826455
              ],
              [
                -76.986798,
                39.826455
              ],
              [
                -76.986798,
                39.82647
              ],
              [
                -76.986781,
                39.82647
              ],
              [
                -76.986781,
                39.826455
              ],
              [
                -76.986492,
                39.826455
              ],
              [
                -76.986492,
                39.826472
              ],
              [
                -76.986489,
                39.826472
              ],
              [
                -76.986489,
                39.826518
              ],
              [
                -76.986754,
                39.826518
              ],
              [
                -76.986754,
                39.826512
              ],
              [
                -76.986811,
                39.826512
              ],
              [
                -76.986811,
                39.826518
              ],
              [
                -76.986921,
                39.826518
              ],
              [
                -76.986921,
                39.826467
              ],
              [
                -76.986929,
                39.826467
              ],
              [
                -76.986929,
                39.826455
              ]
            ]
          ],
          [
            [
              [
                -76.986788,
                39.826551
              ],
              [
                -76.986847,
                39.826551
              ],
              [
                -76.986847,
                39.826616
              ],
              [
                -76.986788,
                39.826616
              ],
              [
                -76.986788,
                39.826551
              ]
            ]
          ],
          [
            [
              [
                -76.985779,
                39.826665
              ],
              [
                -76.985925,
                39.826665
              ],
              [
                -76.985925,
                39.82676
              ],
              [
                -76.985837,
                39.82676
              ],
              [
                -76.985837,
                39.826739
              ],
              [
                -76.985777,
                39.826739
              ],
              [
                -76.985777,
                39.826796
              ],
              [
                -76.985759,
                39.826796
              ],
              [
                -76.985759,
                39.826789
              ],
              [
                -76.985751,
                39.826789
              ],
              [
                -76.985751,
                39.826721
              ],
              [
                -76.985779,
                39.826721
              ],
              [
                -76.985779,
                39.826683
              ],
              [
                -76.985751,
                39.826683
              ],
              [
                -76.985751,
                39.826636
              ],
              [
                -76.985779,
                39.826636
              ],
              [
                -76.985779,
                39.826627
              ],
              [
                -76.985808,
                39.826627
              ],
              [
                -76.985808,
                39.826646
              ],
              [
                -76.985779,
                39.826646
              ],
              [
                -76.985779,
                39.826665
              ]
            ]
          ],
          [
            [
              [
                -76.986026,
                39.82676
              ],
              [
                -76.98594,
                39.82676
              ],
              [
                -76.98594,
                39.826718
              ],
              [
                -76.986033,
                39.826718
              ],
              [
                -76.986033,
                39.826752
              ],
              [
                -76.986026,
                39.826752
              ],
              [
                -76.986026,
                39.82676
              ]
            ]
          ],
          [
            [
              [
                -76.986452,
                39.826837
              ],
              [
                -76.986429,
                39.826837
              ],
              [
                -76.986429,
                39.826816
              ],
              [
                -76.986602,
                39.826816
              ],
              [
                -76.986602,
                39.826826
              ],
              [
                -76.986635,
                39.826826
              ],
              [
                -76.986635,
                39.827044
              ],
              [
                -76.986664,
                39.827044
              ],
              [
                -76.986664,
                39.827067
              ],
              [
                -76.986675,
                39.827067
              ],
              [
                -76.986675,
                39.827096
              ],
              [
                -76.986429,
                39.827096
              ],
              [
                -76.986429,
                39.827044
              ],
              [
                -76.986452,
                39.827044
              ],
              [
                -76.986452,
                39.826837
              ]
            ]
          ],
          [
            [
              [
                -76.986317,
                39.82693
              ],
              [
                -76.986346,
                39.82693
              ],
              [
                -76.986346,
                39.827054
              ],
              [
                -76.986374,
                39.827054
              ],
              [
                -76.986374,
                39.827075
              ],
              [
                -76.986357,
                39.827075
              ],
              [
                -76.986357,
                39.827096
              ],
              [
                -76.986265,
                39.827096
              ],
              [
                -76.986265,
                39.827074
              ],
              [
                -76.986303,
                39.827074
              ],
              [
                -76.986303,
                39.827052
              ],
              [
                -76.986196,
                39.827052
              ],
              [
                -76.986196,
                39.827074
              ],
              [
                -76.986174,
                39.827074
              ],
              [
                -76.986174,
                39.827041
              ],
              [
                -76.986205,
                39.827041
              ],
              [
                -76.986205,
                39.826953
              ],
              [
                -76.986135,
                39.826953
              ],
              [
                -76.986135,
                39.826897
              ],
              [
                -76.986195,
                39.826897
              ],
              [
                -76.986195,
                39.826816
              ],
              [
                -76.986267,
                39.826816
              ],
              [
                -76.986267,
                39.826824
              ],
              [
                -76.98629,
                39.826824
              ],
              [
                -76.98629,
                39.826907
              ],
              [
                -76.986317,
                39.826907
              ],
              [
                -76.986317,
                39.82693
              ]
            ]
          ],
          [
            [
              [
                -76.986089,
                39.826551
              ],
              [
                -76.986062,
                39.826551
              ],
              [
                -76.986062,
                39.826779
              ],
              [
                -76.986089,
                39.826779
              ],
              [
                -76.986089,
                39.826551
              ]
            ]
          ],
          [
            [
              [
                -76.986012,
                39.826777
              ],
              [
                -76.985777,
                39.826777
              ],
              [
                -76.985777,
                39.826739
              ],
              [
                -76.985837,
                39.826739
              ],
              [
                -76.985837,
                39.82676
              ],
              [
                -76.986012,
                39.82676
              ],
              [
                -76.986012,
                39.826777
              ]
            ]
          ],
          [
            [
              [
                -76.986231,
                39.826551
              ],
              [
                -76.986305,
                39.826551
              ],
              [
                -76.986305,
                39.826634
              ],
              [
                -76.986329,
                39.826634
              ],
              [
                -76.986329,
                39.826737
              ],
              [
                -76.986356,
                39.826737
              ],
              [
                -76.986356,
                39.826786
              ],
              [
                -76.986257,
                39.826786
              ],
              [
                -76.986257,
                39.826779
              ],
              [
                -76.986231,
                39.826779
              ],
              [
                -76.986231,
                39.826551
              ]
            ]
          ],
          [
            [
              [
                -76.985871,
                39.826455
              ],
              [
                -76.985724,
                39.826455
              ],
              [
                -76.985724,
                39.826504
              ],
              [
                -76.985759,
                39.826504
              ],
              [
                -76.985759,
                39.826513
              ],
              [
                -76.9859,
                39.826513
              ],
              [
                -76.9859,
                39.826474
              ],
              [
                -76.985871,
                39.826474
              ],
              [
                -76.985871,
                39.826455
              ]
            ]
          ],
          [
            [
              [
                -76.985759,
                39.826532
              ],
              [
                -76.98594,
                39.826532
              ],
              [
                -76.986033,
                39.826532
              ],
              [
                -76.986033,
                39.826718
              ],
              [
                -76.98594,
                39.826718
              ],
              [
                -76.98594,
                39.826571
              ],
              [
                -76.985925,
                39.826571
              ],
              [
                -76.985925,
                39.826665
              ],
              [
                -76.985779,
                39.826665
              ],
              [
                -76.985779,
                39.826646
              ],
              [
                -76.985808,
                39.826646
              ],
              [
                -76.985808,
                39.826627
              ],
              [
                -76.985779,
                39.826627
              ],
              [
                -76.985779,
                39.826636
              ],
              [
                -76.985751,
                39.826636
              ],
              [
                -76.985751,
                39.826789
              ],
              [
                -76.985724,
                39.826789
              ],
              [
                -76.985724,
                39.826539
              ],
              [
                -76.985759,
                39.826539
              ],
              [
                -76.985759,
                39.826532
              ]
            ]
          ],
          [
            [
              [
                -76.985689,
                39.826539
              ],
              [
                -76.98572,
                39.826539
              ],
              [
                -76.98572,
                39.826789
              ],
              [
                -76.985689,
                39.826789
              ],
              [
                -76.985689,
                39.826539
              ]
            ]
          ],
          [
            [
              [
                -76.985448,
                39.826817
              ],
              [
                -76.985526,
                39.826817
              ],
              [
                -76.985526,
                39.826832
              ],
              [
                -76.985448,
                39.826832
              ],
              [
                -76.985448,
                39.826817
              ]
            ]
          ],
          [
            [
              [
                -76.986012,
                39.826796
              ],
              [
                -76.985777,
                39.826796
              ],
              [
                -76.985777,
                39.826777
              ],
              [
                -76.986012,
                39.826777
              ],
              [
                -76.986012,
                39.826796
              ]
            ]
          ],
          [
            [
              [
                -76.985351,
                39.82683
              ],
              [
                -76.985397,
                39.82683
              ],
              [
                -76.985397,
                39.826817
              ],
              [
                -76.985448,
                39.826817
              ],
              [
                -76.985448,
                39.826832
              ],
              [
                -76.985526,
                39.826832
              ],
              [
                -76.985526,
                39.826817
              ],
              [
                -76.985685,
                39.826817
              ],
              [
                -76.985685,
                39.826824
              ],
              [
                -76.98572,
                39.826824
              ],
              [
                -76.98572,
                39.826978
              ],
              [
                -76.985681,
                39.826978
              ],
              [
                -76.985681,
                39.827
              ],
              [
                -76.98572,
                39.827
              ],
              [
                -76.98572,
                39.827072
              ],
              [
                -76.985659,
                39.827072
              ],
              [
                -76.985659,
                39.827066
              ],
              [
                -76.985437,
                39.827066
              ],
              [
                -76.985437,
                39.827072
              ],
              [
                -76.985351,
                39.827072
              ],
              [
                -76.985351,
                39.82683
              ]
            ]
          ],
          [
            [
              [
                -76.985689,
                39.826789
              ],
              [
                -76.985685,
                39.826789
              ],
              [
                -76.985685,
                39.826797
              ],
              [
                -76.985404,
                39.826797
              ],
              [
                -76.985404,
                39.826763
              ],
              [
                -76.985351,
                39.826763
              ],
              [
                -76.985351,
                39.826414
              ],
              [
                -76.985383,
                39.826414
              ],
              [
                -76.985383,
                39.826429
              ],
              [
                -76.985401,
                39.826429
              ],
              [
                -76.985401,
                39.826414
              ],
              [
                -76.985427,
                39.826414
              ],
              [
                -76.985427,
                39.826517
              ],
              [
                -76.985674,
                39.826517
              ],
              [
                -76.985674,
                39.826531
              ],
              [
                -76.985685,
                39.826531
              ],
              [
                -76.985685,
                39.826539
              ],
              [
                -76.985689,
                39.826539
              ],
              [
                -76.985689,
                39.826789
              ]
            ]
          ],
          [
            [
              [
                -76.98572,
                39.827096
              ],
              [
                -76.985351,
                39.827096
              ],
              [
                -76.985351,
                39.827082
              ],
              [
                -76.985451,
                39.827082
              ],
              [
                -76.985451,
                39.827076
              ],
              [
                -76.985645,
                39.827076
              ],
              [
                -76.985645,
                39.827082
              ],
              [
                -76.98572,
                39.827082
              ],
              [
                -76.98572,
                39.827096
              ]
            ]
          ],
          [
            [
              [
                -76.985674,
                39.826414
              ],
              [
                -76.98557,
                39.826414
              ],
              [
                -76.98557,
                39.826497
              ],
              [
                -76.985674,
                39.826497
              ],
              [
                -76.985674,
                39.826414
              ]
            ]
          ],
          [
            [
              [
                -76.985989,
                39.826455
              ],
              [
                -76.985871,
                39.826455
              ],
              [
                -76.985871,
                39.826474
              ],
              [
                -76.9859,
                39.826474
              ],
              [
                -76.9859,
                39.826513
              ],
              [
                -76.986002,
                39.826513
              ],
              [
                -76.986002,
                39.82648
              ],
              [
                -76.985989,
                39.82648
              ],
              [
                -76.985989,
                39.826455
              ]
            ]
          ],
          [
            [
              [
                -76.986253,
                39.826501
              ],
              [
                -76.986138,
                39.826501
              ],
              [
                -76.986138,
                39.826523
              ],
              [
                -76.986253,
                39.826523
              ],
              [
                -76.986253,
                39.826501
              ]
            ]
          ],
          [
            [
              [
                -76.985779,
                39.826683
              ],
              [
                -76.985751,
                39.826683
              ],
              [
                -76.985751,
                39.826721
              ],
              [
                -76.985779,
                39.826721
              ],
              [
                -76.985779,
                39.826683
              ]
            ]
          ],
          [
            [
              [
                -76.986356,
                39.826778
              ],
              [
                -76.98641,
                39.826778
              ],
              [
                -76.98641,
                39.826768
              ],
              [
                -76.986463,
                39.826768
              ],
              [
                -76.986463,
                39.826779
              ],
              [
                -76.986518,
                39.826779
              ],
              [
                -76.986518,
                39.82678
              ],
              [
                -76.986589,
                39.82678
              ],
              [
                -76.986589,
                39.826779
              ],
              [
                -76.986709,
                39.826779
              ],
              [
                -76.986709,
                39.826786
              ],
              [
                -76.986356,
                39.826786
              ],
              [
                -76.986356,
                39.826778
              ]
            ]
          ],
          [
            [
              [
                -76.986317,
                39.826826
              ],
              [
                -76.986374,
                39.826826
              ],
              [
                -76.986374,
                39.826847
              ],
              [
                -76.986429,
                39.826847
              ],
              [
                -76.986429,
                39.826816
              ],
              [
                -76.986317,
                39.826816
              ],
              [
                -76.986317,
                39.826826
              ]
            ]
          ],
          [
            [
              [
                -76.986452,
                39.826837
              ],
              [
                -76.986429,
                39.826837
              ],
              [
                -76.986429,
                39.826847
              ],
              [
                -76.986374,
                39.826847
              ],
              [
                -76.986374,
                39.826826
              ],
              [
                -76.986346,
                39.826826
              ],
              [
                -76.986346,
                39.827054
              ],
              [
                -76.986374,
                39.827054
              ],
              [
                -76.986374,
                39.827075
              ],
              [
                -76.986357,
                39.827075
              ],
              [
                -76.986357,
                39.827096
              ],
              [
                -76.986429,
                39.827096
              ],
              [
                -76.986429,
                39.827044
              ],
              [
                -76.986452,
                39.827044
              ],
              [
                -76.986452,
                39.826837
              ]
            ]
          ],
          [
            [
              [
                -76.98572,
                39.826414
              ],
              [
                -76.985351,
                39.826414
              ],
              [
                -76.985351,
                39.827096
              ],
              [
                -76.98572,
                39.827096
              ],
              [
                -76.98572,
                39.826414
              ]
            ]
          ]
        ]
      },
      "properties": {
        "fill": "#D9E2F6",
        "stroke-width": "0.5",
        "stroke": "#96A3BD",
        "opacity": "0.75"
      }
    },
    {
      "type": "Feature",
      "geometry": {
        "type": "MultiLineString",
        "coordinates": []
      },
      "properties": {
        "stroke-width": "0.5"
      }
    },
    {
      "type": "Feature",
      "geometry": {
        "type": "Point",
        "coordinates": [
          -76.986061,
          39.82639
        ]
      },
      "properties": {
        "type": "P",
        "sub_category": "EntryExit",
        "poi_name": "MAIN ENTRANCE",
        "profile": "BASIC INFO",
        "icon_id": "entrance_exit",
        "orientation": 0
      }
    },
    {
      "type": "Feature",
      "geometry": {
        "type": "Point",
        "coordinates": [
          -76.986354,
          39.826463
        ]
      },
      "properties": {
        "type": "P",
        "sub_category": "EntryExit",
        "poi_name": "MAIN EXIT",
        "profile": "BASIC INFO",
        "icon_id": "entrance_exit",
        "orientation": 0
      }
    },
    {
      "type": "Feature",
      "geometry": {
        "type": "Point",
        "coordinates": [
          -76.986976,
          39.826441
        ]
      },
      "properties": {
        "type": "P",
        "sub_category": "EntryExit",
        "poi_name": "PRO ENTRANCE",
        "profile": "BASIC INFO",
        "icon_id": "entrance_exit",
        "orientation": 0
      }
    },
    {
      "type": "Feature",
      "geometry": {
        "type": "Point",
        "coordinates": [
          -76.986975,
          39.826474
        ]
      },
      "properties": {
        "type": "P",
        "sub_category": "EntryExit",
        "poi_name": "PRO EXIT",
        "profile": "BASIC INFO",
        "icon_id": "entrance_exit",
        "orientation": 0
      }
    },
    {
      "type": "Feature",
      "geometry": {
        "type": "Point",
        "coordinates": [
          -76.98699,
          39.82651
        ]
      },
      "properties": {
        "type": "P",
        "sub_category": "Checkouts",
        "poi_name": "PRO CHECKOUT",
        "profile": "BASIC INFO",
        "icon_id": "checkouts",
        "orientation": 0
      }
    },
    {
      "type": "Feature",
      "geometry": {
        "type": "Point",
        "coordinates": [
          -76.986115,
          39.826906
        ]
      },
      "properties": {
        "type": "P",
        "sub_category": "ServiceDesks",
        "poi_name": "APPLIANCE DESK",
        "profile": "STORE SERVICES",
        "icon_id": "appliance_desk",
        "orientation": 0
      }
    },
    {
      "type": "Feature",
      "geometry": {
        "type": "Point",
        "coordinates": [
          -76.986281,
          39.826753
        ]
      },
      "properties": {
        "type": "P",
        "sub_category": "ServiceDesks",
        "poi_name": "HOME DECOR DESK",
        "profile": "STORE SERVICES",
        "icon_id": "home_décor_desk",
        "orientation": 0
      }
    },
    {
      "type": "Feature",
      "geometry": {
        "type": "Point",
        "coordinates": [
          -76.986247,
          39.827008
        ]
      },
      "properties": {
        "type": "P",
        "sub_category": "ServiceDesks",
        "poi_name": "KITCHEN DESIGN DESK",
        "profile": "STORE SERVICES",
        "icon_id": "kitchen_design_desk",
        "orientation": 0
      }
    },
    {
      "type": "Feature",
      "geometry": {
        "type": "Point",
        "coordinates": [
          -76.987033,
          39.827049
        ]
      },
      "properties": {
        "type": "P",
        "sub_category": "Services",
        "poi_name": "WOOD CUTTING",
        "profile": "STORE SERVICES",
        "icon_id": "wood_cutting",
        "orientation": 0
      }
    },
    {
      "type": "Feature",
      "geometry": {
        "type": "Point",
        "coordinates": [
          -76.986526,
          39.826769
        ]
      },
      "properties": {
        "type": "P",
        "sub_category": "Services",
        "poi_name": "WIRE CUTTING",
        "profile": "STORE SERVICES",
        "icon_id": "wire_cutting",
        "orientation": 0
      }
    },
    {
      "type": "Feature",
      "geometry": {
        "type": "Point",
        "coordinates": [
          -76.986635,
          39.826613
        ]
      },
      "properties": {
        "type": "P",
        "sub_category": "Services",
        "poi_name": "CHAIN AND ROPE CUTTING",
        "profile": "STORE SERVICES",
        "icon_id": "chain_rope_cutting",
        "orientation": 0
      }
    },
    {
      "type": "Feature",
      "geometry": {
        "type": "Point",
        "coordinates": [
          -76.986598,
          39.826561
        ]
      },
      "properties": {
        "type": "P",
        "sub_category": "Services",
        "poi_name": "GLASS CUTTING",
        "profile": "STORE SERVICES",
        "icon_id": "glass_cutting",
        "orientation": 0
      }
    },
    {
      "type": "Feature",
      "geometry": {
        "type": "Point",
        "coordinates": [
          -76.986682,
          39.826561
        ]
      },
      "properties": {
        "type": "P",
        "sub_category": "Services",
        "poi_name": "KEY CUTTING",
        "profile": "STORE SERVICES",
        "icon_id": "key_copying",
        "orientation": 0
      }
    },
    {
      "type": "Feature",
      "geometry": {
        "type": "Point",
        "coordinates": [
          -76.986323,
          39.826686
        ]
      },
      "properties": {
        "type": "P",
        "sub_category": "Services",
        "poi_name": "BLIND CUTTING",
        "profile": "STORE SERVICES",
        "icon_id": "blind_cutting",
        "orientation": 0
      }
    },
    {
      "type": "Feature",
      "geometry": {
        "type": "Point",
        "coordinates": [
          -76.985498,
          39.826369
        ]
      },
      "properties": {
        "type": "P",
        "sub_category": "EntryExit",
        "poi_name": "GARDEN CENTER ENTRANCE",
        "profile": "BASIC INFO",
        "icon_id": "entrance_exit",
        "orientation": 0
      }
    },
    {
      "type": "Feature",
      "geometry": {
        "type": "Point",
        "coordinates": [
          -76.985499,
          39.826429
        ]
      },
      "properties": {
        "type": "P",
        "sub_category": "EntryExit",
        "poi_name": "GARDEN CENTER EXIT",
        "profile": "BASIC INFO",
        "icon_id": "entrance_exit",
        "orientation": 0
      }
    },
    {
      "type": "Feature",
      "geometry": {
        "type": "Point",
        "coordinates": [
          -76.986492,
          39.826437
        ]
      },
      "properties": {
        "type": "P",
        "sub_category": "Restrooms",
        "poi_name": "MEN/WOMEN’S RESTROOMS",
        "profile": "BASIC INFO",
        "icon_id": "restrooms",
        "orientation": 0
      }
    },
    {
      "type": "Feature",
      "geometry": {
        "type": "Point",
        "coordinates": [
          -76.986529,
          39.82643
        ]
      },
      "properties": {
        "type": "P",
        "sub_category": "Restrooms",
        "poi_name": "UNISEX",
        "profile": "BASIC INFO",
        "icon_id": "restrooms",
        "orientation": 0
      }
    },
    {
      "type": "Feature",
      "geometry": {
        "type": "Point",
        "coordinates": [
          -76.985501,
          39.8265
        ]
      },
      "properties": {
        "type": "P",
        "sub_category": "Checkouts",
        "poi_name": "GARDEN CENTER CHECKOUT",
        "profile": "BASIC INFO",
        "icon_id": "checkouts",
        "orientation": 0
      }
    },
    {
      "type": "Feature",
      "geometry": {
        "type": "Point",
        "coordinates": [
          -76.98608,
          39.826498
        ]
      },
      "properties": {
        "type": "P",
        "sub_category": "ServiceDesks",
        "poi_name": "CUSTOMER SERVICE",
        "profile": "BASIC INFO",
        "icon_id": "customer_service_desk",
        "orientation": 0
      }
    },
    {
      "type": "Feature",
      "geometry": {
        "type": "Point",
        "coordinates": [
          -76.98608,
          39.826509
        ]
      },
      "properties": {
        "type": "P",
        "sub_category": "Services",
        "poi_name": "RETURNS",
        "profile": "BASIC INFO",
        "icon_id": "returns",
        "orientation": 0
      }
    },
    {
      "type": "Feature",
      "geometry": {
        "type": "Point",
        "coordinates": [
          -76.98619,
          39.826463
        ]
      },
      "properties": {
        "type": "P",
        "sub_category": "Services",
        "poi_name": "PRODUCT PICK-UP",
        "profile": "BASIC INFO",
        "icon_id": "store_pick_up",
        "orientation": 0
      }
    },
    {
      "type": "Feature",
      "geometry": {
        "type": "Point",
        "coordinates": [
          -76.986154,
          39.826463
        ]
      },
      "properties": {
        "type": "P",
        "sub_category": "Services",
        "poi_name": "PICKUP LOCKER",
        "profile": "BASIC INFO",
        "icon_id": "pickup_lockers",
        "orientation": 0
      }
    },
    {
      "type": "Feature",
      "geometry": {
        "type": "Point",
        "coordinates": [
          -76.986361,
          39.826517
        ]
      },
      "properties": {
        "type": "P",
        "sub_category": "Checkouts",
        "poi_name": "MAIN SELF-CHECKOUT",
        "profile": "BASIC INFO",
        "icon_id": "checkouts",
        "orientation": 0
      }
    },
    {
      "type": "Feature",
      "geometry": {
        "type": "Point",
        "coordinates": [
          -76.987052,
          39.826513
        ]
      },
      "properties": {
        "type": "P",
        "sub_category": "ServiceDesks",
        "poi_name": "PRO SERVICE DESK",
        "profile": "BASIC INFO",
        "icon_id": "pro_service_desk",
        "orientation": 0
      }
    },
    {
      "type": "Feature",
      "geometry": {
        "type": "Point",
        "coordinates": [
          -76.986744,
          39.826864
        ]
      },
      "properties": {
        "type": "P",
        "sub_category": "ServiceDesks",
        "poi_name": "MILLWORK DESK",
        "profile": "STORE SERVICES",
        "icon_id": "millwork_desk",
        "orientation": 0
      }
    },
    {
      "type": "Feature",
      "geometry": {
        "type": "Point",
        "coordinates": [
          -76.986541,
          39.826866
        ]
      },
      "properties": {
        "type": "P",
        "sub_category": "ServiceDesks",
        "poi_name": "FLOORING DESK",
        "profile": "STORE SERVICES",
        "icon_id": "flooring_desk",
        "orientation": 0
      }
    },
    {
      "type": "Feature",
      "geometry": {
        "type": "Point",
        "coordinates": [
          -76.9866,
          39.827076
        ]
      },
      "properties": {
        "type": "P",
        "sub_category": "Services",
        "poi_name": "CARPET CUTTING",
        "profile": "STORE SERVICES",
        "icon_id": "carpet_cutting",
        "orientation": 0
      }
    },
    {
      "type": "Feature",
      "geometry": {
        "type": "Point",
        "coordinates": [
          -76.986331,
          39.82717
        ]
      },
      "properties": {
        "type": "P",
        "sub_category": "ServiceDesks",
        "poi_name": "RECEIVING DESK",
        "profile": "BASIC INFO",
        "icon_id": "receiving_desk",
        "orientation": 0
      }
    },
    {
      "type": "Feature",
      "geometry": {
        "type": "Point",
        "coordinates": [
          -76.987038,
          39.826948
        ]
      },
      "properties": {
        "name": "LUMBER",
        "orientation": 0
      }
    },
    {
      "type": "Feature",
      "geometry": {
        "type": "Point",
        "coordinates": [
          -76.986916,
          39.826953
        ]
      },
      "properties": {
        "name": "LUMBER",
        "orientation": 0
      }
    },
    {
      "type": "Feature",
      "geometry": {
        "type": "Point",
        "coordinates": [
          -76.987032,
          39.826665
        ]
      },
      "properties": {
        "name": "LUMBER",
        "orientation": 0
      }
    },
    {
      "type": "Feature",
      "geometry": {
        "type": "Point",
        "coordinates": [
          -76.986934,
          39.826665
        ]
      },
      "properties": {
        "name": "LUMBER",
        "orientation": 0
      }
    },
    {
      "type": "Feature",
      "geometry": {
        "type": "Point",
        "coordinates": [
          -76.987069,
          39.826798
        ]
      },
      "properties": {
        "name": "BUILDING MATERIALS",
        "orientation": 0
      }
    },
    {
      "type": "Feature",
      "geometry": {
        "type": "Point",
        "coordinates": [
          -76.986844,
          39.826664
        ]
      },
      "properties": {
        "name": "BUILDING MATERIALS",
        "orientation": 0
      }
    },
    {
      "type": "Feature",
      "geometry": {
        "type": "Point",
        "coordinates": [
          -76.986919,
          39.826843
        ]
      },
      "properties": {
        "name": "BUILDING MATERIALS",
        "orientation": 0
      }
    },
    {
      "type": "Feature",
      "geometry": {
        "type": "Point",
        "coordinates": [
          -76.986894,
          39.827085
        ]
      },
      "properties": {
        "name": "BUILDING MATERIALS",
        "orientation": 0
      }
    },
    {
      "type": "Feature",
      "geometry": {
        "type": "Point",
        "coordinates": [
          -76.98676,
          39.826968
        ]
      },
      "properties": {
        "name": "BUILDING MATERIALS",
        "orientation": 0
      }
    },
    {
      "type": "Feature",
      "geometry": {
        "type": "Point",
        "coordinates": [
          -76.986767,
          39.826956
        ]
      },
      "properties": {
        "name": "MILLWORK",
        "orientation": 0
      }
    },
    {
      "type": "Feature",
      "geometry": {
        "type": "Point",
        "coordinates": [
          -76.98676,
          39.826665
        ]
      },
      "properties": {
        "name": "MILLWORK",
        "orientation": 0
      }
    },
    {
      "type": "Feature",
      "geometry": {
        "type": "Point",
        "coordinates": [
          -76.986412,
          39.826665
        ]
      },
      "properties": {
        "name": "LIGHTING",
        "orientation": 0
      }
    },
    {
      "type": "Feature",
      "geometry": {
        "type": "Point",
        "coordinates": [
          -76.986554,
          39.826665
        ]
      },
      "properties": {
        "name": "ROUGH ELECTRICAL",
        "orientation": 0
      }
    },
    {
      "type": "Feature",
      "geometry": {
        "type": "Point",
        "coordinates": [
          -76.985912,
          39.826893
        ]
      },
      "properties": {
        "name": "FASHION PLUMBING",
        "orientation": 0
      }
    },
    {
      "type": "Feature",
      "geometry": {
        "type": "Point",
        "coordinates": [
          -76.985737,
          39.826881
        ]
      },
      "properties": {
        "name": "FASHION PLUMBING",
        "orientation": 0
      }
    },
    {
      "type": "Feature",
      "geometry": {
        "type": "Point",
        "coordinates": [
          -76.985932,
          39.827028
        ]
      },
      "properties": {
        "name": "ROUGH PLUMBING",
        "orientation": 0
      }
    },
    {
      "type": "Feature",
      "geometry": {
        "type": "Point",
        "coordinates": [
          -76.985737,
          39.827005
        ]
      },
      "properties": {
        "name": "ROUGH PLUMBING",
        "orientation": 0
      }
    },
    {
      "type": "Feature",
      "geometry": {
        "type": "Point",
        "coordinates": [
          -76.985839,
          39.827085
        ]
      },
      "properties": {
        "name": "ROUGH PLUMBING",
        "orientation": 0
      }
    },
    {
      "type": "Feature",
      "geometry": {
        "type": "Point",
        "coordinates": [
          -76.986172,
          39.826956
        ]
      },
      "properties": {
        "name": "APPLIANCES",
        "orientation": 0
      }
    },
    {
      "type": "Feature",
      "geometry": {
        "type": "Point",
        "coordinates": [
          -76.986307,
          39.826873
        ]
      },
      "properties": {
        "name": "APPLIANCES",
        "orientation": 0
      }
    },
    {
      "type": "Feature",
      "geometry": {
        "type": "Point",
        "coordinates": [
          -76.986647,
          39.826665
        ]
      },
      "properties": {
        "name": "HARDWARE",
        "orientation": 0
      }
    },
    {
      "type": "Feature",
      "geometry": {
        "type": "Point",
        "coordinates": [
          -76.98616,
          39.826661
        ]
      },
      "properties": {
        "name": "PAINT",
        "orientation": 0
      }
    },
    {
      "type": "Feature",
      "geometry": {
        "type": "Point",
        "coordinates": [
          -76.986709,
          39.826487
        ]
      },
      "properties": {
        "name": "TOOLS",
        "orientation": 0
      }
    },
    {
      "type": "Feature",
      "geometry": {
        "type": "Point",
        "coordinates": [
          -76.986817,
          39.826583
        ]
      },
      "properties": {
        "name": "TOOLS",
        "orientation": 0
      }
    },
    {
      "type": "Feature",
      "geometry": {
        "type": "Point",
        "coordinates": [
          -76.985838,
          39.826712
        ]
      },
      "properties": {
        "name": "OUTDOOR POWER EQUIPMENT",
        "orientation": 0
      }
    },
    {
      "type": "Feature",
      "geometry": {
        "type": "Point",
        "coordinates": [
          -76.985986,
          39.826739
        ]
      },
      "properties": {
        "name": "OUTDOOR POWER EQUIPMENT",
        "orientation": 0
      }
    },
    {
      "type": "Feature",
      "geometry": {
        "type": "Point",
        "coordinates": [
          -76.986552,
          39.826956
        ]
      },
      "properties": {
        "name": "FLOORING",
        "orientation": 0
      }
    },
    {
      "type": "Feature",
      "geometry": {
        "type": "Point",
        "coordinates": [
          -76.986255,
          39.826956
        ]
      },
      "properties": {
        "name": "CABINETS",
        "orientation": 0
      }
    },
    {
      "type": "Feature",
      "geometry": {
        "type": "Point",
        "coordinates": [
          -76.986075,
          39.826665
        ]
      },
      "properties": {
        "name": "CLEANING",
        "orientation": 0
      }
    },
    {
      "type": "Feature",
      "geometry": {
        "type": "Point",
        "coordinates": [
          -76.985895,
          39.826758
        ]
      },
      "properties": {
        "name": "CLEANING",
        "orientation": 0
      }
    },
    {
      "type": "Feature",
      "geometry": {
        "type": "Point",
        "coordinates": [
          -76.986293,
          39.826668
        ]
      },
      "properties": {
        "name": "HOME DECOR",
        "orientation": 0
      }
    },
    {
      "type": "Feature",
      "geometry": {
        "type": "Point",
        "coordinates": [
          -76.985812,
          39.826484
        ]
      },
      "properties": {
        "name": "INSIDE LAWN AND GARDEN",
        "orientation": 0
      }
    },
    {
      "type": "Feature",
      "geometry": {
        "type": "Point",
        "coordinates": [
          -76.985878,
          39.826661
        ]
      },
      "properties": {
        "name": "INSIDE LAWN AND GARDEN",
        "orientation": 0
      }
    },
    {
      "type": "Feature",
      "geometry": {
        "type": "Point",
        "coordinates": [
          -76.985705,
          39.826664
        ]
      },
      "properties": {
        "name": "INSIDE LAWN AND GARDEN",
        "orientation": 0
      }
    },
    {
      "type": "Feature",
      "geometry": {
        "type": "Point",
        "coordinates": [
          -76.985487,
          39.826824
        ]
      },
      "properties": {
        "name": "INSIDE LAWN AND GARDEN",
        "orientation": 0
      }
    },
    {
      "type": "Feature",
      "geometry": {
        "type": "Point",
        "coordinates": [
          -76.985895,
          39.826786
        ]
      },
      "properties": {
        "name": "INSIDE LAWN AND GARDEN",
        "orientation": 0
      }
    },
    {
      "type": "Feature",
      "geometry": {
        "type": "Point",
        "coordinates": [
          -76.985536,
          39.826944
        ]
      },
      "properties": {
        "name": "OUTSIDE LAWN AND GARDEN",
        "orientation": 0
      }
    },
    {
      "type": "Feature",
      "geometry": {
        "type": "Point",
        "coordinates": [
          -76.98552,
          39.826605
        ]
      },
      "properties": {
        "name": "OUTSIDE LAWN AND GARDEN",
        "orientation": 0
      }
    },
    {
      "type": "Feature",
      "geometry": {
        "type": "Point",
        "coordinates": [
          -76.985536,
          39.827086
        ]
      },
      "properties": {
        "name": "OUTSIDE LAWN AND GARDEN",
        "orientation": 0
      }
    },
    {
      "type": "Feature",
      "geometry": {
        "type": "Point",
        "coordinates": [
          -76.985622,
          39.826455
        ]
      },
      "properties": {
        "name": "OUTSIDE LAWN AND GARDEN",
        "orientation": 0
      }
    },
    {
      "type": "Feature",
      "geometry": {
        "type": "Point",
        "coordinates": [
          -76.986399,
          39.826961
        ]
      },
      "properties": {
        "name": "STORAGE",
        "orientation": 0
      }
    },
    {
      "type": "Feature",
      "geometry": {
        "type": "Point",
        "coordinates": [
          -76.985536,
          39.826755
        ]
      },
      "properties": {
        "name": "GARDEN CENTER",
        "orientation": 0
      }
    }
  ]
}