{
  "type": "FeatureCollection",
  "name": "Lowes_depertment",
  "crs": {
    "type": "name",
    "properties": {
      "name": "urn:ogc:def:crs:OGC:1.3:CRS84"
    }
  },
  "features": [
    {
      "type": "Feature",
      "properties": {
        "fill": "#D9E2F6",
        "name": null,
        "stroke-width": "0.5",
        "stroke": "#96A3BD",
        "opacity": "0.75",
        "type": null,
        "sub_category": null,
        "poi_name": null,
        "profile": null,
        "icon_id": null,
        "orientation": null
      },
      "geometry": {
        "type": "MultiPolygon",
        "coordinates": [
          [
            [
              [
                -72.71579445826487,
                41.814299846897384
              ],
              [
                -72.71581945826486,
                41.814299846897384
              ],
              [
                -72.71581945826486,
                41.814352846897386
              ],
              [
                -72.71579445826487,
                41.814352846897386
              ],
              [
                -72.71579445826487,
                41.814299846897384
              ]
            ]
          ],
          [
            [
              [
                -72.71591145826486,
                41.81428984689738
              ],
              [
                -72.71588445826487,
                41.81428984689738
              ],
              [
                -72.71585245826486,
                41.81428984689738
              ],
              [
                -72.71585245826486,
                41.81437984689738
              ],
              [
                -72.71581945826486,
                41.81437984689738
              ],
              [
                -72.71581945826486,
                41.81456484689738
              ],
              [
                -72.71583145826486,
                41.81456484689738
              ],
              [
                -72.71583145826486,
                41.814594846897386
              ],
              [
                -72.71576845826486,
                41.814594846897386
              ],
              [
                -72.71576845826486,
                41.81463084689739
              ],
              [
                -72.71586545826486,
                41.81463084689739
              ],
              [
                -72.71586545826486,
                41.81461284689738
              ],
              [
                -72.71587945826487,
                41.81461284689738
              ],
              [
                -72.71587945826487,
                41.814600846897385
              ],
              [
                -72.71591145826486,
                41.814600846897385
              ],
              [
                -72.71591145826486,
                41.81428984689738
              ]
            ]
          ],
          [
            [
              [
                -72.71596645826486,
                41.81430084689738
              ],
              [
                -72.71594045826487,
                41.81430084689738
              ],
              [
                -72.71594045826487,
                41.81455784689739
              ],
              [
                -72.71596645826486,
                41.81455784689739
              ],
              [
                -72.71596645826486,
                41.81430084689738
              ]
            ]
          ],
          [
            [
              [
                -72.71591145826486,
                41.813958846897386
              ],
              [
                -72.71585145826486,
                41.813958846897386
              ],
              [
                -72.71585145826486,
                41.814254846897384
              ],
              [
                -72.71591145826486,
                41.814254846897384
              ],
              [
                -72.71591145826486,
                41.813958846897386
              ]
            ]
          ],
          [
            [
              [
                -72.71603045826487,
                41.81463084689739
              ],
              [
                -72.71594345826486,
                41.81463084689739
              ],
              [
                -72.71594345826486,
                41.814600846897385
              ],
              [
                -72.71594045826487,
                41.814600846897385
              ],
              [
                -72.71594045826487,
                41.814589846897384
              ],
              [
                -72.71603045826487,
                41.814589846897384
              ],
              [
                -72.71603045826487,
                41.81463084689739
              ]
            ]
          ],
          [
            [
              [
                -72.71581945826486,
                41.81437984689738
              ],
              [
                -72.71585245826486,
                41.81437984689738
              ],
              [
                -72.71585245826486,
                41.814299846897384
              ],
              [
                -72.71581945826486,
                41.814299846897384
              ],
              [
                -72.71581945826486,
                41.81437984689738
              ]
            ]
          ],
          [
            [
              [
                -72.71574745826486,
                41.814485846897384
              ],
              [
                -72.71577045826486,
                41.814485846897384
              ],
              [
                -72.71577045826486,
                41.814301846897386
              ],
              [
                -72.71574745826486,
                41.814301846897386
              ],
              [
                -72.71574745826486,
                41.814485846897384
              ]
            ]
          ],
          [
            [
              [
                -72.71578345826487,
                41.81396684689739
              ],
              [
                -72.71578345826487,
                41.814046846897384
              ],
              [
                -72.71575845826486,
                41.814046846897384
              ],
              [
                -72.71575845826486,
                41.814138846897386
              ],
              [
                -72.71575745826486,
                41.814138846897386
              ],
              [
                -72.71575745826486,
                41.814245846897386
              ],
              [
                -72.71578345826487,
                41.814245846897386
              ],
              [
                -72.71578345826487,
                41.814254846897384
              ],
              [
                -72.71585145826486,
                41.814254846897384
              ],
              [
                -72.71585145826486,
                41.813958846897386
              ],
              [
                -72.71583245826486,
                41.813958846897386
              ],
              [
                -72.71583245826486,
                41.81396684689739
              ],
              [
                -72.71578345826487,
                41.81396684689739
              ]
            ]
          ],
          [
            [
              [
                -72.71603045826487,
                41.813902846897385
              ],
              [
                -72.71599745826487,
                41.813902846897385
              ],
              [
                -72.71599745826487,
                41.813958846897386
              ],
              [
                -72.71594045826487,
                41.813958846897386
              ],
              [
                -72.71594045826487,
                41.813975846897385
              ],
              [
                -72.71593045826486,
                41.813975846897385
              ],
              [
                -72.71593045826486,
                41.81405084689739
              ],
              [
                -72.71594045826487,
                41.81405084689739
              ],
              [
                -72.71594045826487,
                41.814240846897384
              ],
              [
                -72.71597845826486,
                41.814240846897384
              ],
              [
                -72.71597845826486,
                41.81430084689738
              ],
              [
                -72.71596645826486,
                41.81430084689738
              ],
              [
                -72.71596645826486,
                41.81455784689739
              ],
              [
                -72.71594045826487,
                41.81455784689739
              ],
              [
                -72.71594045826487,
                41.814589846897384
              ],
              [
                -72.71603045826487,
                41.814589846897384
              ],
              [
                -72.71603045826487,
                41.813902846897385
              ]
            ]
          ],
          [
            [
              [
                -72.71576845826486,
                41.81462984689738
              ],
              [
                -72.71576845826486,
                41.81463084689739
              ],
              [
                -72.71560145826486,
                41.81463084689739
              ],
              [
                -72.71560145826486,
                41.81460484689738
              ],
              [
                -72.71558545826487,
                41.81460484689738
              ],
              [
                -72.71558545826487,
                41.814302846897384
              ],
              [
                -72.71560945826486,
                41.814301846897386
              ],
              [
                -72.71560945826486,
                41.81428984689738
              ],
              [
                -72.71570045826486,
                41.81428984689738
              ],
              [
                -72.71570045826486,
                41.814301846897386
              ],
              [
                -72.71574745826486,
                41.814301846897386
              ],
              [
                -72.71574745826486,
                41.814485846897384
              ],
              [
                -72.71577045826486,
                41.814485846897384
              ],
              [
                -72.71577045826486,
                41.81440784689738
              ],
              [
                -72.71577045826486,
                41.81435484689739
              ],
              [
                -72.71577045826486,
                41.814301846897386
              ],
              [
                -72.71579445826487,
                41.814301846897386
              ],
              [
                -72.71579445826487,
                41.814352846897386
              ],
              [
                -72.71581945826486,
                41.814352846897386
              ],
              [
                -72.71581945826486,
                41.81451184689738
              ],
              [
                -72.71581945826486,
                41.81456484689738
              ],
              [
                -72.71583145826486,
                41.81456484689738
              ],
              [
                -72.71583145826486,
                41.814594846897386
              ],
              [
                -72.71576845826486,
                41.814594846897386
              ],
              [
                -72.71576845826486,
                41.81462984689738
              ]
            ]
          ],
          [
            [
              [
                -72.71553245826486,
                41.813967846897384
              ],
              [
                -72.71553245826486,
                41.81424484689738
              ],
              [
                -72.71550945826486,
                41.81424484689738
              ],
              [
                -72.71550945826486,
                41.814245846897386
              ],
              [
                -72.71546345826486,
                41.814245846897386
              ],
              [
                -72.71546345826486,
                41.814243846897384
              ],
              [
                -72.71541845826486,
                41.814243846897384
              ],
              [
                -72.71541845826486,
                41.814226846897384
              ],
              [
                -72.71537245826487,
                41.814226846897384
              ],
              [
                -72.71537245826487,
                41.814245846897386
              ],
              [
                -72.71534945826487,
                41.814245846897386
              ],
              [
                -72.71534945826487,
                41.81414384689739
              ],
              [
                -72.71537245826487,
                41.81414384689739
              ],
              [
                -72.71537245826487,
                41.81411884689739
              ],
              [
                -72.71534945826487,
                41.81411884689739
              ],
              [
                -72.71534945826487,
                41.813967846897384
              ],
              [
                -72.71537245826487,
                41.813967846897384
              ],
              [
                -72.71537245826487,
                41.813972846897386
              ],
              [
                -72.71539545826487,
                41.813972846897386
              ],
              [
                -72.71546345826486,
                41.813972846897386
              ],
              [
                -72.71546345826486,
                41.813967846897384
              ],
              [
                -72.71553245826486,
                41.813967846897384
              ]
            ]
          ],
          [
            [
              [
                -72.71562045826487,
                41.814245846897386
              ],
              [
                -72.71556745826486,
                41.814245846897386
              ],
              [
                -72.71555745826487,
                41.814245846897386
              ],
              [
                -72.71555745826487,
                41.81424484689738
              ],
              [
                -72.71553245826486,
                41.81424484689738
              ],
              [
                -72.71553245826486,
                41.813967846897384
              ],
              [
                -72.71562045826487,
                41.813967846897384
              ],
              [
                -72.71562045826487,
                41.814245846897386
              ]
            ]
          ],
          [
            [
              [
                -72.71558545826487,
                41.814302846897384
              ],
              [
                -72.71558545826487,
                41.814594846897386
              ],
              [
                -72.71558545826487,
                41.81460484689738
              ],
              [
                -72.71560145826486,
                41.81460484689738
              ],
              [
                -72.71560145826486,
                41.81463084689739
              ],
              [
                -72.71557645826486,
                41.81463084689739
              ],
              [
                -72.71557645826486,
                41.81461284689738
              ],
              [
                -72.71556245826486,
                41.81461284689738
              ],
              [
                -72.71556245826486,
                41.81463084689739
              ],
              [
                -72.71540945826486,
                41.81463084689739
              ],
              [
                -72.71540945826486,
                41.81460484689738
              ],
              [
                -72.71533545826486,
                41.81460484689738
              ],
              [
                -72.71533545826486,
                41.81458284689739
              ],
              [
                -72.71537645826486,
                41.81458284689739
              ],
              [
                -72.71537645826486,
                41.814575846897384
              ],
              [
                -72.71539645826486,
                41.814575846897384
              ],
              [
                -72.71539645826486,
                41.81429884689739
              ],
              [
                -72.71541545826486,
                41.81429884689739
              ],
              [
                -72.71541545826486,
                41.81428984689738
              ],
              [
                -72.71556145826486,
                41.81428984689738
              ],
              [
                -72.71556145826486,
                41.814302846897384
              ],
              [
                -72.71558545826487,
                41.814302846897384
              ]
            ]
          ],
          [
            [
              [
                -72.71575745826486,
                41.814245846897386
              ],
              [
                -72.71568445826486,
                41.814245846897386
              ],
              [
                -72.71568445826486,
                41.81424484689738
              ],
              [
                -72.71566445826487,
                41.81424484689738
              ],
              [
                -72.71566445826487,
                41.814245846897386
              ],
              [
                -72.71564545826486,
                41.814245846897386
              ],
              [
                -72.71564545826486,
                41.81424484689738
              ],
              [
                -72.71562045826487,
                41.81424484689738
              ],
              [
                -72.71562045826487,
                41.813967846897384
              ],
              [
                -72.71572945826486,
                41.813967846897384
              ],
              [
                -72.71572945826486,
                41.81396684689739
              ],
              [
                -72.71575845826486,
                41.81396684689739
              ],
              [
                -72.71575845826486,
                41.814138846897386
              ],
              [
                -72.71575745826486,
                41.814138846897386
              ],
              [
                -72.71575745826486,
                41.814245846897386
              ]
            ]
          ],
          [
            [
              [
                -72.71501445826486,
                41.81429184689738
              ],
              [
                -72.71501445826486,
                41.814302846897384
              ],
              [
                -72.71503545826486,
                41.814302846897384
              ],
              [
                -72.71503545826486,
                41.81457984689738
              ],
              [
                -72.71502445826486,
                41.81457984689738
              ],
              [
                -72.71502445826486,
                41.81459884689738
              ],
              [
                -72.71499545826487,
                41.81459884689738
              ],
              [
                -72.71499545826487,
                41.81463084689739
              ],
              [
                -72.71497045826486,
                41.81463084689739
              ],
              [
                -72.71497045826486,
                41.81461284689738
              ],
              [
                -72.71495645826487,
                41.81461284689738
              ],
              [
                -72.71495645826487,
                41.81463084689739
              ],
              [
                -72.71482645826487,
                41.81463084689739
              ],
              [
                -72.71482645826487,
                41.81460484689738
              ],
              [
                -72.71478745826487,
                41.81460484689738
              ],
              [
                -72.71478745826487,
                41.81457984689738
              ],
              [
                -72.71488545826486,
                41.81457984689738
              ],
              [
                -72.71488545826486,
                41.81457384689738
              ],
              [
                -72.71488345826486,
                41.81457384689738
              ],
              [
                -72.71488345826486,
                41.81429184689738
              ],
              [
                -72.71501445826486,
                41.81429184689738
              ]
            ]
          ],
          [
            [
              [
                -72.71522645826487,
                41.813967846897384
              ],
              [
                -72.71522645826487,
                41.814169846897386
              ],
              [
                -72.71520745826486,
                41.814169846897386
              ],
              [
                -72.71520745826486,
                41.813967846897384
              ],
              [
                -72.71522645826487,
                41.813967846897384
              ]
            ]
          ],
          [
            [
              [
                -72.71518445826486,
                41.813967846897384
              ],
              [
                -72.71518445826486,
                41.81424484689738
              ],
              [
                -72.71516545826486,
                41.81424484689738
              ],
              [
                -72.71516545826486,
                41.81421884689738
              ],
              [
                -72.71514245826486,
                41.81421884689738
              ],
              [
                -72.71514245826486,
                41.814243846897384
              ],
              [
                -72.71507845826486,
                41.814243846897384
              ],
              [
                -72.71507845826486,
                41.81424484689738
              ],
              [
                -72.71505745826487,
                41.81424484689738
              ],
              [
                -72.71505745826487,
                41.813967846897384
              ],
              [
                -72.71507845826486,
                41.813967846897384
              ],
              [
                -72.71507845826486,
                41.81396584689738
              ],
              [
                -72.71509745826486,
                41.81396584689738
              ],
              [
                -72.71509745826486,
                41.81396684689739
              ],
              [
                -72.71516545826486,
                41.81396684689739
              ],
              [
                -72.71516545826486,
                41.813967846897384
              ],
              [
                -72.71518445826486,
                41.813967846897384
              ]
            ]
          ],
          [
            [
              [
                -72.71534945826487,
                41.813967846897384
              ],
              [
                -72.71534945826487,
                41.814245846897386
              ],
              [
                -72.71524645826486,
                41.814245846897386
              ],
              [
                -72.71524645826486,
                41.81424484689738
              ],
              [
                -72.71520745826486,
                41.81424484689738
              ],
              [
                -72.71520745826486,
                41.814169846897386
              ],
              [
                -72.71522645826487,
                41.814169846897386
              ],
              [
                -72.71522645826487,
                41.813967846897384
              ],
              [
                -72.71524645826486,
                41.813967846897384
              ],
              [
                -72.71524645826486,
                41.813958846897386
              ],
              [
                -72.71532645826487,
                41.813958846897386
              ],
              [
                -72.71532645826487,
                41.813967846897384
              ],
              [
                -72.71534945826487,
                41.813967846897384
              ]
            ]
          ],
          [
            [
              [
                -72.71520745826486,
                41.814093846897386
              ],
              [
                -72.71518445826486,
                41.814093846897386
              ],
              [
                -72.71518445826486,
                41.813967846897384
              ],
              [
                -72.71520745826486,
                41.813967846897384
              ],
              [
                -72.71520745826486,
                41.814093846897386
              ]
            ]
          ],
          [
            [
              [
                -72.71578345826487,
                41.814046846897384
              ],
              [
                -72.71575845826486,
                41.814046846897384
              ],
              [
                -72.71575845826486,
                41.81396684689739
              ],
              [
                -72.71578345826487,
                41.81396684689739
              ],
              [
                -72.71578345826487,
                41.814046846897384
              ]
            ]
          ],
          [
            [
              [
                -72.71583845826486,
                41.81385084689738
              ],
              [
                -72.71583845826486,
                41.813865846897386
              ],
              [
                -72.71582645826486,
                41.813865846897386
              ],
              [
                -72.71582645826486,
                41.81392184689739
              ],
              [
                -72.71584145826486,
                41.81392184689739
              ],
              [
                -72.71584145826486,
                41.813927846897386
              ],
              [
                -72.71575245826486,
                41.813927846897386
              ],
              [
                -72.71575245826486,
                41.81392084689738
              ],
              [
                -72.71570545826486,
                41.81392084689738
              ],
              [
                -72.71570545826486,
                41.813927846897386
              ],
              [
                -72.71543345826487,
                41.813927846897386
              ],
              [
                -72.71543345826487,
                41.81386484689738
              ],
              [
                -72.71541645826485,
                41.81386484689738
              ],
              [
                -72.71541645826485,
                41.81385084689738
              ],
              [
                -72.71583845826486,
                41.81385084689738
              ]
            ]
          ],
          [
            [
              [
                -72.71499245826486,
                41.81420184689738
              ],
              [
                -72.71482145826486,
                41.81420184689738
              ],
              [
                -72.71482145826486,
                41.81422484689738
              ],
              [
                -72.71479745826487,
                41.81422484689738
              ],
              [
                -72.71479745826487,
                41.81420184689738
              ],
              [
                -72.71474845826486,
                41.81420184689738
              ],
              [
                -72.71474845826486,
                41.814178846897384
              ],
              [
                -72.71473645826487,
                41.814178846897384
              ],
              [
                -72.71473645826487,
                41.814107846897386
              ],
              [
                -72.71489545826486,
                41.814107846897386
              ],
              [
                -72.71489545826486,
                41.814178846897384
              ],
              [
                -72.71490745826486,
                41.814178846897384
              ],
              [
                -72.71490745826486,
                41.814091846897384
              ],
              [
                -72.71501445826486,
                41.814091846897384
              ],
              [
                -72.71501445826486,
                41.814178846897384
              ],
              [
                -72.71499245826486,
                41.814178846897384
              ],
              [
                -72.71499245826486,
                41.81420184689738
              ]
            ]
          ],
          [
            [
              [
                -72.71511045826486,
                41.814316846897384
              ],
              [
                -72.71511045826486,
                41.81428984689738
              ],
              [
                -72.71532445826486,
                41.81428984689738
              ],
              [
                -72.71532445826486,
                41.814355846897385
              ],
              [
                -72.71531645826487,
                41.814355846897385
              ],
              [
                -72.71531445826486,
                41.814355846897385
              ],
              [
                -72.71531445826486,
                41.81435784689739
              ],
              [
                -72.71527545826486,
                41.81435784689739
              ],
              [
                -72.71527545826486,
                41.814389846897384
              ],
              [
                -72.71526445826485,
                41.814389846897384
              ],
              [
                -72.71526445826485,
                41.81456284689738
              ],
              [
                -72.71528945826486,
                41.81456284689738
              ],
              [
                -72.71528945826486,
                41.814516846897384
              ],
              [
                -72.71531545826487,
                41.814516846897384
              ],
              [
                -72.71531545826487,
                41.81457084689738
              ],
              [
                -72.71532445826486,
                41.81457084689738
              ],
              [
                -72.71532445826486,
                41.81458284689739
              ],
              [
                -72.71533545826486,
                41.81458284689739
              ],
              [
                -72.71533545826486,
                41.81463084689739
              ],
              [
                -72.71527345826486,
                41.81463084689739
              ],
              [
                -72.71527345826486,
                41.81461284689738
              ],
              [
                -72.71525945826487,
                41.81461284689738
              ],
              [
                -72.71525945826487,
                41.81463084689739
              ],
              [
                -72.71509645826487,
                41.81463084689739
              ],
              [
                -72.71509645826487,
                41.81457984689738
              ],
              [
                -72.71510045826486,
                41.81457984689738
              ],
              [
                -72.71510045826486,
                41.81456884689739
              ],
              [
                -72.71512245826486,
                41.81456884689739
              ],
              [
                -72.71512245826486,
                41.814316846897384
              ],
              [
                -72.71511045826486,
                41.814316846897384
              ]
            ]
          ],
          [
            [
              [
                -72.71471345826487,
                41.814304846897386
              ],
              [
                -72.71473745826486,
                41.814304846897386
              ],
              [
                -72.71473745826486,
                41.814560846897386
              ],
              [
                -72.71471245826486,
                41.814560846897386
              ],
              [
                -72.71471245826486,
                41.814304846897386
              ],
              [
                -72.71471345826487,
                41.814304846897386
              ]
            ]
          ],
          [
            [
              [
                -72.71488345826486,
                41.81429184689738
              ],
              [
                -72.71488345826486,
                41.81457384689738
              ],
              [
                -72.71488545826486,
                41.81457384689738
              ],
              [
                -72.71488545826486,
                41.81457984689738
              ],
              [
                -72.71478745826487,
                41.81457984689738
              ],
              [
                -72.71478745826487,
                41.81460484689738
              ],
              [
                -72.71482645826487,
                41.81460484689738
              ],
              [
                -72.71482645826487,
                41.81463084689739
              ],
              [
                -72.71471145826486,
                41.81463084689739
              ],
              [
                -72.71471245826486,
                41.814600846897385
              ],
              [
                -72.71475045826486,
                41.814600846897385
              ],
              [
                -72.71475045826486,
                41.814310846897385
              ],
              [
                -72.71479745826487,
                41.814310846897385
              ],
              [
                -72.71479745826487,
                41.81429184689738
              ],
              [
                -72.71488345826486,
                41.81429184689738
              ]
            ]
          ],
          [
            [
              [
                -72.71505745826487,
                41.81396584689738
              ],
              [
                -72.71503845826486,
                41.81396584689738
              ],
              [
                -72.71503845826486,
                41.81424484689738
              ],
              [
                -72.71505745826487,
                41.81424484689738
              ],
              [
                -72.71505745826487,
                41.81396584689738
              ]
            ]
          ],
          [
            [
              [
                -72.71497945826486,
                41.81424784689739
              ],
              [
                -72.71475945826487,
                41.81424784689739
              ],
              [
                -72.71475945826487,
                41.81426684689738
              ],
              [
                -72.71474245826487,
                41.81426684689738
              ],
              [
                -72.71474245826487,
                41.81425884689738
              ],
              [
                -72.71473645826487,
                41.81425884689738
              ],
              [
                -72.71473645826487,
                41.81423684689739
              ],
              [
                -72.71474845826486,
                41.81423684689739
              ],
              [
                -72.71474845826486,
                41.81420184689738
              ],
              [
                -72.71477245826486,
                41.81420184689738
              ],
              [
                -72.71477245826486,
                41.81422484689738
              ],
              [
                -72.71497945826486,
                41.81422484689738
              ],
              [
                -72.71497945826486,
                41.81424784689739
              ]
            ]
          ],
          [
            [
              [
                -72.71539645826486,
                41.814575846897384
              ],
              [
                -72.71537645826486,
                41.814575846897384
              ],
              [
                -72.71537645826486,
                41.81458284689739
              ],
              [
                -72.71532445826486,
                41.81458284689739
              ],
              [
                -72.71532445826486,
                41.81457084689738
              ],
              [
                -72.71531545826487,
                41.81457084689738
              ],
              [
                -72.71531545826487,
                41.814516846897384
              ],
              [
                -72.71528945826486,
                41.814516846897384
              ],
              [
                -72.71528945826486,
                41.81456284689738
              ],
              [
                -72.71526445826485,
                41.81456284689738
              ],
              [
                -72.71526445826485,
                41.814389846897384
              ],
              [
                -72.71527545826486,
                41.814389846897384
              ],
              [
                -72.71527545826486,
                41.81435784689739
              ],
              [
                -72.71531545826487,
                41.81435784689739
              ],
              [
                -72.71531545826487,
                41.814355846897385
              ],
              [
                -72.71532445826486,
                41.814355846897385
              ],
              [
                -72.71532445826486,
                41.81428984689738
              ],
              [
                -72.71537645826486,
                41.81428984689738
              ],
              [
                -72.71537645826486,
                41.81429884689739
              ],
              [
                -72.71539645826486,
                41.81429884689739
              ],
              [
                -72.71539645826486,
                41.814575846897384
              ]
            ]
          ],
          [
            [
              [
                -72.71540945826486,
                41.81463084689739
              ],
              [
                -72.71533545826486,
                41.81463084689739
              ],
              [
                -72.71533545826486,
                41.81460484689738
              ],
              [
                -72.71540945826486,
                41.81460484689738
              ],
              [
                -72.71540945826486,
                41.81463084689739
              ]
            ]
          ],
          [
            [
              [
                -72.71489045826486,
                41.81385084689738
              ],
              [
                -72.71489045826486,
                41.81387384689739
              ],
              [
                -72.71486345826486,
                41.81387384689739
              ],
              [
                -72.71486345826486,
                41.81391884689739
              ],
              [
                -72.71474245826487,
                41.81391884689739
              ],
              [
                -72.71474245826487,
                41.81390984689738
              ],
              [
                -72.71471245826486,
                41.81390984689738
              ],
              [
                -72.71471245826486,
                41.81385084689738
              ],
              [
                -72.71472845826486,
                41.81385084689738
              ],
              [
                -72.71472845826486,
                41.813868846897385
              ],
              [
                -72.71474245826487,
                41.813868846897385
              ],
              [
                -72.71474245826487,
                41.81385084689738
              ],
              [
                -72.71489045826486,
                41.81385084689738
              ]
            ]
          ],
          [
            [
              [
                -72.71461745826487,
                41.81424684689738
              ],
              [
                -72.71458545826486,
                41.81424684689738
              ],
              [
                -72.71458545826486,
                41.81414084689738
              ],
              [
                -72.71457345826487,
                41.81414084689738
              ],
              [
                -72.71457345826487,
                41.81412684689739
              ],
              [
                -72.71459845826486,
                41.81412684689739
              ],
              [
                -72.71459845826486,
                41.81414084689738
              ],
              [
                -72.71461745826487,
                41.81414084689738
              ],
              [
                -72.71461745826487,
                41.81424684689738
              ]
            ]
          ],
          [
            [
              [
                -72.71470945826486,
                41.81411584689739
              ],
              [
                -72.71468045826487,
                41.81411584689739
              ],
              [
                -72.71468045826487,
                41.81395284689739
              ],
              [
                -72.71470945826486,
                41.81395284689739
              ],
              [
                -72.71470945826486,
                41.81411584689739
              ]
            ]
          ],
          [
            [
              [
                -72.71497945826486,
                41.81424784689739
              ],
              [
                -72.71497945826486,
                41.81426684689738
              ],
              [
                -72.71475945826487,
                41.81426684689738
              ],
              [
                -72.71475945826487,
                41.81425584689738
              ],
              [
                -72.71475945826487,
                41.81424784689739
              ],
              [
                -72.71497945826486,
                41.81424784689739
              ]
            ]
          ],
          [
            [
              [
                -72.71489545826486,
                41.814107846897386
              ],
              [
                -72.71473645826487,
                41.814107846897386
              ],
              [
                -72.71473645826487,
                41.814178846897384
              ],
              [
                -72.71474845826486,
                41.814178846897384
              ],
              [
                -72.71474845826486,
                41.81423684689739
              ],
              [
                -72.71473645826487,
                41.81423684689739
              ],
              [
                -72.71473645826487,
                41.81425884689738
              ],
              [
                -72.71471245826486,
                41.81425884689738
              ],
              [
                -72.71471245826486,
                41.81395284689739
              ],
              [
                -72.71474245826487,
                41.81395284689739
              ],
              [
                -72.71474245826487,
                41.81394384689738
              ],
              [
                -72.71501445826486,
                41.81394384689738
              ],
              [
                -72.71501445826486,
                41.814091846897384
              ],
              [
                -72.71490745826486,
                41.814091846897384
              ],
              [
                -72.71490745826486,
                41.814037846897385
              ],
              [
                -72.71489545826486,
                41.814037846897385
              ],
              [
                -72.71489545826486,
                41.814107846897386
              ]
            ]
          ],
          [
            [
              [
                -72.71499245826486,
                41.81422484689738
              ],
              [
                -72.71499245826486,
                41.81420184689738
              ],
              [
                -72.71482145826486,
                41.81420184689738
              ],
              [
                -72.71482145826486,
                41.81422484689738
              ],
              [
                -72.71499245826486,
                41.81422484689738
              ]
            ]
          ],
          [
            [
              [
                -72.71446445826486,
                41.813879846897386
              ],
              [
                -72.71467245826486,
                41.813879846897386
              ],
              [
                -72.71467245826486,
                41.81380084689739
              ],
              [
                -72.71446445826486,
                41.81380084689739
              ],
              [
                -72.71446445826486,
                41.813879846897386
              ]
            ]
          ],
          [
            [
              [
                -72.71470945826486,
                41.81432984689739
              ],
              [
                -72.71470945826486,
                41.814301846897386
              ],
              [
                -72.71467845826486,
                41.814301846897386
              ],
              [
                -72.71467845826486,
                41.81430584689738
              ],
              [
                -72.71425545826486,
                41.81430584689738
              ],
              [
                -72.71425545826486,
                41.81432984689739
              ],
              [
                -72.71470945826486,
                41.81432984689739
              ]
            ]
          ],
          [
            [
              [
                -72.71470945826486,
                41.81425884689738
              ],
              [
                -72.71470945826486,
                41.81411584689739
              ],
              [
                -72.71468045826487,
                41.81411584689739
              ],
              [
                -72.71468045826487,
                41.81412684689739
              ],
              [
                -72.71430845826487,
                41.81412684689739
              ],
              [
                -72.71430845826487,
                41.814273846897386
              ],
              [
                -72.71459845826486,
                41.814273846897386
              ],
              [
                -72.71459845826486,
                41.81424684689738
              ],
              [
                -72.71458545826486,
                41.81424684689738
              ],
              [
                -72.71458545826486,
                41.81414084689738
              ],
              [
                -72.71457345826487,
                41.81414084689738
              ],
              [
                -72.71457345826487,
                41.81412684689739
              ],
              [
                -72.71459845826486,
                41.81412684689739
              ],
              [
                -72.71459845826486,
                41.81414084689738
              ],
              [
                -72.71461745826487,
                41.81414084689738
              ],
              [
                -72.71461745826487,
                41.81424684689738
              ],
              [
                -72.71459845826486,
                41.81424684689738
              ],
              [
                -72.71459845826486,
                41.814273846897386
              ],
              [
                -72.71467845826486,
                41.814273846897386
              ],
              [
                -72.71467845826486,
                41.81425884689738
              ],
              [
                -72.71470945826486,
                41.81425884689738
              ]
            ]
          ],
          [
            [
              [
                -72.71428445826486,
                41.81411884689739
              ],
              [
                -72.71425545826486,
                41.81411884689739
              ],
              [
                -72.71425545826486,
                41.814273846897386
              ],
              [
                -72.71428445826486,
                41.814273846897386
              ],
              [
                -72.71428445826486,
                41.81411884689739
              ]
            ]
          ],
          [
            [
              [
                -72.71468045826487,
                41.81408784689739
              ],
              [
                -72.71468045826487,
                41.81395284689739
              ],
              [
                -72.71467045826486,
                41.81395284689739
              ],
              [
                -72.71467045826486,
                41.81393184689738
              ],
              [
                -72.71465145826487,
                41.81393184689738
              ],
              [
                -72.71465145826487,
                41.81390984689738
              ],
              [
                -72.71434645826486,
                41.81390984689738
              ],
              [
                -72.71434645826486,
                41.81380084689739
              ],
              [
                -72.71429645826487,
                41.81380084689739
              ],
              [
                -72.71429645826487,
                41.813818846897384
              ],
              [
                -72.71428045826487,
                41.813818846897384
              ],
              [
                -72.71428045826487,
                41.81380084689739
              ],
              [
                -72.71425545826486,
                41.81380084689739
              ],
              [
                -72.71425545826486,
                41.81406184689738
              ],
              [
                -72.71430745826486,
                41.81406184689738
              ],
              [
                -72.71430745826486,
                41.81408784689739
              ],
              [
                -72.71468045826487,
                41.81408784689739
              ]
            ]
          ],
          [
            [
              [
                -72.71500045826487,
                41.81385084689738
              ],
              [
                -72.71500045826487,
                41.81388084689738
              ],
              [
                -72.71500445826486,
                41.81388084689738
              ],
              [
                -72.71500445826486,
                41.81391884689739
              ],
              [
                -72.71486345826486,
                41.81391884689739
              ],
              [
                -72.71486345826486,
                41.81387384689739
              ],
              [
                -72.71489045826486,
                41.81387384689739
              ],
              [
                -72.71489045826486,
                41.81385084689738
              ],
              [
                -72.71500045826487,
                41.81385084689738
              ]
            ]
          ],
          [
            [
              [
                -72.71587045826486,
                41.813927846897386
              ],
              [
                -72.71587045826486,
                41.813865846897386
              ],
              [
                -72.71588745826486,
                41.813865846897386
              ],
              [
                -72.71588745826486,
                41.81385084689738
              ],
              [
                -72.71583845826486,
                41.81385084689738
              ],
              [
                -72.71583845826486,
                41.813865846897386
              ],
              [
                -72.71582645826486,
                41.813865846897386
              ],
              [
                -72.71582645826486,
                41.81392184689739
              ],
              [
                -72.71584145826486,
                41.81392184689739
              ],
              [
                -72.71584145826486,
                41.813927846897386
              ],
              [
                -72.71587045826486,
                41.813927846897386
              ]
            ]
          ],
          [
            [
              [
                -72.71578345826487,
                41.814254846897384
              ],
              [
                -72.71503845826486,
                41.814254846897384
              ],
              [
                -72.71503845826486,
                41.81424484689738
              ],
              [
                -72.71507845826486,
                41.81424484689738
              ],
              [
                -72.71507845826486,
                41.814243846897384
              ],
              [
                -72.71516545826486,
                41.814243846897384
              ],
              [
                -72.71516545826486,
                41.81424484689738
              ],
              [
                -72.71524645826486,
                41.81424484689738
              ],
              [
                -72.71524645826486,
                41.814245846897386
              ],
              [
                -72.71537245826487,
                41.814245846897386
              ],
              [
                -72.71537245826487,
                41.814226846897384
              ],
              [
                -72.71541845826486,
                41.814226846897384
              ],
              [
                -72.71541845826486,
                41.814243846897384
              ],
              [
                -72.71546345826486,
                41.814243846897384
              ],
              [
                -72.71546345826486,
                41.814245846897386
              ],
              [
                -72.71550945826486,
                41.814245846897386
              ],
              [
                -72.71550945826486,
                41.81424484689738
              ],
              [
                -72.71555745826487,
                41.81424484689738
              ],
              [
                -72.71555745826487,
                41.814245846897386
              ],
              [
                -72.71562045826487,
                41.814245846897386
              ],
              [
                -72.71562045826487,
                41.81424484689738
              ],
              [
                -72.71564545826486,
                41.81424484689738
              ],
              [
                -72.71564545826486,
                41.814245846897386
              ],
              [
                -72.71566445826487,
                41.814245846897386
              ],
              [
                -72.71566445826487,
                41.81424484689738
              ],
              [
                -72.71568445826486,
                41.81424484689738
              ],
              [
                -72.71568445826486,
                41.814245846897386
              ],
              [
                -72.71578345826487,
                41.814245846897386
              ],
              [
                -72.71578345826487,
                41.814254846897384
              ]
            ]
          ],
          [
            [
              [
                -72.71501445826486,
                41.814178846897384
              ],
              [
                -72.71499245826486,
                41.814178846897384
              ],
              [
                -72.71499245826486,
                41.81422484689738
              ],
              [
                -72.71501445826486,
                41.81422484689738
              ],
              [
                -72.71501445826486,
                41.814178846897384
              ]
            ]
          ],
          [
            [
              [
                -72.71509645826487,
                41.81463084689739
              ],
              [
                -72.71507245826486,
                41.81463084689739
              ],
              [
                -72.71499545826487,
                41.81463084689739
              ],
              [
                -72.71499545826487,
                41.81459884689738
              ],
              [
                -72.71502445826486,
                41.81459884689738
              ],
              [
                -72.71502445826486,
                41.81457984689738
              ],
              [
                -72.71503545826486,
                41.81457984689738
              ],
              [
                -72.71503545826486,
                41.814302846897384
              ],
              [
                -72.71505445826486,
                41.814302846897384
              ],
              [
                -72.71505445826486,
                41.81428984689738
              ],
              [
                -72.71511045826486,
                41.81428984689738
              ],
              [
                -72.71511045826486,
                41.814316846897384
              ],
              [
                -72.71512245826486,
                41.814316846897384
              ],
              [
                -72.71512245826486,
                41.81456884689739
              ],
              [
                -72.71510045826486,
                41.81456884689739
              ],
              [
                -72.71510045826486,
                41.81457984689738
              ],
              [
                -72.71509645826487,
                41.81457984689738
              ],
              [
                -72.71509645826487,
                41.81463084689739
              ]
            ]
          ],
          [
            [
              [
                -72.71520745826486,
                41.814093846897386
              ],
              [
                -72.71518445826486,
                41.814093846897386
              ],
              [
                -72.71518445826486,
                41.81424484689738
              ],
              [
                -72.71520745826486,
                41.81424484689738
              ],
              [
                -72.71520745826486,
                41.814093846897386
              ]
            ]
          ],
          [
            [
              [
                -72.71425545826486,
                41.81432984689739
              ],
              [
                -72.71470945826486,
                41.81432984689739
              ],
              [
                -72.71470945826486,
                41.81380084689739
              ],
              [
                -72.71425545826486,
                41.81380084689739
              ],
              [
                -72.71425545826486,
                41.81432984689739
              ]
            ]
          ]
        ]
      }
    }
  ]
}
