{"type": "FeatureCollection", "name": "Lowes_aisle_point", "crs": {"type": "name", "properties": {"name": "urn:ogc:def:crs:EPSG::4326"}}, "features": [{"type": "Feature", "properties": {"fill": null, "stroke-width": null, "stroke": null, "type": "A", "name": "48", "orientation": 0}, "geometry": {"type": "Point", "coordinates": [-72.71465511611818, 41.8140102450514]}}, {"type": "Feature", "properties": {"fill": null, "stroke-width": null, "stroke": null, "type": "A", "name": "49", "orientation": 0}, "geometry": {"type": "Point", "coordinates": [-72.71461532027818, 41.8140102450514]}}, {"type": "Feature", "properties": {"fill": null, "stroke-width": null, "stroke": null, "type": "A", "name": "47", "orientation": 0}, "geometry": {"type": "Point", "coordinates": [-72.71469579631018, 41.8140102450514]}}, {"type": "Feature", "properties": {"fill": null, "stroke-width": null, "stroke": null, "type": "A", "name": "1", "orientation": 0}, "geometry": {"type": "Point", "coordinates": [-72.71520695176618, 41.8142871358194]}}, {"type": "Feature", "properties": {"fill": null, "stroke-width": null, "stroke": null, "type": "A", "name": "43", "orientation": 0}, "geometry": {"type": "Point", "coordinates": [-72.71486736059818, 41.813933284475404]}}, {"type": "Feature", "properties": {"fill": null, "stroke-width": null, "stroke": null, "type": "A", "name": "22", "orientation": 0}, "geometry": {"type": "Point", "coordinates": [-72.71524851631018, 41.81435154847539]}}, {"type": "Feature", "properties": {"fill": null, "stroke-width": null, "stroke": null, "type": "A", "name": "7", "orientation": 0}, "geometry": {"type": "Point", "coordinates": [-72.7149823263582, 41.8142018099634]}}, {"type": "Feature", "properties": {"fill": null, "stroke-width": null, "stroke": null, "type": "A", "name": "2", "orientation": 0}, "geometry": {"type": "Point", "coordinates": [-72.71516538722219, 41.8142871358194]}}, {"type": "Feature", "properties": {"fill": null, "stroke-width": null, "stroke": null, "type": "A", "name": "3", "orientation": 0}, "geometry": {"type": "Point", "coordinates": [-72.71512824443819, 41.814290481931394]}}, {"type": "Feature", "properties": {"fill": null, "stroke-width": null, "stroke": null, "type": "A", "name": "4", "orientation": 0}, "geometry": {"type": "Point", "coordinates": [-72.71508844859818, 41.8142871358194]}}, {"type": "Feature", "properties": {"fill": null, "stroke-width": null, "stroke": null, "type": "A", "name": "5", "orientation": 0}, "geometry": {"type": "Point", "coordinates": [-72.71505130581419, 41.8142871358194]}}, {"type": "Feature", "properties": {"fill": null, "stroke-width": null, "stroke": null, "type": "A", "name": "6", "orientation": 0}, "geometry": {"type": "Point", "coordinates": [-72.71501681608619, 41.8142871358194]}}, {"type": "Feature", "properties": {"fill": null, "stroke-width": null, "stroke": null, "type": "A", "name": "8", "orientation": 0}, "geometry": {"type": "Point", "coordinates": [-72.71494606792619, 41.8142846262354]}}, {"type": "Feature", "properties": {"fill": null, "stroke-width": null, "stroke": null, "type": "A", "name": "9", "orientation": 0}, "geometry": {"type": "Point", "coordinates": [-72.71490538773418, 41.8142871358194]}}, {"type": "Feature", "properties": {"fill": null, "stroke-width": null, "stroke": null, "type": "A", "name": "10", "orientation": 0}, "geometry": {"type": "Point", "coordinates": [-72.71486470754219, 41.8142871358194]}}, {"type": "Feature", "properties": {"fill": null, "stroke-width": null, "stroke": null, "type": "A", "name": "11", "orientation": 0}, "geometry": {"type": "Point", "coordinates": [-72.71482491170218, 41.8142871358194]}}, {"type": "Feature", "properties": {"fill": null, "stroke-width": null, "stroke": null, "type": "A", "name": "13", "orientation": 0}, "geometry": {"type": "Point", "coordinates": [-72.7147417826142, 41.8142871358194]}}, {"type": "Feature", "properties": {"fill": null, "stroke-width": null, "stroke": null, "type": "A", "name": "15", "orientation": 0}, "geometry": {"type": "Point", "coordinates": [-72.71466395963817, 41.8142871358194]}}, {"type": "Feature", "properties": {"fill": null, "stroke-width": null, "stroke": null, "type": "A", "name": "16", "orientation": 0}, "geometry": {"type": "Point", "coordinates": [-72.71462946991018, 41.8142871358194]}}, {"type": "Feature", "properties": {"fill": null, "stroke-width": null, "stroke": null, "type": "A", "name": "17", "orientation": 0}, "geometry": {"type": "Point", "coordinates": [-72.71458967407018, 41.8142871358194]}}, {"type": "Feature", "properties": {"fill": null, "stroke-width": null, "stroke": null, "type": "A", "name": "18", "orientation": 0}, "geometry": {"type": "Point", "coordinates": [-72.71454191906217, 41.8142871358194]}}, {"type": "Feature", "properties": {"fill": null, "stroke-width": null, "stroke": null, "type": "A", "name": "19", "orientation": 0}, "geometry": {"type": "Point", "coordinates": [-72.71448089877418, 41.8142871358194]}}, {"type": "Feature", "properties": {"fill": null, "stroke-width": null, "stroke": null, "type": "A", "name": "20", "orientation": 0}, "geometry": {"type": "Point", "coordinates": [-72.71441987848618, 41.8142871358194]}}, {"type": "Feature", "properties": {"fill": null, "stroke-width": null, "stroke": null, "type": "A", "name": "12", "orientation": 0}, "geometry": {"type": "Point", "coordinates": [-72.71478423151018, 41.8142871358194]}}, {"type": "Feature", "properties": {"fill": null, "stroke-width": null, "stroke": null, "type": "A", "name": "14", "orientation": 0}, "geometry": {"type": "Point", "coordinates": [-72.71470729288619, 41.8142871358194]}}, {"type": "Feature", "properties": {"fill": null, "stroke-width": null, "stroke": null, "type": "A", "name": "24", "orientation": 0}, "geometry": {"type": "Point", "coordinates": [-72.71531042095019, 41.8142545112274]}}, {"type": "Feature", "properties": {"fill": null, "stroke-width": null, "stroke": null, "type": "A", "name": "25", "orientation": 0}, "geometry": {"type": "Point", "coordinates": [-72.71531307400619, 41.8142168674674]}}, {"type": "Feature", "properties": {"fill": null, "stroke-width": null, "stroke": null, "type": "A", "name": "26", "orientation": 0}, "geometry": {"type": "Point", "coordinates": [-72.71531307400619, 41.814177550651394]}}, {"type": "Feature", "properties": {"fill": null, "stroke-width": null, "stroke": null, "type": "A", "name": "27", "orientation": 0}, "geometry": {"type": "Point", "coordinates": [-72.71531307400619, 41.8141373973074]}}, {"type": "Feature", "properties": {"fill": null, "stroke-width": null, "stroke": null, "type": "A", "name": "28", "orientation": 0}, "geometry": {"type": "Point", "coordinates": [-72.71523790408618, 41.81409891701939]}}, {"type": "Feature", "properties": {"fill": null, "stroke-width": null, "stroke": null, "type": "A", "name": "30", "orientation": 0}, "geometry": {"type": "Point", "coordinates": [-72.71523790408618, 41.8140269756114]}}, {"type": "Feature", "properties": {"fill": null, "stroke-width": null, "stroke": null, "type": "A", "name": "31", "orientation": 0}, "geometry": {"type": "Point", "coordinates": [-72.71546164514218, 41.8140102450514]}}, {"type": "Feature", "properties": {"fill": null, "stroke-width": null, "stroke": null, "type": "A", "name": "34", "orientation": 0}, "geometry": {"type": "Point", "coordinates": [-72.71522198575018, 41.8140102450514]}}, {"type": "Feature", "properties": {"fill": null, "stroke-width": null, "stroke": null, "type": "A", "name": "35", "orientation": 0}, "geometry": {"type": "Point", "coordinates": [-72.71518661167018, 41.8140102450514]}}, {"type": "Feature", "properties": {"fill": null, "stroke-width": null, "stroke": null, "type": "A", "name": "36", "orientation": 0}, "geometry": {"type": "Point", "coordinates": [-72.71514593147818, 41.8140102450514]}}, {"type": "Feature", "properties": {"fill": null, "stroke-width": null, "stroke": null, "type": "A", "name": "37", "orientation": 0}, "geometry": {"type": "Point", "coordinates": [-72.7151061356382, 41.81393161141939]}}, {"type": "Feature", "properties": {"fill": null, "stroke-width": null, "stroke": null, "type": "A", "name": "38", "orientation": 0}, "geometry": {"type": "Point", "coordinates": [-72.71507076155818, 41.81393161141939]}}, {"type": "Feature", "properties": {"fill": null, "stroke-width": null, "stroke": null, "type": "A", "name": "39", "orientation": 0}, "geometry": {"type": "Point", "coordinates": [-72.71502212219819, 41.81393161141939]}}, {"type": "Feature", "properties": {"fill": null, "stroke-width": null, "stroke": null, "type": "A", "name": "40", "orientation": 0}, "geometry": {"type": "Point", "coordinates": [-72.71497878895018, 41.8139391401714]}}, {"type": "Feature", "properties": {"fill": null, "stroke-width": null, "stroke": null, "type": "A", "name": "41", "orientation": 0}, "geometry": {"type": "Point", "coordinates": [-72.71493722440619, 41.813933284475404]}}, {"type": "Feature", "properties": {"fill": null, "stroke-width": null, "stroke": null, "type": "A", "name": "42", "orientation": 0}, "geometry": {"type": "Point", "coordinates": [-72.71490185032619, 41.813933284475404]}}, {"type": "Feature", "properties": {"fill": null, "stroke-width": null, "stroke": null, "type": "A", "name": "43", "orientation": 0}, "geometry": {"type": "Point", "coordinates": [-72.71486382319019, 41.813933284475404]}}, {"type": "Feature", "properties": {"fill": null, "stroke-width": null, "stroke": null, "type": "A", "name": "44", "orientation": 0}, "geometry": {"type": "Point", "coordinates": [-72.71482225864618, 41.813933284475404]}}, {"type": "Feature", "properties": {"fill": null, "stroke-width": null, "stroke": null, "type": "A", "name": "46", "orientation": 0}, "geometry": {"type": "Point", "coordinates": [-72.71474089826218, 41.8139667455954]}}, {"type": "Feature", "properties": {"fill": null, "stroke-width": null, "stroke": null, "type": "A", "name": "50", "orientation": 0}, "geometry": {"type": "Point", "coordinates": [-72.71457375573418, 41.8140102450514]}}, {"type": "Feature", "properties": {"fill": null, "stroke-width": null, "stroke": null, "type": "A", "name": "51", "orientation": 0}, "geometry": {"type": "Point", "coordinates": [-72.71453219119019, 41.8140102450514]}}, {"type": "Feature", "properties": {"fill": null, "stroke-width": null, "stroke": null, "type": "A", "name": "52", "orientation": 0}, "geometry": {"type": "Point", "coordinates": [-72.71448089877418, 41.8140102450514]}}, {"type": "Feature", "properties": {"fill": null, "stroke-width": null, "stroke": null, "type": "A", "name": "53", "orientation": 0}, "geometry": {"type": "Point", "coordinates": [-72.71441634107818, 41.8140102450514]}}, {"type": "Feature", "properties": {"fill": null, "stroke-width": null, "stroke": null, "type": "A", "name": "59", "orientation": 0}, "geometry": {"type": "Point", "coordinates": [-72.71486293883818, 41.814359077227394]}}, {"type": "Feature", "properties": {"fill": null, "stroke-width": null, "stroke": null, "type": "A", "name": "61", "orientation": 0}, "geometry": {"type": "Point", "coordinates": [-72.71483375522217, 41.8143038663794]}}, {"type": "Feature", "properties": {"fill": null, "stroke-width": null, "stroke": null, "type": "A", "name": "62", "orientation": 0}, "geometry": {"type": "Point", "coordinates": [-72.71480987771817, 41.8143038663794]}}, {"type": "Feature", "properties": {"fill": null, "stroke-width": null, "stroke": null, "type": "A", "name": "63", "orientation": 0}, "geometry": {"type": "Point", "coordinates": [-72.71479926549418, 41.81433398138739]}}, {"type": "Feature", "properties": {"fill": null, "stroke-width": null, "stroke": null, "type": "A", "name": "64", "orientation": 0}, "geometry": {"type": "Point", "coordinates": [-72.71479926549418, 41.8143038663794]}}, {"type": "Feature", "properties": {"fill": null, "stroke-width": null, "stroke": null, "type": "A", "name": "65", "orientation": 0}, "geometry": {"type": "Point", "coordinates": [-72.71463919778219, 41.81430470290739]}}, {"type": "Feature", "properties": {"fill": null, "stroke-width": null, "stroke": null, "type": "A", "name": "66", "orientation": 0}, "geometry": {"type": "Point", "coordinates": [-72.71461708898218, 41.8143038663794]}}, {"type": "Feature", "properties": {"fill": null, "stroke-width": null, "stroke": null, "type": "A", "name": "67", "orientation": 0}, "geometry": {"type": "Point", "coordinates": [-72.71461178287018, 41.814337327499395]}}, {"type": "Feature", "properties": {"fill": null, "stroke-width": null, "stroke": null, "type": "A", "name": "68", "orientation": 0}, "geometry": {"type": "Point", "coordinates": [-72.71461178287018, 41.8143147412434]}}, {"type": "Feature", "properties": {"fill": null, "stroke-width": null, "stroke": null, "type": "A", "name": "69", "orientation": 0}, "geometry": {"type": "Point", "coordinates": [-72.71456049045418, 41.8143038663794]}}, {"type": "Feature", "properties": {"fill": null, "stroke-width": null, "stroke": null, "type": "A", "name": "70", "orientation": 0}, "geometry": {"type": "Point", "coordinates": [-72.71454015035818, 41.8143038663794]}}, {"type": "Feature", "properties": {"fill": null, "stroke-width": null, "stroke": null, "type": "A", "name": "71", "orientation": 0}, "geometry": {"type": "Point", "coordinates": [-72.71451627285418, 41.8143038663794]}}, {"type": "Feature", "properties": {"fill": null, "stroke-width": null, "stroke": null, "type": "A", "name": "BACK WALL", "orientation": 0}, "geometry": {"type": "Point", "coordinates": [-72.71541212143019, 41.81374004650739]}}, {"type": "Feature", "properties": {"fill": null, "stroke-width": null, "stroke": null, "type": "A", "name": "BACK WALL", "orientation": 0}, "geometry": {"type": "Point", "coordinates": [-72.71484878920617, 41.81374004650739]}}, {"type": "Feature", "properties": {"fill": null, "stroke-width": null, "stroke": null, "type": "A", "name": "BACK WALL", "orientation": 0}, "geometry": {"type": "Point", "coordinates": [-72.71437742959019, 41.8137408830354]}}, {"type": "Feature", "properties": {"fill": null, "stroke-width": null, "stroke": null, "type": "A", "name": "GC2", "orientation": 0}, "geometry": {"type": "Point", "coordinates": [-72.71557307349417, 41.814146599115396]}}, {"type": "Feature", "properties": {"fill": null, "stroke-width": null, "stroke": null, "type": "A", "name": "GC3", "orientation": 0}, "geometry": {"type": "Point", "coordinates": [-72.71562878767018, 41.814146599115396]}}, {"type": "Feature", "properties": {"fill": null, "stroke-width": null, "stroke": null, "type": "A", "name": "GC4", "orientation": 0}, "geometry": {"type": "Point", "coordinates": [-72.71568627055018, 41.814146599115396]}}, {"type": "Feature", "properties": {"fill": null, "stroke-width": null, "stroke": null, "type": "A", "name": "GC5", "orientation": 0}, "geometry": {"type": "Point", "coordinates": [-72.71574198472618, 41.814146599115396]}}, {"type": "Feature", "properties": {"fill": null, "stroke-width": null, "stroke": null, "type": "A", "name": "GC6", "orientation": 0}, "geometry": {"type": "Point", "coordinates": [-72.71579946760617, 41.814146599115396]}}, {"type": "Feature", "properties": {"fill": null, "stroke-width": null, "stroke": null, "type": "A", "name": "GC9", "orientation": 0}, "geometry": {"type": "Point", "coordinates": [-72.7155545021022, 41.814354894587396]}}, {"type": "Feature", "properties": {"fill": null, "stroke-width": null, "stroke": null, "type": "A", "name": "GC10", "orientation": 0}, "geometry": {"type": "Point", "coordinates": [-72.71559429794219, 41.814354894587396]}}, {"type": "Feature", "properties": {"fill": null, "stroke-width": null, "stroke": null, "type": "A", "name": "GC11", "orientation": 0}, "geometry": {"type": "Point", "coordinates": [-72.71563232507819, 41.814354894587396]}}, {"type": "Feature", "properties": {"fill": null, "stroke-width": null, "stroke": null, "type": "A", "name": "GC BACK WALL", "orientation": 0}, "geometry": {"type": "Point", "coordinates": [-72.71572518203818, 41.813991841435396]}}, {"type": "Feature", "properties": {"fill": null, "stroke-width": null, "stroke": null, "type": "A", "name": "GC SIDE WALL", "orientation": 0}, "geometry": {"type": "Point", "coordinates": [-72.71551116885418, 41.8142110117714]}}, {"type": "Feature", "properties": {"fill": null, "stroke-width": null, "stroke": null, "type": "A", "name": "GC SIDE WALL", "orientation": 0}, "geometry": {"type": "Point", "coordinates": [-72.71587198447018, 41.814295501099394]}}, {"type": "Feature", "properties": {"fill": null, "stroke-width": null, "stroke": null, "type": "A", "name": "SIDE WALL", "orientation": 0}, "geometry": {"type": "Point", "coordinates": [-72.71434470856619, 41.8141491086994]}}, {"type": "Feature", "properties": {"fill": null, "stroke-width": null, "stroke": null, "type": "A", "name": "SIDE WALL", "orientation": 0}, "geometry": {"type": "Point", "coordinates": [-72.71434293986219, 41.81389480418739]}}, {"type": "Feature", "properties": {"fill": null, "stroke-width": null, "stroke": null, "type": "A", "name": "21", "orientation": 0}, "geometry": {"type": "Point", "coordinates": [-72.71435443643819, 41.8142854627634]}}, {"type": "Feature", "properties": {"fill": null, "stroke-width": null, "stroke": null, "type": "A", "name": "54", "orientation": 0}, "geometry": {"type": "Point", "coordinates": [-72.71435443643819, 41.8140102450514]}}, {"type": "Feature", "properties": {"fill": null, "stroke-width": null, "stroke": null, "type": "A", "name": "72", "orientation": 0}, "geometry": {"type": "Point", "coordinates": [-72.71448974229418, 41.81430470290739]}}, {"type": "Feature", "properties": {"fill": null, "stroke-width": null, "stroke": null, "type": "A", "name": "GC1", "orientation": 0}, "geometry": {"type": "Point", "coordinates": [-72.71551824367018, 41.8141457625874]}}, {"type": "Feature", "properties": {"fill": null, "stroke-width": null, "stroke": null, "type": "A", "name": "GC7", "orientation": 0}, "geometry": {"type": "Point", "coordinates": [-72.71585429743018, 41.814148272171394]}}, {"type": "Feature", "properties": {"fill": null, "stroke-width": null, "stroke": null, "type": "A", "name": "29", "orientation": 0}, "geometry": {"type": "Point", "coordinates": [-72.71523790408618, 41.8140579271474]}}, {"type": "Feature", "properties": {"fill": null, "stroke-width": null, "stroke": null, "type": "A", "name": "GC8", "orientation": 0}, "geometry": {"type": "Point", "coordinates": [-72.71551382191018, 41.81435405805939]}}, {"type": "Feature", "properties": {"fill": null, "stroke-width": null, "stroke": null, "type": "A", "name": "60", "orientation": 0}, "geometry": {"type": "Point", "coordinates": [-72.71486117013417, 41.8143038663794]}}, {"type": "Feature", "properties": {"fill": null, "stroke-width": null, "stroke": null, "type": "A", "name": "58", "orientation": 0}, "geometry": {"type": "Point", "coordinates": [-72.71490980949419, 41.8143038663794]}}, {"type": "Feature", "properties": {"fill": null, "stroke-width": null, "stroke": null, "type": "A", "name": "GC SIDE WALL", "orientation": 0}, "geometry": {"type": "Point", "coordinates": [-72.71551293755817, 41.814092224795395]}}, {"type": "Feature", "properties": {"fill": null, "stroke-width": null, "stroke": null, "type": "A", "name": "GC SIDE WALL", "orientation": 0}, "geometry": {"type": "Point", "coordinates": [-72.71586579400618, 41.8140872056274]}}, {"type": "Feature", "properties": {"fill": null, "stroke-width": null, "stroke": null, "type": "A", "name": "SIDE WALL", "orientation": 0}, "geometry": {"type": "Point", "coordinates": [-72.71547137301417, 41.8141541278674]}}]}