{
  "type": "FeatureCollection",
  "name": "Lowes_depertment_point",
  "crs": {
    "type": "name",
    "properties": {
      "name": "urn:ogc:def:crs:OGC:1.3:CRS84"
    }
  },
  "features": [
    {
      "type": "Feature",
      "properties": {
        "fill": null,
        "name": null,
        "stroke-width": null,
        "stroke": null,
        "opacity": null,
        "type": "P",
        "sub_category": "ServiceDesks",
        "poi_name": "MILLWORK DESK",
        "profile": "STORE SERVICES",
        "icon_id": "millwork_desk",
        "orientation": 0
      },
      "geometry": {
        "type": "Point",
        "coordinates": [
          -72.71567845826486,
          41.81435084689738
        ]
      }
    },
    {
      "type": "Feature",
      "properties": {
        "fill": null,
        "name": null,
        "stroke-width": null,
        "stroke": null,
        "opacity": null,
        "type": "P",
        "sub_category": "EntryExit",
        "poi_name": "MAIN EXIT",
        "profile": "BASIC INFO",
        "icon_id": "entrance_exit",
        "orientation": 0
      },
      "geometry": {
        "type": "Point",
        "coordinates": [
          -72.71529445826486,
          41.81386684689738
        ]
      }
    },
    {
      "type": "Feature",
      "properties": {
        "fill": null,
        "name": null,
        "stroke-width": null,
        "stroke": null,
        "opacity": null,
        "type": "P",
        "sub_category": "EntryExit",
        "poi_name": "PRO ENTRANCE",
        "profile": "BASIC INFO",
        "icon_id": "entrance_exit",
        "orientation": 0
      },
      "geometry": {
        "type": "Point",
        "coordinates": [
          -72.71592445826487,
          41.813832846897384
        ]
      }
    },
    {
      "type": "Feature",
      "properties": {
        "fill": null,
        "name": null,
        "stroke-width": null,
        "stroke": null,
        "opacity": null,
        "type": "P",
        "sub_category": "EntryExit",
        "poi_name": "PRO EXIT",
        "profile": "BASIC INFO",
        "icon_id": "entrance_exit",
        "orientation": 0
      },
      "geometry": {
        "type": "Point",
        "coordinates": [
          -72.71592445826487,
          41.813871846897385
        ]
      }
    },
    {
      "type": "Feature",
      "properties": {
        "fill": null,
        "name": null,
        "stroke-width": null,
        "stroke": null,
        "opacity": null,
        "type": "P",
        "sub_category": "EntryExit",
        "poi_name": "GARDEN CENTER ENTRANCE",
        "profile": "BASIC INFO",
        "icon_id": "entrance_exit",
        "orientation": 0
      },
      "geometry": {
        "type": "Point",
        "coordinates": [
          -72.71440545826486,
          41.81374884689738
        ]
      }
    },
    {
      "type": "Feature",
      "properties": {
        "fill": null,
        "name": null,
        "stroke-width": null,
        "stroke": null,
        "opacity": null,
        "type": "P",
        "sub_category": "EntryExit",
        "poi_name": "GARDEN CENTER EXIT",
        "profile": "BASIC INFO",
        "icon_id": "entrance_exit",
        "orientation": 0
      },
      "geometry": {
        "type": "Point",
        "coordinates": [
          -72.71440545826486,
          41.813817846897386
        ]
      }
    },
    {
      "type": "Feature",
      "properties": {
        "fill": null,
        "name": null,
        "stroke-width": null,
        "stroke": null,
        "opacity": null,
        "type": "P",
        "sub_category": "Restrooms",
        "poi_name": "MEN/WOMEN\u2019S RESTROOMS",
        "profile": "BASIC INFO",
        "icon_id": "restrooms",
        "orientation": 0
      },
      "geometry": {
        "type": "Point",
        "coordinates": [
          -72.71541045826486,
          41.81382784689738
        ]
      }
    },
    {
      "type": "Feature",
      "properties": {
        "fill": null,
        "name": null,
        "stroke-width": null,
        "stroke": null,
        "opacity": null,
        "type": "P",
        "sub_category": "Restrooms",
        "poi_name": "UNISEX",
        "profile": "BASIC INFO",
        "icon_id": "restrooms",
        "orientation": 0
      },
      "geometry": {
        "type": "Point",
        "coordinates": [
          -72.71544045826487,
          41.81382484689738
        ]
      }
    },
    {
      "type": "Feature",
      "properties": {
        "fill": null,
        "name": null,
        "stroke-width": null,
        "stroke": null,
        "opacity": null,
        "type": "P",
        "sub_category": "ServiceDesks",
        "poi_name": "PRO SERVICE DESK",
        "profile": "BASIC INFO",
        "icon_id": "pro_service_desk",
        "orientation": 0
      },
      "geometry": {
        "type": "Point",
        "coordinates": [
          -72.71597645826486,
          41.813924846897386
        ]
      }
    },
    {
      "type": "Feature",
      "properties": {
        "fill": null,
        "name": null,
        "stroke-width": null,
        "stroke": null,
        "opacity": null,
        "type": "P",
        "sub_category": "ServiceDesks",
        "poi_name": "FLOORING DESK",
        "profile": "STORE SERVICES",
        "icon_id": "flooring_desk",
        "orientation": 0
      },
      "geometry": {
        "type": "Point",
        "coordinates": [
          -72.71523945826486,
          41.81432984689739
        ]
      }
    },
    {
      "type": "Feature",
      "properties": {
        "fill": null,
        "name": null,
        "stroke-width": null,
        "stroke": null,
        "opacity": null,
        "type": "P",
        "sub_category": "ServiceDesks",
        "poi_name": "HOME DECOR DESK",
        "profile": "STORE SERVICES",
        "icon_id": "home_d\u00e9cor_desk",
        "orientation": 0
      },
      "geometry": {
        "type": "Point",
        "coordinates": [
          -72.71535645826486,
          41.814372846897385
        ]
      }
    },
    {
      "type": "Feature",
      "properties": {
        "fill": null,
        "name": null,
        "stroke-width": null,
        "stroke": null,
        "opacity": null,
        "type": "P",
        "sub_category": "ServiceDesks",
        "poi_name": "KITCHEN DESIGN DESK",
        "profile": "STORE SERVICES",
        "icon_id": "kitchen_design_desk",
        "orientation": 0
      },
      "geometry": {
        "type": "Point",
        "coordinates": [
          -72.71480645826486,
          41.81450984689739
        ]
      }
    },
    {
      "type": "Feature",
      "properties": {
        "fill": null,
        "name": null,
        "stroke-width": null,
        "stroke": null,
        "opacity": null,
        "type": "P",
        "sub_category": "Checkouts",
        "poi_name": "PRO CHECKOUT",
        "profile": "BASIC INFO",
        "icon_id": "checkouts",
        "orientation": 0
      },
      "geometry": {
        "type": "Point",
        "coordinates": [
          -72.71592445826487,
          41.81391284689738
        ]
      }
    },
    {
      "type": "Feature",
      "properties": {
        "fill": null,
        "name": null,
        "stroke-width": null,
        "stroke": null,
        "opacity": null,
        "type": "P",
        "sub_category": "Checkouts",
        "poi_name": "GARDEN CENTER CHECKOUT",
        "profile": "BASIC INFO",
        "icon_id": "checkouts",
        "orientation": 0
      },
      "geometry": {
        "type": "Point",
        "coordinates": [
          -72.71440545826486,
          41.81389084689739
        ]
      }
    },
    {
      "type": "Feature",
      "properties": {
        "fill": null,
        "name": null,
        "stroke-width": null,
        "stroke": null,
        "opacity": null,
        "type": "P",
        "sub_category": "Services",
        "poi_name": "CHAIN AND ROPE CUTTING",
        "profile": "STORE SERVICES",
        "icon_id": "chain_rope_cutting",
        "orientation": 0
      },
      "geometry": {
        "type": "Point",
        "coordinates": [
          -72.71513645826487,
          41.81406784689739
        ]
      }
    },
    {
      "type": "Feature",
      "properties": {
        "fill": null,
        "name": null,
        "stroke-width": null,
        "stroke": null,
        "opacity": null,
        "type": "P",
        "sub_category": "Services",
        "poi_name": "KEY CUTTING",
        "profile": "STORE SERVICES",
        "icon_id": "key_copying",
        "orientation": 0
      },
      "geometry": {
        "type": "Point",
        "coordinates": [
          -72.71514845826486,
          41.81397984689738
        ]
      }
    },
    {
      "type": "Feature",
      "properties": {
        "fill": null,
        "name": null,
        "stroke-width": null,
        "stroke": null,
        "opacity": null,
        "type": "P",
        "sub_category": "Services",
        "poi_name": "WOOD CUTTING",
        "profile": "STORE SERVICES",
        "icon_id": "wood_cutting",
        "orientation": 0
      },
      "geometry": {
        "type": "Point",
        "coordinates": [
          -72.71596445826486,
          41.814574846897386
        ]
      }
    },
    {
      "type": "Feature",
      "properties": {
        "fill": null,
        "name": null,
        "stroke-width": null,
        "stroke": null,
        "opacity": null,
        "type": "P",
        "sub_category": "Services",
        "poi_name": "BLIND CUTTING",
        "profile": "STORE SERVICES",
        "icon_id": "blind_cutting",
        "orientation": 0
      },
      "geometry": {
        "type": "Point",
        "coordinates": [
          -72.71532245826486,
          41.81441884689738
        ]
      }
    },
    {
      "type": "Feature",
      "properties": {
        "fill": null,
        "name": null,
        "stroke-width": null,
        "stroke": null,
        "opacity": null,
        "type": "P",
        "sub_category": "Services",
        "poi_name": "WIRE CUTTING",
        "profile": "STORE SERVICES",
        "icon_id": "wire_cutting",
        "orientation": 0
      },
      "geometry": {
        "type": "Point",
        "coordinates": [
          -72.71559045826486,
          41.81423984689739
        ]
      }
    },
    {
      "type": "Feature",
      "properties": {
        "fill": null,
        "name": null,
        "stroke-width": null,
        "stroke": null,
        "opacity": null,
        "type": "P",
        "sub_category": "ServiceDesks",
        "poi_name": "APPLIANCE DESK",
        "profile": "STORE SERVICES",
        "icon_id": "appliance_desk",
        "orientation": 0
      },
      "geometry": {
        "type": "Point",
        "coordinates": [
          -72.71494745826486,
          41.81438884689739
        ]
      }
    },
    {
      "type": "Feature",
      "properties": {
        "fill": null,
        "name": null,
        "stroke-width": null,
        "stroke": null,
        "opacity": null,
        "type": "P",
        "sub_category": "Services",
        "poi_name": "CARPET CUTTING",
        "profile": "STORE SERVICES",
        "icon_id": "carpet_cutting",
        "orientation": 0
      },
      "geometry": {
        "type": "Point",
        "coordinates": [
          -72.71512445826487,
          41.814606846897384
        ]
      }
    },
    {
      "type": "Feature",
      "properties": {
        "fill": null,
        "name": null,
        "stroke-width": null,
        "stroke": null,
        "opacity": null,
        "type": "P",
        "sub_category": "EntryExit",
        "poi_name": "MAIN ENTRANCE",
        "profile": "BASIC INFO",
        "icon_id": "entrance_exit",
        "orientation": 0
      },
      "geometry": {
        "type": "Point",
        "coordinates": [
          -72.71502645826486,
          41.813832846897384
        ]
      }
    },
    {
      "type": "Feature",
      "properties": {
        "fill": null,
        "name": null,
        "stroke-width": null,
        "stroke": null,
        "opacity": null,
        "type": "P",
        "sub_category": "ServiceDesks",
        "poi_name": "CUSTOMER SERVICE",
        "profile": "BASIC INFO",
        "icon_id": "customer_service_desk",
        "orientation": 0
      },
      "geometry": {
        "type": "Point",
        "coordinates": [
          -72.71506645826486,
          41.81390384689738
        ]
      }
    },
    {
      "type": "Feature",
      "properties": {
        "fill": null,
        "name": null,
        "stroke-width": null,
        "stroke": null,
        "opacity": null,
        "type": "P",
        "sub_category": "Checkouts",
        "poi_name": "MAIN CHECKOUT",
        "profile": "BASIC INFO",
        "icon_id": "checkouts",
        "orientation": 0
      },
      "geometry": {
        "type": "Point",
        "coordinates": [
          -72.71525645826486,
          41.813941846897386
        ]
      }
    },
    {
      "type": "Feature",
      "properties": {
        "fill": null,
        "name": null,
        "stroke-width": null,
        "stroke": null,
        "opacity": null,
        "type": "P",
        "sub_category": "Services",
        "poi_name": "RETURNS",
        "profile": "BASIC INFO",
        "icon_id": "returns",
        "orientation": 0
      },
      "geometry": {
        "type": "Point",
        "coordinates": [
          -72.71506745826485,
          41.813913846897385
        ]
      }
    },
    {
      "type": "Feature",
      "properties": {
        "fill": null,
        "name": null,
        "stroke-width": null,
        "stroke": null,
        "opacity": null,
        "type": "P",
        "sub_category": "Services",
        "poi_name": "PRODUCT PICK-UP",
        "profile": "BASIC INFO",
        "icon_id": "store_pick_up",
        "orientation": 0
      },
      "geometry": {
        "type": "Point",
        "coordinates": [
          -72.71516345826487,
          41.813860846897384
        ]
      }
    },
    {
      "type": "Feature",
      "properties": {
        "fill": null,
        "name": null,
        "stroke-width": null,
        "stroke": null,
        "opacity": null,
        "type": "P",
        "sub_category": "Services",
        "poi_name": "PICKUP LOCKER",
        "profile": "BASIC INFO",
        "icon_id": "pickup_lockers",
        "orientation": 0
      },
      "geometry": {
        "type": "Point",
        "coordinates": [
          -72.71512745826486,
          41.813860846897384
        ]
      }
    },
    {
      "type": "Feature",
      "properties": {
        "fill": null,
        "name": null,
        "stroke-width": null,
        "stroke": null,
        "opacity": null,
        "type": "P",
        "sub_category": "Checkouts",
        "poi_name": "MAIN SELF-CHECKOUT",
        "profile": "BASIC INFO",
        "icon_id": "checkouts",
        "orientation": 0
      },
      "geometry": {
        "type": "Point",
        "coordinates": [
          -72.71529845826487,
          41.813944846897385
        ]
      }
    },
    {
      "type": "Feature",
      "properties": {
        "fill": null,
        "name": null,
        "stroke-width": null,
        "stroke": null,
        "opacity": null,
        "type": "P",
        "sub_category": "ServiceDesks",
        "poi_name": "CUSTOMER SERVICE",
        "profile": "BASIC INFO",
        "icon_id": "customer_service_desk",
        "orientation": 0
      },
      "geometry": {
        "type": "Point",
        "coordinates": [
          -72.71506645826486,
          41.813896846897386
        ]
      }
    },
    {
      "type": "Feature",
      "properties": {
        "fill": null,
        "name": "LUMBER",
        "stroke-width": null,
        "stroke": null,
        "opacity": null,
        "type": null,
        "sub_category": null,
        "poi_name": null,
        "profile": null,
        "icon_id": null,
        "orientation": 0
      },
      "geometry": {
        "type": "Point",
        "coordinates": [
          -72.71580745826486,
          41.81432684689739
        ]
      }
    },
    {
      "type": "Feature",
      "properties": {
        "fill": null,
        "name": "LUMBER",
        "stroke-width": null,
        "stroke": null,
        "opacity": null,
        "type": null,
        "sub_category": null,
        "poi_name": null,
        "profile": null,
        "icon_id": null,
        "orientation": 0
      },
      "geometry": {
        "type": "Point",
        "coordinates": [
          -72.71584045826486,
          41.81446084689738
        ]
      }
    },
    {
      "type": "Feature",
      "properties": {
        "fill": null,
        "name": "LUMBER",
        "stroke-width": null,
        "stroke": null,
        "opacity": null,
        "type": null,
        "sub_category": null,
        "poi_name": null,
        "profile": null,
        "icon_id": null,
        "orientation": 0
      },
      "geometry": {
        "type": "Point",
        "coordinates": [
          -72.71595345826486,
          41.81442984689738
        ]
      }
    },
    {
      "type": "Feature",
      "properties": {
        "fill": null,
        "name": "LUMBER",
        "stroke-width": null,
        "stroke": null,
        "opacity": null,
        "type": null,
        "sub_category": null,
        "poi_name": null,
        "profile": null,
        "icon_id": null,
        "orientation": 0
      },
      "geometry": {
        "type": "Point",
        "coordinates": [
          -72.71588145826486,
          41.81410684689738
        ]
      }
    },
    {
      "type": "Feature",
      "properties": {
        "fill": null,
        "name": "LUMBER",
        "stroke-width": null,
        "stroke": null,
        "opacity": null,
        "type": null,
        "sub_category": null,
        "poi_name": null,
        "profile": null,
        "icon_id": null,
        "orientation": 0
      },
      "geometry": {
        "type": "Point",
        "coordinates": [
          -72.71598545826487,
          41.81461084689738
        ]
      }
    },
    {
      "type": "Feature",
      "properties": {
        "fill": null,
        "name": "BUILDING MATERIALS",
        "stroke-width": null,
        "stroke": null,
        "opacity": null,
        "type": null,
        "sub_category": null,
        "poi_name": null,
        "profile": null,
        "icon_id": null,
        "orientation": 0
      },
      "geometry": {
        "type": "Point",
        "coordinates": [
          -72.71583545826486,
          41.81434084689739
        ]
      }
    },
    {
      "type": "Feature",
      "properties": {
        "fill": null,
        "name": "BUILDING MATERIALS",
        "stroke-width": null,
        "stroke": null,
        "opacity": null,
        "type": null,
        "sub_category": null,
        "poi_name": null,
        "profile": null,
        "icon_id": null,
        "orientation": 0
      },
      "geometry": {
        "type": "Point",
        "coordinates": [
          -72.71575845826486,
          41.81439384689738
        ]
      }
    },
    {
      "type": "Feature",
      "properties": {
        "fill": null,
        "name": "BUILDING MATERIALS",
        "stroke-width": null,
        "stroke": null,
        "opacity": null,
        "type": null,
        "sub_category": null,
        "poi_name": null,
        "profile": null,
        "icon_id": null,
        "orientation": 0
      },
      "geometry": {
        "type": "Point",
        "coordinates": [
          -72.71580445826486,
          41.81410684689738
        ]
      }
    },
    {
      "type": "Feature",
      "properties": {
        "fill": null,
        "name": "BUILDING MATERIALS",
        "stroke-width": null,
        "stroke": null,
        "opacity": null,
        "type": null,
        "sub_category": null,
        "poi_name": null,
        "profile": null,
        "icon_id": null,
        "orientation": 0
      },
      "geometry": {
        "type": "Point",
        "coordinates": [
          -72.71598045826487,
          41.814245846897386
        ]
      }
    },
    {
      "type": "Feature",
      "properties": {
        "fill": null,
        "name": "MILLWORK",
        "stroke-width": null,
        "stroke": null,
        "opacity": null,
        "type": null,
        "sub_category": null,
        "poi_name": null,
        "profile": null,
        "icon_id": null,
        "orientation": 0
      },
      "geometry": {
        "type": "Point",
        "coordinates": [
          -72.71570845826486,
          41.81446084689738
        ]
      }
    },
    {
      "type": "Feature",
      "properties": {
        "fill": null,
        "name": "LIGHTING",
        "stroke-width": null,
        "stroke": null,
        "opacity": null,
        "type": null,
        "sub_category": null,
        "poi_name": null,
        "profile": null,
        "icon_id": null,
        "orientation": 0
      },
      "geometry": {
        "type": "Point",
        "coordinates": [
          -72.71544145826486,
          41.81410684689738
        ]
      }
    },
    {
      "type": "Feature",
      "properties": {
        "fill": null,
        "name": "ROUGH ELECTRICAL",
        "stroke-width": null,
        "stroke": null,
        "opacity": null,
        "type": null,
        "sub_category": null,
        "poi_name": null,
        "profile": null,
        "icon_id": null,
        "orientation": 0
      },
      "geometry": {
        "type": "Point",
        "coordinates": [
          -72.71557645826486,
          41.81410684689738
        ]
      }
    },
    {
      "type": "Feature",
      "properties": {
        "fill": null,
        "name": "FASHION PLUMBING",
        "stroke-width": null,
        "stroke": null,
        "opacity": null,
        "type": null,
        "sub_category": null,
        "poi_name": null,
        "profile": null,
        "icon_id": null,
        "orientation": 0
      },
      "geometry": {
        "type": "Point",
        "coordinates": [
          -72.71546845826487,
          41.81446084689738
        ]
      }
    },
    {
      "type": "Feature",
      "properties": {
        "fill": null,
        "name": "ROUGH PLUMBING",
        "stroke-width": null,
        "stroke": null,
        "opacity": null,
        "type": null,
        "sub_category": null,
        "poi_name": null,
        "profile": null,
        "icon_id": null,
        "orientation": 0
      },
      "geometry": {
        "type": "Point",
        "coordinates": [
          -72.71568945826486,
          41.81410684689738
        ]
      }
    },
    {
      "type": "Feature",
      "properties": {
        "fill": null,
        "name": "APPLIANCES",
        "stroke-width": null,
        "stroke": null,
        "opacity": null,
        "type": null,
        "sub_category": null,
        "poi_name": null,
        "profile": null,
        "icon_id": null,
        "orientation": 0
      },
      "geometry": {
        "type": "Point",
        "coordinates": [
          -72.71491145826487,
          41.81446184689739
        ]
      }
    },
    {
      "type": "Feature",
      "properties": {
        "fill": null,
        "name": "HARDWARE",
        "stroke-width": null,
        "stroke": null,
        "opacity": null,
        "type": null,
        "sub_category": null,
        "poi_name": null,
        "profile": null,
        "icon_id": null,
        "orientation": 0
      },
      "geometry": {
        "type": "Point",
        "coordinates": [
          -72.71521745826486,
          41.814068846897385
        ]
      }
    },
    {
      "type": "Feature",
      "properties": {
        "fill": null,
        "name": "HARDWARE",
        "stroke-width": null,
        "stroke": null,
        "opacity": null,
        "type": null,
        "sub_category": null,
        "poi_name": null,
        "profile": null,
        "icon_id": null,
        "orientation": 0
      },
      "geometry": {
        "type": "Point",
        "coordinates": [
          -72.71512145826486,
          41.814105846897384
        ]
      }
    },
    {
      "type": "Feature",
      "properties": {
        "fill": null,
        "name": "PAINT",
        "stroke-width": null,
        "stroke": null,
        "opacity": null,
        "type": null,
        "sub_category": null,
        "poi_name": null,
        "profile": null,
        "icon_id": null,
        "orientation": 0
      },
      "geometry": {
        "type": "Point",
        "coordinates": [
          -72.71527845826486,
          41.814102846897384
        ]
      }
    },
    {
      "type": "Feature",
      "properties": {
        "fill": null,
        "name": "TOOLS",
        "stroke-width": null,
        "stroke": null,
        "opacity": null,
        "type": null,
        "sub_category": null,
        "poi_name": null,
        "profile": null,
        "icon_id": null,
        "orientation": 0
      },
      "geometry": {
        "type": "Point",
        "coordinates": [
          -72.71519645826486,
          41.81403084689738
        ]
      }
    },
    {
      "type": "Feature",
      "properties": {
        "fill": null,
        "name": "TOOLS",
        "stroke-width": null,
        "stroke": null,
        "opacity": null,
        "type": null,
        "sub_category": null,
        "poi_name": null,
        "profile": null,
        "icon_id": null,
        "orientation": 0
      },
      "geometry": {
        "type": "Point",
        "coordinates": [
          -72.71577145826487,
          41.814006846897385
        ]
      }
    },
    {
      "type": "Feature",
      "properties": {
        "fill": null,
        "name": "TOOLS",
        "stroke-width": null,
        "stroke": null,
        "opacity": null,
        "type": null,
        "sub_category": null,
        "poi_name": null,
        "profile": null,
        "icon_id": null,
        "orientation": 0
      },
      "geometry": {
        "type": "Point",
        "coordinates": [
          -72.71562845826486,
          41.81388984689738
        ]
      }
    },
    {
      "type": "Feature",
      "properties": {
        "fill": null,
        "name": "OUTDOOR POWER EQUIPMENT",
        "stroke-width": null,
        "stroke": null,
        "opacity": null,
        "type": null,
        "sub_category": null,
        "poi_name": null,
        "profile": null,
        "icon_id": null,
        "orientation": 0
      },
      "geometry": {
        "type": "Point",
        "coordinates": [
          -72.71487545826486,
          41.81415784689739
        ]
      }
    },
    {
      "type": "Feature",
      "properties": {
        "fill": null,
        "name": "FLOORING",
        "stroke-width": null,
        "stroke": null,
        "opacity": null,
        "type": null,
        "sub_category": null,
        "poi_name": null,
        "profile": null,
        "icon_id": null,
        "orientation": 0
      },
      "geometry": {
        "type": "Point",
        "coordinates": [
          -72.71521645826486,
          41.81446084689738
        ]
      }
    },
    {
      "type": "Feature",
      "properties": {
        "fill": null,
        "name": "CABINETS",
        "stroke-width": null,
        "stroke": null,
        "opacity": null,
        "type": null,
        "sub_category": null,
        "poi_name": null,
        "profile": null,
        "icon_id": null,
        "orientation": 0
      },
      "geometry": {
        "type": "Point",
        "coordinates": [
          -72.71472545826487,
          41.81443284689738
        ]
      }
    },
    {
      "type": "Feature",
      "properties": {
        "fill": null,
        "name": "CABINETS",
        "stroke-width": null,
        "stroke": null,
        "opacity": null,
        "type": null,
        "sub_category": null,
        "poi_name": null,
        "profile": null,
        "icon_id": null,
        "orientation": 0
      },
      "geometry": {
        "type": "Point",
        "coordinates": [
          -72.71479845826487,
          41.81446184689739
        ]
      }
    },
    {
      "type": "Feature",
      "properties": {
        "fill": null,
        "name": "CLEANING",
        "stroke-width": null,
        "stroke": null,
        "opacity": null,
        "type": null,
        "sub_category": null,
        "poi_name": null,
        "profile": null,
        "icon_id": null,
        "orientation": 0
      },
      "geometry": {
        "type": "Point",
        "coordinates": [
          -72.71504745826486,
          41.814105846897384
        ]
      }
    },
    {
      "type": "Feature",
      "properties": {
        "fill": null,
        "name": "CLEANING",
        "stroke-width": null,
        "stroke": null,
        "opacity": null,
        "type": null,
        "sub_category": null,
        "poi_name": null,
        "profile": null,
        "icon_id": null,
        "orientation": 0
      },
      "geometry": {
        "type": "Point",
        "coordinates": [
          -72.71485745826486,
          41.81423384689739
        ]
      }
    },
    {
      "type": "Feature",
      "properties": {
        "fill": null,
        "name": "HOME DECOR",
        "stroke-width": null,
        "stroke": null,
        "opacity": null,
        "type": null,
        "sub_category": null,
        "poi_name": null,
        "profile": null,
        "icon_id": null,
        "orientation": 0
      },
      "geometry": {
        "type": "Point",
        "coordinates": [
          -72.71533045826486,
          41.81443584689738
        ]
      }
    },
    {
      "type": "Feature",
      "properties": {
        "fill": null,
        "name": "HOME DECOR",
        "stroke-width": null,
        "stroke": null,
        "opacity": null,
        "type": null,
        "sub_category": null,
        "poi_name": null,
        "profile": null,
        "icon_id": null,
        "orientation": 0
      },
      "geometry": {
        "type": "Point",
        "coordinates": [
          -72.71537245826487,
          41.814617846897384
        ]
      }
    },
    {
      "type": "Feature",
      "properties": {
        "fill": null,
        "name": "INSIDE LAWN AND GARDEN",
        "stroke-width": null,
        "stroke": null,
        "opacity": null,
        "type": null,
        "sub_category": null,
        "poi_name": null,
        "profile": null,
        "icon_id": null,
        "orientation": 0
      },
      "geometry": {
        "type": "Point",
        "coordinates": [
          -72.71480145826486,
          41.81388484689739
        ]
      }
    },
    {
      "type": "Feature",
      "properties": {
        "fill": null,
        "name": "INSIDE LAWN AND GARDEN",
        "stroke-width": null,
        "stroke": null,
        "opacity": null,
        "type": null,
        "sub_category": null,
        "poi_name": null,
        "profile": null,
        "icon_id": null,
        "orientation": 0
      },
      "geometry": {
        "type": "Point",
        "coordinates": [
          -72.71459545826487,
          41.814186846897385
        ]
      }
    },
    {
      "type": "Feature",
      "properties": {
        "fill": null,
        "name": "INSIDE LAWN AND GARDEN",
        "stroke-width": null,
        "stroke": null,
        "opacity": null,
        "type": null,
        "sub_category": null,
        "poi_name": null,
        "profile": null,
        "icon_id": null,
        "orientation": 0
      },
      "geometry": {
        "type": "Point",
        "coordinates": [
          -72.71469445826486,
          41.814034846897385
        ]
      }
    },
    {
      "type": "Feature",
      "properties": {
        "fill": null,
        "name": "INSIDE LAWN AND GARDEN",
        "stroke-width": null,
        "stroke": null,
        "opacity": null,
        "type": null,
        "sub_category": null,
        "poi_name": null,
        "profile": null,
        "icon_id": null,
        "orientation": 0
      },
      "geometry": {
        "type": "Point",
        "coordinates": [
          -72.71486945826486,
          41.814257846897384
        ]
      }
    },
    {
      "type": "Feature",
      "properties": {
        "fill": null,
        "name": "INSIDE LAWN AND GARDEN",
        "stroke-width": null,
        "stroke": null,
        "opacity": null,
        "type": null,
        "sub_category": null,
        "poi_name": null,
        "profile": null,
        "icon_id": null,
        "orientation": 0
      },
      "geometry": {
        "type": "Point",
        "coordinates": [
          -72.71486345826486,
          41.81410084689738
        ]
      }
    },
    {
      "type": "Feature",
      "properties": {
        "fill": null,
        "name": "INSIDE LAWN AND GARDEN",
        "stroke-width": null,
        "stroke": null,
        "opacity": null,
        "type": null,
        "sub_category": null,
        "poi_name": null,
        "profile": null,
        "icon_id": null,
        "orientation": 0
      },
      "geometry": {
        "type": "Point",
        "coordinates": [
          -72.71490745826486,
          41.814212846897384
        ]
      }
    },
    {
      "type": "Feature",
      "properties": {
        "fill": null,
        "name": "OUTSIDE LAWN AND GARDEN",
        "stroke-width": null,
        "stroke": null,
        "opacity": null,
        "type": null,
        "sub_category": null,
        "poi_name": null,
        "profile": null,
        "icon_id": null,
        "orientation": 0
      },
      "geometry": {
        "type": "Point",
        "coordinates": [
          -72.71456845826486,
          41.813840846897385
        ]
      }
    },
    {
      "type": "Feature",
      "properties": {
        "fill": null,
        "name": "OUTSIDE LAWN AND GARDEN",
        "stroke-width": null,
        "stroke": null,
        "opacity": null,
        "type": null,
        "sub_category": null,
        "poi_name": null,
        "profile": null,
        "icon_id": null,
        "orientation": 0
      },
      "geometry": {
        "type": "Point",
        "coordinates": [
          -72.71448245826487,
          41.81431584689739
        ]
      }
    },
    {
      "type": "Feature",
      "properties": {
        "fill": null,
        "name": "OUTSIDE LAWN AND GARDEN",
        "stroke-width": null,
        "stroke": null,
        "opacity": null,
        "type": null,
        "sub_category": null,
        "poi_name": null,
        "profile": null,
        "icon_id": null,
        "orientation": 0
      },
      "geometry": {
        "type": "Point",
        "coordinates": [
          -72.71450945826486,
          41.81419484689739
        ]
      }
    },
    {
      "type": "Feature",
      "properties": {
        "fill": null,
        "name": "OUTSIDE LAWN AND GARDEN",
        "stroke-width": null,
        "stroke": null,
        "opacity": null,
        "type": null,
        "sub_category": null,
        "poi_name": null,
        "profile": null,
        "icon_id": null,
        "orientation": 0
      },
      "geometry": {
        "type": "Point",
        "coordinates": [
          -72.71426945826487,
          41.814195846897384
        ]
      }
    },
    {
      "type": "Feature",
      "properties": {
        "fill": null,
        "name": "OUTSIDE LAWN AND GARDEN",
        "stroke-width": null,
        "stroke": null,
        "opacity": null,
        "type": null,
        "sub_category": null,
        "poi_name": null,
        "profile": null,
        "icon_id": null,
        "orientation": 0
      },
      "geometry": {
        "type": "Point",
        "coordinates": [
          -72.71446745826486,
          41.81394384689738
        ]
      }
    },
    {
      "type": "Feature",
      "properties": {
        "fill": null,
        "name": "STORAGE",
        "stroke-width": null,
        "stroke": null,
        "opacity": null,
        "type": null,
        "sub_category": null,
        "poi_name": null,
        "profile": null,
        "icon_id": null,
        "orientation": 0
      },
      "geometry": {
        "type": "Point",
        "coordinates": [
          -72.71505945826486,
          41.81446084689738
        ]
      }
    },
    {
      "type": "Feature",
      "properties": {
        "fill": null,
        "name": "STORAGE",
        "stroke-width": null,
        "stroke": null,
        "opacity": null,
        "type": null,
        "sub_category": null,
        "poi_name": null,
        "profile": null,
        "icon_id": null,
        "orientation": 0
      },
      "geometry": {
        "type": "Point",
        "coordinates": [
          -72.71519645826486,
          41.814169846897386
        ]
      }
    },
    {
      "type": "Feature",
      "properties": {
        "fill": null,
        "name": "GARDEN CENTER",
        "stroke-width": null,
        "stroke": null,
        "opacity": null,
        "type": null,
        "sub_category": null,
        "poi_name": null,
        "profile": null,
        "icon_id": null,
        "orientation": 0
      },
      "geometry": {
        "type": "Point",
        "coordinates": [
          -72.71448245826487,
          41.814065846897385
        ]
      }
    }
  ]
}
