{
  "type": "FeatureCollection",
  "features": [
    {
      "type": "Feature",
      "geometry": {
        "type": "MultiPolygon",
        "coordinates": [
          [
            [
              [
                -76.985743,
                39.827006
              ],
              [
                -76.985718,
                39.827006
              ],
              [
                -76.985718,
                39.82705
              ],
              [
                -76.985743,
                39.82705
              ],
              [
                -76.985743,
                39.827006
              ]
            ]
          ],
          [
            [
              [
                -76.985594,
                39.8271
              ],
              [
                -76.985516,
                39.8271
              ],
              [
                -76.985516,
                39.827085
              ],
              [
                -76.985501,
                39.827085
              ],
              [
                -76.985501,
                39.827076
              ],
              [
                -76.985477,
                39.827076
              ],
              [
                -76.985477,
                39.826834
              ],
              [
                -76.985504,
                39.826834
              ],
              [
                -76.985504,
                39.82699
              ],
              [
                -76.985539,
                39.82699
              ],
              [
                -76.985539,
                39.826877
              ],
              [
                -76.985573,
                39.826877
              ],
              [
                -76.985573,
                39.82705
              ],
              [
                -76.985597,
                39.82705
              ],
              [
                -76.985597,
                39.827074
              ],
              [
                -76.985594,
                39.827074
              ],
              [
                -76.985594,
                39.8271
              ]
            ]
          ],
          [
            [
              [
                -76.985504,
                39.826799
              ],
              [
                -76.985504,
                39.826686
              ],
              [
                -76.985477,
                39.826686
              ],
              [
                -76.985477,
                39.826572
              ],
              [
                -76.985545,
                39.826572
              ],
              [
                -76.985545,
                39.826799
              ],
              [
                -76.985504,
                39.826799
              ]
            ]
          ],
          [
            [
              [
                -76.985419,
                39.82679
              ],
              [
                -76.985447,
                39.82679
              ],
              [
                -76.985447,
                39.826637
              ],
              [
                -76.985457,
                39.826637
              ],
              [
                -76.985457,
                39.826563
              ],
              [
                -76.985386,
                39.826563
              ],
              [
                -76.985386,
                39.826575
              ],
              [
                -76.985419,
                39.826575
              ],
              [
                -76.985419,
                39.82679
              ]
            ]
          ],
          [
            [
              [
                -76.985419,
                39.826835
              ],
              [
                -76.985419,
                39.827038
              ],
              [
                -76.985386,
                39.827038
              ],
              [
                -76.985386,
                39.827087
              ],
              [
                -76.985382,
                39.827087
              ],
              [
                -76.985382,
                39.827089
              ],
              [
                -76.985352,
                39.827089
              ],
              [
                -76.985352,
                39.8271
              ],
              [
                -76.985427,
                39.8271
              ],
              [
                -76.985427,
                39.827076
              ],
              [
                -76.985447,
                39.827076
              ],
              [
                -76.985447,
                39.826835
              ],
              [
                -76.985419,
                39.826835
              ]
            ]
          ],
          [
            [
              [
                -76.985718,
                39.8269
              ],
              [
                -76.985694,
                39.8269
              ],
              [
                -76.985694,
                39.826911
              ],
              [
                -76.985669,
                39.826911
              ],
              [
                -76.985669,
                39.82705
              ],
              [
                -76.985694,
                39.82705
              ],
              [
                -76.985718,
                39.82705
              ],
              [
                -76.985718,
                39.8269
              ]
            ]
          ],
          [
            [
              [
                -76.985803,
                39.8271
              ],
              [
                -76.985803,
                39.827074
              ],
              [
                -76.985594,
                39.827074
              ],
              [
                -76.985594,
                39.8271
              ],
              [
                -76.985803,
                39.8271
              ]
            ]
          ],
          [
            [
              [
                -76.985539,
                39.826834
              ],
              [
                -76.985504,
                39.826834
              ],
              [
                -76.985504,
                39.82699
              ],
              [
                -76.985539,
                39.82699
              ],
              [
                -76.985539,
                39.826834
              ]
            ]
          ],
          [
            [
              [
                -76.985352,
                39.827089
              ],
              [
                -76.985382,
                39.827089
              ],
              [
                -76.985382,
                39.827087
              ],
              [
                -76.985386,
                39.827087
              ],
              [
                -76.985386,
                39.827038
              ],
              [
                -76.985419,
                39.827038
              ],
              [
                -76.985419,
                39.826835
              ],
              [
                -76.985386,
                39.826835
              ],
              [
                -76.985386,
                39.82679
              ],
              [
                -76.985419,
                39.82679
              ],
              [
                -76.985419,
                39.826575
              ],
              [
                -76.985386,
                39.826575
              ],
              [
                -76.985386,
                39.826517
              ],
              [
                -76.985352,
                39.826517
              ],
              [
                -76.985352,
                39.827089
              ]
            ]
          ],
          [
            [
              [
                -76.985586,
                39.82679
              ],
              [
                -76.985586,
                39.826568
              ],
              [
                -76.985545,
                39.826568
              ],
              [
                -76.985545,
                39.826562
              ],
              [
                -76.985477,
                39.826562
              ],
              [
                -76.985477,
                39.826572
              ],
              [
                -76.985545,
                39.826572
              ],
              [
                -76.985545,
                39.82679
              ],
              [
                -76.985586,
                39.82679
              ]
            ]
          ],
          [
            [
              [
                -76.985639,
                39.826568
              ],
              [
                -76.985664,
                39.826568
              ],
              [
                -76.985664,
                39.826771
              ],
              [
                -76.985639,
                39.826771
              ],
              [
                -76.985639,
                39.826568
              ]
            ]
          ],
          [
            [
              [
                -76.985504,
                39.826686
              ],
              [
                -76.985477,
                39.826686
              ],
              [
                -76.985477,
                39.826799
              ],
              [
                -76.985504,
                39.826799
              ],
              [
                -76.985504,
                39.826686
              ]
            ]
          ],
          [
            [
              [
                -76.985586,
                39.82679
              ],
              [
                -76.985545,
                39.82679
              ],
              [
                -76.985545,
                39.826799
              ],
              [
                -76.985612,
                39.826799
              ],
              [
                -76.985612,
                39.826793
              ],
              [
                -76.985639,
                39.826793
              ],
              [
                -76.985639,
                39.826568
              ],
              [
                -76.985586,
                39.826568
              ],
              [
                -76.985586,
                39.82679
              ]
            ]
          ],
          [
            [
              [
                -76.985539,
                39.826834
              ],
              [
                -76.985539,
                39.826826
              ],
              [
                -76.985694,
                39.826826
              ],
              [
                -76.985694,
                39.826834
              ],
              [
                -76.985743,
                39.826834
              ],
              [
                -76.985743,
                39.826836
              ],
              [
                -76.985817,
                39.826836
              ],
              [
                -76.985817,
                39.82705
              ],
              [
                -76.985792,
                39.82705
              ],
              [
                -76.985792,
                39.827074
              ],
              [
                -76.985597,
                39.827074
              ],
              [
                -76.985597,
                39.82705
              ],
              [
                -76.985573,
                39.82705
              ],
              [
                -76.985573,
                39.826877
              ],
              [
                -76.985539,
                39.826877
              ],
              [
                -76.985539,
                39.826834
              ]
            ]
          ],
          [
            [
              [
                -76.985908,
                39.826794
              ],
              [
                -76.985931,
                39.826794
              ],
              [
                -76.985931,
                39.82676
              ],
              [
                -76.985955,
                39.82676
              ],
              [
                -76.985955,
                39.826761
              ],
              [
                -76.985979,
                39.826761
              ],
              [
                -76.985979,
                39.826792
              ],
              [
                -76.986026,
                39.826792
              ],
              [
                -76.986026,
                39.826793
              ],
              [
                -76.986073,
                39.826793
              ],
              [
                -76.986073,
                39.826751
              ],
              [
                -76.986098,
                39.826751
              ],
              [
                -76.986098,
                39.826568
              ],
              [
                -76.986026,
                39.826568
              ],
              [
                -76.986026,
                39.826572
              ],
              [
                -76.985931,
                39.826572
              ],
              [
                -76.985931,
                39.826568
              ],
              [
                -76.985908,
                39.826568
              ],
              [
                -76.985908,
                39.826794
              ]
            ]
          ],
          [
            [
              [
                -76.985908,
                39.826794
              ],
              [
                -76.985908,
                39.826568
              ],
              [
                -76.985816,
                39.826568
              ],
              [
                -76.985816,
                39.826794
              ],
              [
                -76.98584,
                39.826794
              ],
              [
                -76.98584,
                39.826795
              ],
              [
                -76.985884,
                39.826795
              ],
              [
                -76.985884,
                39.826794
              ],
              [
                -76.985908,
                39.826794
              ]
            ]
          ],
          [
            [
              [
                -76.986754,
                39.826947
              ],
              [
                -76.986728,
                39.826947
              ],
              [
                -76.986728,
                39.82683
              ],
              [
                -76.986754,
                39.82683
              ],
              [
                -76.986754,
                39.826947
              ]
            ]
          ],
          [
            [
              [
                -76.986701,
                39.826817
              ],
              [
                -76.986701,
                39.826988
              ],
              [
                -76.986429,
                39.826988
              ],
              [
                -76.986429,
                39.826934
              ],
              [
                -76.986422,
                39.826934
              ],
              [
                -76.986422,
                39.826826
              ],
              [
                -76.986422,
                39.826817
              ],
              [
                -76.986701,
                39.826817
              ]
            ]
          ],
          [
            [
              [
                -76.986728,
                39.826947
              ],
              [
                -76.986754,
                39.826947
              ],
              [
                -76.986754,
                39.827073
              ],
              [
                -76.986728,
                39.827073
              ],
              [
                -76.986728,
                39.826947
              ]
            ]
          ],
          [
            [
              [
                -76.986754,
                39.827085
              ],
              [
                -76.986754,
                39.8271
              ],
              [
                -76.98661,
                39.8271
              ],
              [
                -76.98661,
                39.82708
              ],
              [
                -76.986735,
                39.82708
              ],
              [
                -76.986735,
                39.827085
              ],
              [
                -76.986754,
                39.827085
              ]
            ]
          ],
          [
            [
              [
                -76.986384,
                39.8271
              ],
              [
                -76.986384,
                39.827079
              ],
              [
                -76.986429,
                39.827079
              ],
              [
                -76.986429,
                39.826988
              ],
              [
                -76.986701,
                39.826988
              ],
              [
                -76.986701,
                39.827069
              ],
              [
                -76.986608,
                39.827069
              ],
              [
                -76.986608,
                39.827071
              ],
              [
                -76.986573,
                39.827071
              ],
              [
                -76.986573,
                39.8271
              ],
              [
                -76.986384,
                39.8271
              ]
            ]
          ],
          [
            [
              [
                -76.98666,
                39.826788
              ],
              [
                -76.98666,
                39.826806
              ],
              [
                -76.986723,
                39.826806
              ],
              [
                -76.986723,
                39.826796
              ],
              [
                -76.98673,
                39.826796
              ],
              [
                -76.98673,
                39.826788
              ],
              [
                -76.98666,
                39.826788
              ]
            ]
          ],
          [
            [
              [
                -76.986384,
                39.8271
              ],
              [
                -76.986384,
                39.827079
              ],
              [
                -76.986422,
                39.827079
              ],
              [
                -76.986422,
                39.826826
              ],
              [
                -76.986251,
                39.826826
              ],
              [
                -76.986251,
                39.82689
              ],
              [
                -76.98631,
                39.82689
              ],
              [
                -76.98631,
                39.826945
              ],
              [
                -76.986274,
                39.826945
              ],
              [
                -76.986274,
                39.827045
              ],
              [
                -76.986303,
                39.827045
              ],
              [
                -76.986303,
                39.827079
              ],
              [
                -76.98629,
                39.827079
              ],
              [
                -76.98629,
                39.82706
              ],
              [
                -76.986158,
                39.82706
              ],
              [
                -76.986158,
                39.827079
              ],
              [
                -76.986142,
                39.827079
              ],
              [
                -76.986142,
                39.8271
              ],
              [
                -76.986384,
                39.8271
              ]
            ]
          ],
          [
            [
              [
                -76.986183,
                39.826833
              ],
              [
                -76.986183,
                39.826884
              ],
              [
                -76.986134,
                39.826884
              ],
              [
                -76.986134,
                39.826917
              ],
              [
                -76.986109,
                39.826917
              ],
              [
                -76.986109,
                39.826835
              ],
              [
                -76.986134,
                39.826835
              ],
              [
                -76.986134,
                39.826833
              ],
              [
                -76.986183,
                39.826833
              ]
            ]
          ],
          [
            [
              [
                -76.985884,
                39.826731
              ],
              [
                -76.98586,
                39.826731
              ],
              [
                -76.98586,
                39.826773
              ],
              [
                -76.985884,
                39.826773
              ],
              [
                -76.985884,
                39.826731
              ]
            ]
          ],
          [
            [
              [
                -76.985816,
                39.826794
              ],
              [
                -76.985816,
                39.826568
              ],
              [
                -76.985688,
                39.826568
              ],
              [
                -76.985688,
                39.82667
              ],
              [
                -76.985664,
                39.82667
              ],
              [
                -76.985664,
                39.826771
              ],
              [
                -76.985639,
                39.826771
              ],
              [
                -76.985639,
                39.826793
              ],
              [
                -76.985665,
                39.826793
              ],
              [
                -76.985665,
                39.826792
              ],
              [
                -76.985754,
                39.826792
              ],
              [
                -76.985754,
                39.826731
              ],
              [
                -76.985775,
                39.826731
              ],
              [
                -76.985775,
                39.826793
              ],
              [
                -76.985797,
                39.826793
              ],
              [
                -76.985797,
                39.826794
              ],
              [
                -76.985816,
                39.826794
              ]
            ]
          ],
          [
            [
              [
                -76.986206,
                39.826793
              ],
              [
                -76.98636,
                39.826793
              ],
              [
                -76.98636,
                39.826568
              ],
              [
                -76.986338,
                39.826568
              ],
              [
                -76.986338,
                39.826562
              ],
              [
                -76.986246,
                39.826562
              ],
              [
                -76.986246,
                39.826568
              ],
              [
                -76.986226,
                39.826568
              ],
              [
                -76.986226,
                39.826731
              ],
              [
                -76.986206,
                39.826731
              ],
              [
                -76.986206,
                39.826793
              ]
            ]
          ],
          [
            [
              [
                -76.985775,
                39.826731
              ],
              [
                -76.985754,
                39.826731
              ],
              [
                -76.985754,
                39.826793
              ],
              [
                -76.985775,
                39.826793
              ],
              [
                -76.985775,
                39.826731
              ]
            ]
          ],
          [
            [
              [
                -76.985688,
                39.826568
              ],
              [
                -76.985664,
                39.826568
              ],
              [
                -76.985664,
                39.82667
              ],
              [
                -76.985688,
                39.82667
              ],
              [
                -76.985688,
                39.826568
              ]
            ]
          ],
          [
            [
              [
                -76.985544,
                39.826537
              ],
              [
                -76.985544,
                39.826524
              ],
              [
                -76.985557,
                39.826524
              ],
              [
                -76.985557,
                39.826476
              ],
              [
                -76.985666,
                39.826476
              ],
              [
                -76.985666,
                39.826489
              ],
              [
                -76.985682,
                39.826489
              ],
              [
                -76.985682,
                39.826476
              ],
              [
                -76.986005,
                39.826476
              ],
              [
                -76.986005,
                39.826492
              ],
              [
                -76.986001,
                39.826492
              ],
              [
                -76.986001,
                39.826537
              ],
              [
                -76.98569,
                39.826537
              ],
              [
                -76.98569,
                39.826532
              ],
              [
                -76.98564,
                39.826532
              ],
              [
                -76.98564,
                39.826537
              ],
              [
                -76.985544,
                39.826537
              ]
            ]
          ],
          [
            [
              [
                -76.986706,
                39.826751
              ],
              [
                -76.986653,
                39.826751
              ],
              [
                -76.986653,
                39.826769
              ],
              [
                -76.986627,
                39.826769
              ],
              [
                -76.986627,
                39.826751
              ],
              [
                -76.986445,
                39.826751
              ],
              [
                -76.986445,
                39.826733
              ],
              [
                -76.986416,
                39.826733
              ],
              [
                -76.986416,
                39.826727
              ],
              [
                -76.98641,
                39.826727
              ],
              [
                -76.98641,
                39.826694
              ],
              [
                -76.986537,
                39.826694
              ],
              [
                -76.986537,
                39.826733
              ],
              [
                -76.986548,
                39.826733
              ],
              [
                -76.986548,
                39.826678
              ],
              [
                -76.986706,
                39.826678
              ],
              [
                -76.986706,
                39.826751
              ]
            ]
          ],
          [
            [
              [
                -76.98602,
                39.826847
              ],
              [
                -76.98604,
                39.826847
              ],
              [
                -76.98604,
                39.826826
              ],
              [
                -76.985842,
                39.826826
              ],
              [
                -76.985842,
                39.826835
              ],
              [
                -76.985817,
                39.826835
              ],
              [
                -76.985817,
                39.82705
              ],
              [
                -76.985792,
                39.82705
              ],
              [
                -76.985792,
                39.827074
              ],
              [
                -76.985803,
                39.827074
              ],
              [
                -76.985803,
                39.827085
              ],
              [
                -76.985818,
                39.827085
              ],
              [
                -76.985818,
                39.8271
              ],
              [
                -76.986012,
                39.8271
              ],
              [
                -76.986012,
                39.827079
              ],
              [
                -76.986086,
                39.827079
              ],
              [
                -76.986086,
                39.827059
              ],
              [
                -76.98604,
                39.827059
              ],
              [
                -76.98604,
                39.827064
              ],
              [
                -76.98602,
                39.827064
              ],
              [
                -76.98602,
                39.826847
              ]
            ]
          ],
          [
            [
              [
                -76.986158,
                39.827079
              ],
              [
                -76.986158,
                39.82706
              ],
              [
                -76.98629,
                39.82706
              ],
              [
                -76.98629,
                39.827079
              ],
              [
                -76.986303,
                39.827079
              ],
              [
                -76.986303,
                39.827045
              ],
              [
                -76.986274,
                39.827045
              ],
              [
                -76.986274,
                39.826945
              ],
              [
                -76.98631,
                39.826945
              ],
              [
                -76.98631,
                39.82689
              ],
              [
                -76.986251,
                39.82689
              ],
              [
                -76.986251,
                39.826826
              ],
              [
                -76.986183,
                39.826826
              ],
              [
                -76.986183,
                39.826884
              ],
              [
                -76.986134,
                39.826884
              ],
              [
                -76.986134,
                39.826917
              ],
              [
                -76.986109,
                39.826917
              ],
              [
                -76.986109,
                39.827059
              ],
              [
                -76.986086,
                39.827059
              ],
              [
                -76.986086,
                39.827079
              ],
              [
                -76.986012,
                39.827079
              ],
              [
                -76.986012,
                39.8271
              ],
              [
                -76.986142,
                39.8271
              ],
              [
                -76.986142,
                39.827079
              ],
              [
                -76.986158,
                39.827079
              ]
            ]
          ],
          [
            [
              [
                -76.986757,
                39.826878
              ],
              [
                -76.986792,
                39.826878
              ],
              [
                -76.986792,
                39.826941
              ],
              [
                -76.986757,
                39.826941
              ],
              [
                -76.986757,
                39.826878
              ]
            ]
          ],
          [
            [
              [
                -76.98666,
                39.826769
              ],
              [
                -76.986427,
                39.826769
              ],
              [
                -76.986427,
                39.826788
              ],
              [
                -76.98666,
                39.826788
              ],
              [
                -76.98666,
                39.826769
              ]
            ]
          ],
          [
            [
              [
                -76.98636,
                39.826793
              ],
              [
                -76.986385,
                39.826793
              ],
              [
                -76.986385,
                39.826568
              ],
              [
                -76.98636,
                39.826568
              ],
              [
                -76.98636,
                39.826793
              ]
            ]
          ],
          [
            [
              [
                -76.986226,
                39.826568
              ],
              [
                -76.986206,
                39.826568
              ],
              [
                -76.986206,
                39.82665
              ],
              [
                -76.986226,
                39.82665
              ],
              [
                -76.986226,
                39.826568
              ]
            ]
          ],
          [
            [
              [
                -76.986182,
                39.826568
              ],
              [
                -76.986182,
                39.826751
              ],
              [
                -76.986206,
                39.826751
              ],
              [
                -76.986206,
                39.826799
              ],
              [
                -76.986073,
                39.826799
              ],
              [
                -76.986073,
                39.826751
              ],
              [
                -76.986098,
                39.826751
              ],
              [
                -76.986098,
                39.826568
              ],
              [
                -76.986182,
                39.826568
              ]
            ]
          ],
          [
            [
              [
                -76.985895,
                39.826933
              ],
              [
                -76.985868,
                39.826933
              ],
              [
                -76.985868,
                39.827039
              ],
              [
                -76.985843,
                39.827039
              ],
              [
                -76.985843,
                39.827072
              ],
              [
                -76.985895,
                39.827072
              ],
              [
                -76.985996,
                39.827072
              ],
              [
                -76.985996,
                39.827061
              ],
              [
                -76.985923,
                39.827061
              ],
              [
                -76.985923,
                39.827018
              ],
              [
                -76.985895,
                39.827018
              ],
              [
                -76.985895,
                39.826933
              ]
            ]
          ],
          [
            [
              [
                -76.986754,
                39.826557
              ],
              [
                -76.986754,
                39.826796
              ],
              [
                -76.98673,
                39.826796
              ],
              [
                -76.98673,
                39.826788
              ],
              [
                -76.986661,
                39.826788
              ],
              [
                -76.986661,
                39.826769
              ],
              [
                -76.986445,
                39.826769
              ],
              [
                -76.986445,
                39.826751
              ],
              [
                -76.986706,
                39.826751
              ],
              [
                -76.986706,
                39.826697
              ],
              [
                -76.986706,
                39.826678
              ],
              [
                -76.986548,
                39.826678
              ],
              [
                -76.986548,
                39.826624
              ],
              [
                -76.986537,
                39.826624
              ],
              [
                -76.986537,
                39.826694
              ],
              [
                -76.98641,
                39.826694
              ],
              [
                -76.98641,
                39.826553
              ],
              [
                -76.986723,
                39.826553
              ],
              [
                -76.986723,
                39.826557
              ],
              [
                -76.986754,
                39.826557
              ]
            ]
          ],
          [
            [
              [
                -76.98666,
                39.826788
              ],
              [
                -76.986427,
                39.826788
              ],
              [
                -76.986427,
                39.826806
              ],
              [
                -76.98666,
                39.826806
              ],
              [
                -76.98666,
                39.826788
              ]
            ]
          ],
          [
            [
              [
                -76.986754,
                39.826523
              ],
              [
                -76.986723,
                39.826523
              ],
              [
                -76.986723,
                39.826533
              ],
              [
                -76.986606,
                39.826533
              ],
              [
                -76.986606,
                39.826496
              ],
              [
                -76.986539,
                39.826496
              ],
              [
                -76.986539,
                39.826476
              ],
              [
                -76.986754,
                39.826476
              ],
              [
                -76.986754,
                39.826523
              ]
            ]
          ],
          [
            [
              [
                -76.986859,
                39.826965
              ],
              [
                -76.986825,
                39.826965
              ],
              [
                -76.986825,
                39.827068
              ],
              [
                -76.986859,
                39.827068
              ],
              [
                -76.986859,
                39.826965
              ]
            ]
          ],
          [
            [
              [
                -76.986784,
                39.826732
              ],
              [
                -76.986757,
                39.826732
              ],
              [
                -76.986757,
                39.826557
              ],
              [
                -76.986784,
                39.826557
              ],
              [
                -76.986784,
                39.826732
              ]
            ]
          ],
          [
            [
              [
                -76.987127,
                39.826414
              ],
              [
                -76.987127,
                39.827015
              ],
              [
                -76.987052,
                39.827015
              ],
              [
                -76.987052,
                39.827053
              ],
              [
                -76.986956,
                39.827053
              ],
              [
                -76.986956,
                39.8271
              ],
              [
                -76.986757,
                39.8271
              ],
              [
                -76.986757,
                39.826941
              ],
              [
                -76.986792,
                39.826941
              ],
              [
                -76.986792,
                39.826878
              ],
              [
                -76.986757,
                39.826878
              ],
              [
                -76.986757,
                39.82683
              ],
              [
                -76.986788,
                39.82683
              ],
              [
                -76.986788,
                39.826869
              ],
              [
                -76.987101,
                39.826869
              ],
              [
                -76.987101,
                39.826851
              ],
              [
                -76.986826,
                39.826851
              ],
              [
                -76.986826,
                39.826803
              ],
              [
                -76.986788,
                39.826803
              ],
              [
                -76.986788,
                39.826796
              ],
              [
                -76.986757,
                39.826796
              ],
              [
                -76.986757,
                39.826732
              ],
              [
                -76.986784,
                39.826732
              ],
              [
                -76.986784,
                39.826557
              ],
              [
                -76.986799,
                39.826557
              ],
              [
                -76.986799,
                39.82654
              ],
              [
                -76.986819,
                39.82654
              ],
              [
                -76.986819,
                39.826514
              ],
              [
                -76.987014,
                39.826514
              ],
              [
                -76.987014,
                39.826414
              ],
              [
                -76.987068,
                39.826414
              ],
              [
                -76.987068,
                39.826428
              ],
              [
                -76.987085,
                39.826428
              ],
              [
                -76.987085,
                39.826414
              ],
              [
                -76.987127,
                39.826414
              ]
            ]
          ],
          [
            [
              [
                -76.986887,
                39.826414
              ],
              [
                -76.986797,
                39.826414
              ],
              [
                -76.986797,
                39.826489
              ],
              [
                -76.986887,
                39.826489
              ],
              [
                -76.986887,
                39.826414
              ]
            ]
          ],
          [
            [
              [
                -76.98551,
                39.826476
              ],
              [
                -76.98551,
                39.826487
              ],
              [
                -76.98552,
                39.826487
              ],
              [
                -76.98552,
                39.826537
              ],
              [
                -76.985544,
                39.826537
              ],
              [
                -76.985544,
                39.826524
              ],
              [
                -76.985557,
                39.826524
              ],
              [
                -76.985557,
                39.826476
              ],
              [
                -76.98551,
                39.826476
              ]
            ]
          ],
          [
            [
              [
                -76.986539,
                39.826476
              ],
              [
                -76.986539,
                39.826496
              ],
              [
                -76.986606,
                39.826496
              ],
              [
                -76.986606,
                39.826533
              ],
              [
                -76.986416,
                39.826533
              ],
              [
                -76.986416,
                39.826504
              ],
              [
                -76.986436,
                39.826504
              ],
              [
                -76.986436,
                39.826476
              ],
              [
                -76.986616,
                39.826476
              ],
              [
                -76.986616,
                39.82649
              ],
              [
                -76.986616,
                39.826476
              ],
              [
                -76.986539,
                39.826476
              ]
            ]
          ],
          [
            [
              [
                -76.986303,
                39.826502
              ],
              [
                -76.986213,
                39.826502
              ],
              [
                -76.986213,
                39.826536
              ],
              [
                -76.986303,
                39.826536
              ],
              [
                -76.986303,
                39.826502
              ]
            ]
          ],
          [
            [
              [
                -76.986445,
                39.826733
              ],
              [
                -76.986445,
                39.826769
              ],
              [
                -76.986427,
                39.826769
              ],
              [
                -76.986427,
                39.826806
              ],
              [
                -76.986416,
                39.826806
              ],
              [
                -76.986416,
                39.826733
              ],
              [
                -76.986445,
                39.826733
              ]
            ]
          ],
          [
            [
              [
                -76.98604,
                39.826857
              ],
              [
                -76.98604,
                39.826826
              ],
              [
                -76.986183,
                39.826826
              ],
              [
                -76.986183,
                39.826833
              ],
              [
                -76.986134,
                39.826833
              ],
              [
                -76.986134,
                39.826835
              ],
              [
                -76.986086,
                39.826835
              ],
              [
                -76.986086,
                39.826857
              ],
              [
                -76.98604,
                39.826857
              ]
            ]
          ],
          [
            [
              [
                -76.986073,
                39.826793
              ],
              [
                -76.986073,
                39.826799
              ],
              [
                -76.985612,
                39.826799
              ],
              [
                -76.985612,
                39.826793
              ],
              [
                -76.985665,
                39.826793
              ],
              [
                -76.985665,
                39.826792
              ],
              [
                -76.985754,
                39.826792
              ],
              [
                -76.985754,
                39.826793
              ],
              [
                -76.985775,
                39.826793
              ],
              [
                -76.985797,
                39.826793
              ],
              [
                -76.985797,
                39.826794
              ],
              [
                -76.98584,
                39.826794
              ],
              [
                -76.98584,
                39.826795
              ],
              [
                -76.985884,
                39.826795
              ],
              [
                -76.985884,
                39.826794
              ],
              [
                -76.985931,
                39.826794
              ],
              [
                -76.985931,
                39.82676
              ],
              [
                -76.985955,
                39.82676
              ],
              [
                -76.985955,
                39.826761
              ],
              [
                -76.985979,
                39.826761
              ],
              [
                -76.985979,
                39.826792
              ],
              [
                -76.986026,
                39.826792
              ],
              [
                -76.986026,
                39.826793
              ],
              [
                -76.986073,
                39.826793
              ]
            ]
          ],
          [
            [
              [
                -76.986206,
                39.826751
              ],
              [
                -76.986182,
                39.826751
              ],
              [
                -76.986182,
                39.826568
              ],
              [
                -76.986206,
                39.826568
              ],
              [
                -76.986206,
                39.82665
              ],
              [
                -76.986226,
                39.82665
              ],
              [
                -76.986226,
                39.826731
              ],
              [
                -76.986206,
                39.826731
              ],
              [
                -76.986206,
                39.826751
              ]
            ]
          ],
          [
            [
              [
                -76.986109,
                39.826835
              ],
              [
                -76.986086,
                39.826835
              ],
              [
                -76.986086,
                39.826857
              ],
              [
                -76.98604,
                39.826857
              ],
              [
                -76.98604,
                39.826847
              ],
              [
                -76.98602,
                39.826847
              ],
              [
                -76.98602,
                39.827064
              ],
              [
                -76.98604,
                39.827064
              ],
              [
                -76.98604,
                39.827059
              ],
              [
                -76.986086,
                39.827059
              ],
              [
                -76.986109,
                39.827059
              ],
              [
                -76.986109,
                39.826835
              ]
            ]
          ],
          [
            [
              [
                -76.987052,
                39.827101
              ],
              [
                -76.986965,
                39.827101
              ],
              [
                -76.986965,
                39.8271
              ],
              [
                -76.986757,
                39.8271
              ],
              [
                -76.986757,
                39.826414
              ],
              [
                -76.987127,
                39.826414
              ],
              [
                -76.987127,
                39.827015
              ],
              [
                -76.987052,
                39.827015
              ],
              [
                -76.987052,
                39.827101
              ]
            ]
          ]
        ]
      },
      "properties": {
        "fill": "#D9E2F6",
        "stroke-width": "0.5",
        "stroke": "#96A3BD",
        "opacity": "0.75"
      }
    },
    {
      "type": "Feature",
      "geometry": {
        "type": "MultiLineString",
        "coordinates": []
      },
      "properties": {
        "stroke-width": "0.5"
      }
    },
    {
      "type": "Feature",
      "geometry": {
        "type": "Point",
        "coordinates": [
          -76.985621,
          39.82684
        ]
      },
      "properties": {
        "type": "P",
        "sub_category": "ServiceDesks",
        "poi_name": "MILLWORK DESK",
        "profile": "STORE SERVICES",
        "icon_id": "millwork_desk",
        "orientation": 0
      }
    },
    {
      "type": "Feature",
      "geometry": {
        "type": "Point",
        "coordinates": [
          -76.986354,
          39.826527
        ]
      },
      "properties": {
        "type": "P",
        "sub_category": "Services",
        "poi_name": "RETURNS",
        "profile": "BASIC INFO",
        "icon_id": "returns",
        "orientation": 0
      }
    },
    {
      "type": "Feature",
      "geometry": {
        "type": "Point",
        "coordinates": [
          -76.986354,
          39.826517
        ]
      },
      "properties": {
        "type": "P",
        "sub_category": "ServiceDesks",
        "poi_name": "CUSTOMER SERVICE",
        "profile": "BASIC INFO",
        "icon_id": "customer_service_desk",
        "orientation": 0
      }
    },
    {
      "type": "Feature",
      "geometry": {
        "type": "Point",
        "coordinates": [
          -76.986259,
          39.826484
        ]
      },
      "properties": {
        "type": "P",
        "sub_category": "Services",
        "poi_name": "PRODUCT PICK-UP",
        "profile": "BASIC INFO",
        "icon_id": "store_pick_up",
        "orientation": 0
      }
    },
    {
      "type": "Feature",
      "geometry": {
        "type": "Point",
        "coordinates": [
          -76.986286,
          39.826484
        ]
      },
      "properties": {
        "type": "P",
        "sub_category": "Services",
        "poi_name": "PICKUP LOCKER",
        "profile": "BASIC INFO",
        "icon_id": "pickup_lockers",
        "orientation": 0
      }
    },
    {
      "type": "Feature",
      "geometry": {
        "type": "Point",
        "coordinates": [
          -76.986154,
          39.826552
        ]
      },
      "properties": {
        "type": "P",
        "sub_category": "Checkouts",
        "poi_name": "MAIN CHECKOUT",
        "profile": "BASIC INFO",
        "icon_id": "checkouts",
        "orientation": 0
      }
    },
    {
      "type": "Feature",
      "geometry": {
        "type": "Point",
        "coordinates": [
          -76.986108,
          39.826552
        ]
      },
      "properties": {
        "type": "P",
        "sub_category": "Checkouts",
        "poi_name": "MAIN SELF-CHECKOUT",
        "profile": "BASIC INFO",
        "icon_id": "checkouts",
        "orientation": 0
      }
    },
    {
      "type": "Feature",
      "geometry": {
        "type": "Point",
        "coordinates": [
          -76.986372,
          39.826403
        ]
      },
      "properties": {
        "type": "P",
        "sub_category": "EntryExit",
        "poi_name": "MAIN ENTRANCE",
        "profile": "BASIC INFO",
        "icon_id": "entrance_exit",
        "orientation": 0
      }
    },
    {
      "type": "Feature",
      "geometry": {
        "type": "Point",
        "coordinates": [
          -76.986114,
          39.826482
        ]
      },
      "properties": {
        "type": "P",
        "sub_category": "EntryExit",
        "poi_name": "MAIN EXIT",
        "profile": "BASIC INFO",
        "icon_id": "entrance_exit",
        "orientation": 0
      }
    },
    {
      "type": "Feature",
      "geometry": {
        "type": "Point",
        "coordinates": [
          -76.985461,
          39.826463
        ]
      },
      "properties": {
        "type": "P",
        "sub_category": "EntryExit",
        "poi_name": "PRO ENTRANCE",
        "profile": "BASIC INFO",
        "icon_id": "entrance_exit",
        "orientation": 0
      }
    },
    {
      "type": "Feature",
      "geometry": {
        "type": "Point",
        "coordinates": [
          -76.985459,
          39.826496
        ]
      },
      "properties": {
        "type": "P",
        "sub_category": "EntryExit",
        "poi_name": "PRO EXIT",
        "profile": "BASIC INFO",
        "icon_id": "entrance_exit",
        "orientation": 0
      }
    },
    {
      "type": "Feature",
      "geometry": {
        "type": "Point",
        "coordinates": [
          -76.985461,
          39.826529
        ]
      },
      "properties": {
        "type": "P",
        "sub_category": "Checkouts",
        "poi_name": "PRO CHECKOUT",
        "profile": "BASIC INFO",
        "icon_id": "checkouts",
        "orientation": 0
      }
    },
    {
      "type": "Feature",
      "geometry": {
        "type": "Point",
        "coordinates": [
          -76.985397,
          39.826522
        ]
      },
      "properties": {
        "type": "P",
        "sub_category": "ServiceDesks",
        "poi_name": "PRO SERVICE DESK",
        "profile": "BASIC INFO",
        "icon_id": "pro_service_desk",
        "orientation": 0
      }
    },
    {
      "type": "Feature",
      "geometry": {
        "type": "Point",
        "coordinates": [
          -76.986952,
          39.826362
        ]
      },
      "properties": {
        "type": "P",
        "sub_category": "EntryExit",
        "poi_name": "GARDEN CENTER ENTRANCE",
        "profile": "BASIC INFO",
        "icon_id": "entrance_exit",
        "orientation": 0
      }
    },
    {
      "type": "Feature",
      "geometry": {
        "type": "Point",
        "coordinates": [
          -76.986951,
          39.826491
        ]
      },
      "properties": {
        "type": "P",
        "sub_category": "Checkouts",
        "poi_name": "GARDEN CENTER CHECKOUT",
        "profile": "BASIC INFO",
        "icon_id": "checkouts",
        "orientation": 0
      }
    },
    {
      "type": "Feature",
      "geometry": {
        "type": "Point",
        "coordinates": [
          -76.985421,
          39.827056
        ]
      },
      "properties": {
        "type": "P",
        "sub_category": "Services",
        "poi_name": "WOOD CUTTING",
        "profile": "STORE SERVICES",
        "icon_id": "wood_cutting",
        "orientation": 0
      }
    },
    {
      "type": "Feature",
      "geometry": {
        "type": "Point",
        "coordinates": [
          -76.986197,
          39.827014
        ]
      },
      "properties": {
        "type": "P",
        "sub_category": "ServiceDesks",
        "poi_name": "KITCHEN DESIGN DESK",
        "profile": "STORE SERVICES",
        "icon_id": "kitchen_design_desk",
        "orientation": 0
      }
    },
    {
      "type": "Feature",
      "geometry": {
        "type": "Point",
        "coordinates": [
          -76.985909,
          39.826852
        ]
      },
      "properties": {
        "type": "P",
        "sub_category": "ServiceDesks",
        "poi_name": "FLOORING DESK",
        "profile": "STORE SERVICES",
        "icon_id": "flooring_desk",
        "orientation": 0
      }
    },
    {
      "type": "Feature",
      "geometry": {
        "type": "Point",
        "coordinates": [
          -76.98614,
          39.82676
        ]
      },
      "properties": {
        "type": "P",
        "sub_category": "ServiceDesks",
        "poi_name": "HOME DECOR DESK",
        "profile": "STORE SERVICES",
        "icon_id": "home_décor_desk",
        "orientation": 0
      }
    },
    {
      "type": "Feature",
      "geometry": {
        "type": "Point",
        "coordinates": [
          -76.985846,
          39.826783
        ]
      },
      "properties": {
        "type": "P",
        "sub_category": "Services",
        "poi_name": "WIRE CUTTING",
        "profile": "STORE SERVICES",
        "icon_id": "wire_cutting",
        "orientation": 0
      }
    },
    {
      "type": "Feature",
      "geometry": {
        "type": "Point",
        "coordinates": [
          -76.986135,
          39.826701
        ]
      },
      "properties": {
        "type": "P",
        "sub_category": "Services",
        "poi_name": "BLIND CUTTING",
        "profile": "STORE SERVICES",
        "icon_id": "blind_cutting",
        "orientation": 0
      }
    },
    {
      "type": "Feature",
      "geometry": {
        "type": "Point",
        "coordinates": [
          -76.98577,
          39.82665
        ]
      },
      "properties": {
        "type": "P",
        "sub_category": "Services",
        "poi_name": "CHAIN AND ROPE CUTTING",
        "profile": "STORE SERVICES",
        "icon_id": "chain_rope_cutting",
        "orientation": 0
      }
    },
    {
      "type": "Feature",
      "geometry": {
        "type": "Point",
        "coordinates": [
          -76.985737,
          39.82662
        ]
      },
      "properties": {
        "type": "P",
        "sub_category": "Services",
        "poi_name": "GLASS CUTTING",
        "profile": "STORE SERVICES",
        "icon_id": "glass_cutting",
        "orientation": 0
      }
    },
    {
      "type": "Feature",
      "geometry": {
        "type": "Point",
        "coordinates": [
          -76.985993,
          39.826458
        ]
      },
      "properties": {
        "type": "P",
        "sub_category": "Restrooms",
        "poi_name": "MEN/WOMEN’S RESTROOMS",
        "profile": "BASIC INFO",
        "icon_id": "restrooms",
        "orientation": 0
      }
    },
    {
      "type": "Feature",
      "geometry": {
        "type": "Point",
        "coordinates": [
          -76.98596,
          39.82645
        ]
      },
      "properties": {
        "type": "P",
        "sub_category": "Restrooms",
        "poi_name": "UNISEX",
        "profile": "BASIC INFO",
        "icon_id": "restrooms",
        "orientation": 0
      }
    },
    {
      "type": "Feature",
      "geometry": {
        "type": "Point",
        "coordinates": [
          -76.986951,
          39.826431
        ]
      },
      "properties": {
        "type": "P",
        "sub_category": "EntryExit",
        "poi_name": "GARDEN CENTER ENTRANCE",
        "profile": "BASIC INFO",
        "icon_id": "entrance_exit",
        "orientation": 0
      }
    },
    {
      "type": "Feature",
      "geometry": {
        "type": "Point",
        "coordinates": [
          -76.98633,
          39.826915
        ]
      },
      "properties": {
        "type": "P",
        "sub_category": "ServiceDesks",
        "poi_name": "APPLIANCE DESK",
        "profile": "STORE SERVICES",
        "icon_id": "appliance_desk",
        "orientation": 0
      }
    },
    {
      "type": "Feature",
      "geometry": {
        "type": "Point",
        "coordinates": [
          -76.985952,
          39.82708
        ]
      },
      "properties": {
        "type": "P",
        "sub_category": "Services",
        "poi_name": "CARPET CUTTING",
        "profile": "STORE SERVICES",
        "icon_id": "carpet_cutting",
        "orientation": 0
      }
    },
    {
      "type": "Feature",
      "geometry": {
        "type": "Point",
        "coordinates": [
          -76.98627,
          39.827171
        ]
      },
      "properties": {
        "type": "P",
        "sub_category": "ServiceDesks",
        "poi_name": "RECEIVING DESK",
        "profile": "BASIC INFO",
        "icon_id": "receiving_desk",
        "orientation": 0
      }
    },
    {
      "type": "Feature",
      "geometry": {
        "type": "Point",
        "coordinates": [
          -76.985731,
          39.827028
        ]
      },
      "properties": {
        "name": "LUMBER",
        "orientation": 0
      }
    },
    {
      "type": "Feature",
      "geometry": {
        "type": "Point",
        "coordinates": [
          -76.985537,
          39.826967
        ]
      },
      "properties": {
        "name": "LUMBER",
        "orientation": 0
      }
    },
    {
      "type": "Feature",
      "geometry": {
        "type": "Point",
        "coordinates": [
          -76.985511,
          39.826686
        ]
      },
      "properties": {
        "name": "LUMBER",
        "orientation": 0
      }
    },
    {
      "type": "Feature",
      "geometry": {
        "type": "Point",
        "coordinates": [
          -76.985422,
          39.826676
        ]
      },
      "properties": {
        "name": "LUMBER",
        "orientation": 0
      }
    },
    {
      "type": "Feature",
      "geometry": {
        "type": "Point",
        "coordinates": [
          -76.9854,
          39.826967
        ]
      },
      "properties": {
        "name": "LUMBER",
        "orientation": 0
      }
    },
    {
      "type": "Feature",
      "geometry": {
        "type": "Point",
        "coordinates": [
          -76.985693,
          39.826975
        ]
      },
      "properties": {
        "name": "BUILDING MATERIALS",
        "orientation": 0
      }
    },
    {
      "type": "Feature",
      "geometry": {
        "type": "Point",
        "coordinates": [
          -76.985698,
          39.827087
        ]
      },
      "properties": {
        "name": "BUILDING MATERIALS",
        "orientation": 0
      }
    },
    {
      "type": "Feature",
      "geometry": {
        "type": "Point",
        "coordinates": [
          -76.985521,
          39.826912
        ]
      },
      "properties": {
        "name": "BUILDING MATERIALS",
        "orientation": 0
      }
    },
    {
      "type": "Feature",
      "geometry": {
        "type": "Point",
        "coordinates": [
          -76.985386,
          39.826803
        ]
      },
      "properties": {
        "name": "BUILDING MATERIALS",
        "orientation": 0
      }
    },
    {
      "type": "Feature",
      "geometry": {
        "type": "Point",
        "coordinates": [
          -76.985531,
          39.826676
        ]
      },
      "properties": {
        "name": "BUILDING MATERIALS",
        "orientation": 0
      }
    },
    {
      "type": "Feature",
      "geometry": {
        "type": "Point",
        "coordinates": [
          -76.985652,
          39.826669
        ]
      },
      "properties": {
        "name": "BUILDING MATERIALS",
        "orientation": 0
      }
    },
    {
      "type": "Feature",
      "geometry": {
        "type": "Point",
        "coordinates": [
          -76.98549,
          39.826742
        ]
      },
      "properties": {
        "name": "MILLWORK",
        "orientation": 0
      }
    },
    {
      "type": "Feature",
      "geometry": {
        "type": "Point",
        "coordinates": [
          -76.985592,
          39.826684
        ]
      },
      "properties": {
        "name": "MILLWORK",
        "orientation": 0
      }
    },
    {
      "type": "Feature",
      "geometry": {
        "type": "Point",
        "coordinates": [
          -76.985678,
          39.82695
        ]
      },
      "properties": {
        "name": "MILLWORK",
        "orientation": 0
      }
    },
    {
      "type": "Feature",
      "geometry": {
        "type": "Point",
        "coordinates": [
          -76.986003,
          39.826681
        ]
      },
      "properties": {
        "name": "LIGHTING",
        "orientation": 0
      }
    },
    {
      "type": "Feature",
      "geometry": {
        "type": "Point",
        "coordinates": [
          -76.985862,
          39.826682
        ]
      },
      "properties": {
        "name": "ROUGH ELECTRICAL",
        "orientation": 0
      }
    },
    {
      "type": "Feature",
      "geometry": {
        "type": "Point",
        "coordinates": [
          -76.986741,
          39.826888
        ]
      },
      "properties": {
        "name": "FASHION PLUMBING",
        "orientation": 0
      }
    },
    {
      "type": "Feature",
      "geometry": {
        "type": "Point",
        "coordinates": [
          -76.986561,
          39.826902
        ]
      },
      "properties": {
        "name": "FASHION PLUMBING",
        "orientation": 0
      }
    },
    {
      "type": "Feature",
      "geometry": {
        "type": "Point",
        "coordinates": [
          -76.986741,
          39.82701
        ]
      },
      "properties": {
        "name": "ROUGH PLUMBING",
        "orientation": 0
      }
    },
    {
      "type": "Feature",
      "geometry": {
        "type": "Point",
        "coordinates": [
          -76.986682,
          39.82709
        ]
      },
      "properties": {
        "name": "ROUGH PLUMBING",
        "orientation": 0
      }
    },
    {
      "type": "Feature",
      "geometry": {
        "type": "Point",
        "coordinates": [
          -76.986542,
          39.827044
        ]
      },
      "properties": {
        "name": "ROUGH PLUMBING",
        "orientation": 0
      }
    },
    {
      "type": "Feature",
      "geometry": {
        "type": "Point",
        "coordinates": [
          -76.986695,
          39.826797
        ]
      },
      "properties": {
        "name": "APPLIANCES",
        "orientation": 0
      }
    },
    {
      "type": "Feature",
      "geometry": {
        "type": "Point",
        "coordinates": [
          -76.986282,
          39.826963
        ]
      },
      "properties": {
        "name": "APPLIANCES",
        "orientation": 0
      }
    },
    {
      "type": "Feature",
      "geometry": {
        "type": "Point",
        "coordinates": [
          -76.986146,
          39.826875
        ]
      },
      "properties": {
        "name": "APPLIANCES",
        "orientation": 0
      }
    },
    {
      "type": "Feature",
      "geometry": {
        "type": "Point",
        "coordinates": [
          -76.985872,
          39.826752
        ]
      },
      "properties": {
        "name": "HARDWARE",
        "orientation": 0
      }
    },
    {
      "type": "Feature",
      "geometry": {
        "type": "Point",
        "coordinates": [
          -76.985728,
          39.826681
        ]
      },
      "properties": {
        "name": "HARDWARE",
        "orientation": 0
      }
    },
    {
      "type": "Feature",
      "geometry": {
        "type": "Point",
        "coordinates": [
          -76.986283,
          39.826678
        ]
      },
      "properties": {
        "name": "PAINT",
        "orientation": 0
      }
    },
    {
      "type": "Feature",
      "geometry": {
        "type": "Point",
        "coordinates": [
          -76.985765,
          39.826762
        ]
      },
      "properties": {
        "name": "TOOLS",
        "orientation": 0
      }
    },
    {
      "type": "Feature",
      "geometry": {
        "type": "Point",
        "coordinates": [
          -76.985676,
          39.826619
        ]
      },
      "properties": {
        "name": "TOOLS",
        "orientation": 0
      }
    },
    {
      "type": "Feature",
      "geometry": {
        "type": "Point",
        "coordinates": [
          -76.985775,
          39.826507
        ]
      },
      "properties": {
        "name": "TOOLS",
        "orientation": 0
      }
    },
    {
      "type": "Feature",
      "geometry": {
        "type": "Point",
        "coordinates": [
          -76.986558,
          39.826724
        ]
      },
      "properties": {
        "name": "OUTDOOR POWER EQUIPMENT",
        "orientation": 0
      }
    },
    {
      "type": "Feature",
      "geometry": {
        "type": "Point",
        "coordinates": [
          -76.985939,
          39.826963
        ]
      },
      "properties": {
        "name": "FLOORING",
        "orientation": 0
      }
    },
    {
      "type": "Feature",
      "geometry": {
        "type": "Point",
        "coordinates": [
          -76.986161,
          39.826963
        ]
      },
      "properties": {
        "name": "CABINETS",
        "orientation": 0
      }
    },
    {
      "type": "Feature",
      "geometry": {
        "type": "Point",
        "coordinates": [
          -76.986774,
          39.826909
        ]
      },
      "properties": {
        "name": "CLEANING",
        "orientation": 0
      }
    },
    {
      "type": "Feature",
      "geometry": {
        "type": "Point",
        "coordinates": [
          -76.986544,
          39.826778
        ]
      },
      "properties": {
        "name": "CLEANING",
        "orientation": 0
      }
    },
    {
      "type": "Feature",
      "geometry": {
        "type": "Point",
        "coordinates": [
          -76.986372,
          39.826681
        ]
      },
      "properties": {
        "name": "CLEANING",
        "orientation": 0
      }
    },
    {
      "type": "Feature",
      "geometry": {
        "type": "Point",
        "coordinates": [
          -76.986216,
          39.826609
        ]
      },
      "properties": {
        "name": "HOME DECOR",
        "orientation": 0
      }
    },
    {
      "type": "Feature",
      "geometry": {
        "type": "Point",
        "coordinates": [
          -76.98614,
          39.826684
        ]
      },
      "properties": {
        "name": "HOME DECOR",
        "orientation": 0
      }
    },
    {
      "type": "Feature",
      "geometry": {
        "type": "Point",
        "coordinates": [
          -76.98592,
          39.827003
        ]
      },
      "properties": {
        "name": "HOME DECOR",
        "orientation": 0
      }
    },
    {
      "type": "Feature",
      "geometry": {
        "type": "Point",
        "coordinates": [
          -76.986582,
          39.826674
        ]
      },
      "properties": {
        "name": "INSIDE LAWN AND GARDEN",
        "orientation": 0
      }
    },
    {
      "type": "Feature",
      "geometry": {
        "type": "Point",
        "coordinates": [
          -76.986544,
          39.826797
        ]
      },
      "properties": {
        "name": "INSIDE LAWN AND GARDEN",
        "orientation": 0
      }
    },
    {
      "type": "Feature",
      "geometry": {
        "type": "Point",
        "coordinates": [
          -76.986647,
          39.826505
        ]
      },
      "properties": {
        "name": "INSIDE LAWN AND GARDEN",
        "orientation": 0
      }
    },
    {
      "type": "Feature",
      "geometry": {
        "type": "Point",
        "coordinates": [
          -76.986842,
          39.827017
        ]
      },
      "properties": {
        "name": "INSIDE LAWN AND GARDEN",
        "orientation": 0
      }
    },
    {
      "type": "Feature",
      "geometry": {
        "type": "Point",
        "coordinates": [
          -76.986771,
          39.826645
        ]
      },
      "properties": {
        "name": "INSIDE LAWN AND GARDEN",
        "orientation": 0
      }
    },
    {
      "type": "Feature",
      "geometry": {
        "type": "Point",
        "coordinates": [
          -76.986942,
          39.826757
        ]
      },
      "properties": {
        "name": "OUTSIDE LAWN AND GARDEN",
        "orientation": 0
      }
    },
    {
      "type": "Feature",
      "geometry": {
        "type": "Point",
        "coordinates": [
          -76.986842,
          39.826452
        ]
      },
      "properties": {
        "name": "OUTSIDE LAWN AND GARDEN",
        "orientation": 0
      }
    },
    {
      "type": "Feature",
      "geometry": {
        "type": "Point",
        "coordinates": [
          -76.986204,
          39.82666
        ]
      },
      "properties": {
        "name": "STORAGE",
        "orientation": 0
      }
    },
    {
      "type": "Feature",
      "geometry": {
        "type": "Point",
        "coordinates": [
          -76.986065,
          39.826949
        ]
      },
      "properties": {
        "name": "STORAGE",
        "orientation": 0
      }
    },
    {
      "type": "Feature",
      "geometry": {
        "type": "Point",
        "coordinates": [
          -76.986942,
          39.826757
        ]
      },
      "properties": {
        "name": "GARDEN CENTER",
        "orientation": 0
      }
    }
  ]
}