{
  "type": "FeatureCollection",
  "features": [
    {
      "type": "Feature",
      "geometry": {
        "type": "MultiPolygon",
        "coordinates": [
          [
            [
              [
                -76.987064,
                39.826508
              ],
              [
                -76.986996,
                39.826508
              ],
              [
                -76.986996,
                39.826518
              ],
              [
                -76.986955,
                39.826518
              ],
              [
                -76.986955,
                39.826628
              ],
              [
                -76.986921,
                39.826628
              ],
              [
                -76.986921,
                39.826726
              ],
              [
                -76.986954,
                39.826726
              ],
              [
                -76.986954,
                39.8268
              ],
              [
                -76.987064,
                39.8268
              ],
              [
                -76.987064,
                39.826508
              ]
            ]
          ],
          [
            [
              [
                -76.986969,
                39.827055
              ],
              [
                -76.986937,
                39.827055
              ],
              [
                -76.986937,
                39.827036
              ],
              [
                -76.986905,
                39.827036
              ],
              [
                -76.986905,
                39.826905
              ],
              [
                -76.986873,
                39.826905
              ],
              [
                -76.986873,
                39.826839
              ],
              [
                -76.986937,
                39.826839
              ],
              [
                -76.986937,
                39.826837
              ],
              [
                -76.986937,
                39.826829
              ],
              [
                -76.987003,
                39.826829
              ],
              [
                -76.987003,
                39.826837
              ],
              [
                -76.986969,
                39.826837
              ],
              [
                -76.986969,
                39.827055
              ]
            ]
          ],
          [
            [
              [
                -76.986024,
                39.827029
              ],
              [
                -76.986024,
                39.827009
              ],
              [
                -76.986037,
                39.827009
              ],
              [
                -76.986037,
                39.826824
              ],
              [
                -76.985799,
                39.826824
              ],
              [
                -76.985799,
                39.827029
              ],
              [
                -76.986024,
                39.827029
              ]
            ]
          ],
          [
            [
              [
                -76.986366,
                39.826519
              ],
              [
                -76.986347,
                39.826519
              ],
              [
                -76.986347,
                39.82679
              ],
              [
                -76.986366,
                39.82679
              ],
              [
                -76.986366,
                39.826519
              ]
            ]
          ],
          [
            [
              [
                -76.985682,
                39.826735
              ],
              [
                -76.985682,
                39.826754
              ],
              [
                -76.985654,
                39.826754
              ],
              [
                -76.985654,
                39.826703
              ],
              [
                -76.985626,
                39.826703
              ],
              [
                -76.985626,
                39.826793
              ],
              [
                -76.985682,
                39.826793
              ],
              [
                -76.985757,
                39.826793
              ],
              [
                -76.985757,
                39.826809
              ],
              [
                -76.9858,
                39.826809
              ],
              [
                -76.9858,
                39.826818
              ],
              [
                -76.986024,
                39.826818
              ],
              [
                -76.986024,
                39.826771
              ],
              [
                -76.986024,
                39.826755
              ],
              [
                -76.986024,
                39.826735
              ],
              [
                -76.985682,
                39.826735
              ]
            ]
          ],
          [
            [
              [
                -76.986571,
                39.826792
              ],
              [
                -76.98647,
                39.826792
              ],
              [
                -76.98647,
                39.826749
              ],
              [
                -76.98645,
                39.826749
              ],
              [
                -76.98645,
                39.826519
              ],
              [
                -76.98647,
                39.826519
              ],
              [
                -76.98647,
                39.826512
              ],
              [
                -76.986551,
                39.826512
              ],
              [
                -76.986551,
                39.826522
              ],
              [
                -76.986571,
                39.826522
              ],
              [
                -76.986571,
                39.826792
              ]
            ]
          ],
          [
            [
              [
                -76.986837,
                39.826522
              ],
              [
                -76.986812,
                39.826522
              ],
              [
                -76.986812,
                39.826519
              ],
              [
                -76.986788,
                39.826519
              ],
              [
                -76.986788,
                39.826624
              ],
              [
                -76.986812,
                39.826624
              ],
              [
                -76.986812,
                39.826749
              ],
              [
                -76.986788,
                39.826749
              ],
              [
                -76.986788,
                39.826792
              ],
              [
                -76.986812,
                39.826792
              ],
              [
                -76.986812,
                39.826785
              ],
              [
                -76.986837,
                39.826785
              ],
              [
                -76.986837,
                39.826522
              ]
            ]
          ],
          [
            [
              [
                -76.985654,
                39.826754
              ],
              [
                -76.985654,
                39.82672
              ],
              [
                -76.985783,
                39.82672
              ],
              [
                -76.9858,
                39.82672
              ],
              [
                -76.985945,
                39.82672
              ],
              [
                -76.985971,
                39.82672
              ],
              [
                -76.986024,
                39.82672
              ],
              [
                -76.986024,
                39.826735
              ],
              [
                -76.985682,
                39.826735
              ],
              [
                -76.985682,
                39.826754
              ],
              [
                -76.985668,
                39.826754
              ],
              [
                -76.985654,
                39.826754
              ]
            ]
          ],
          [
            [
              [
                -76.985757,
                39.826482
              ],
              [
                -76.985722,
                39.826482
              ],
              [
                -76.985659,
                39.826482
              ],
              [
                -76.985659,
                39.826474
              ],
              [
                -76.985647,
                39.826474
              ],
              [
                -76.985647,
                39.826423
              ],
              [
                -76.985757,
                39.826423
              ],
              [
                -76.985757,
                39.826482
              ]
            ]
          ],
          [
            [
              [
                -76.985682,
                39.82672
              ],
              [
                -76.986024,
                39.82672
              ],
              [
                -76.986024,
                39.8267
              ],
              [
                -76.985682,
                39.8267
              ],
              [
                -76.985682,
                39.82672
              ]
            ]
          ],
          [
            [
              [
                -76.985583,
                39.826475
              ],
              [
                -76.985501,
                39.826475
              ],
              [
                -76.985501,
                39.826436
              ],
              [
                -76.985551,
                39.826436
              ],
              [
                -76.985551,
                39.826421
              ],
              [
                -76.985583,
                39.826421
              ],
              [
                -76.985583,
                39.826475
              ]
            ]
          ],
          [
            [
              [
                -76.985346,
                39.82705
              ],
              [
                -76.985365,
                39.82705
              ],
              [
                -76.985365,
                39.827051
              ],
              [
                -76.985372,
                39.827051
              ],
              [
                -76.985372,
                39.826883
              ],
              [
                -76.985346,
                39.826883
              ],
              [
                -76.985346,
                39.82705
              ]
            ]
          ],
          [
            [
              [
                -76.985754,
                39.826807
              ],
              [
                -76.985722,
                39.826807
              ],
              [
                -76.985722,
                39.826816
              ],
              [
                -76.985665,
                39.826816
              ],
              [
                -76.985665,
                39.82681
              ],
              [
                -76.985667,
                39.82681
              ],
              [
                -76.985667,
                39.826795
              ],
              [
                -76.985754,
                39.826795
              ],
              [
                -76.985754,
                39.826807
              ]
            ]
          ],
          [
            [
              [
                -76.985346,
                39.826813
              ],
              [
                -76.985388,
                39.826813
              ],
              [
                -76.985388,
                39.826814
              ],
              [
                -76.985395,
                39.826814
              ],
              [
                -76.985395,
                39.826849
              ],
              [
                -76.985625,
                39.826849
              ],
              [
                -76.985625,
                39.826816
              ],
              [
                -76.985639,
                39.826816
              ],
              [
                -76.985639,
                39.82681
              ],
              [
                -76.985637,
                39.82681
              ],
              [
                -76.985637,
                39.826795
              ],
              [
                -76.985623,
                39.826795
              ],
              [
                -76.985623,
                39.826509
              ],
              [
                -76.985581,
                39.826509
              ],
              [
                -76.985581,
                39.8265
              ],
              [
                -76.985374,
                39.8265
              ],
              [
                -76.985374,
                39.826421
              ],
              [
                -76.985346,
                39.826421
              ],
              [
                -76.985346,
                39.826813
              ]
            ]
          ],
          [
            [
              [
                -76.986862,
                39.826481
              ],
              [
                -76.986862,
                39.826423
              ],
              [
                -76.986922,
                39.826423
              ],
              [
                -76.986922,
                39.826436
              ],
              [
                -76.986904,
                39.826436
              ],
              [
                -76.986904,
                39.826487
              ],
              [
                -76.986875,
                39.826487
              ],
              [
                -76.986875,
                39.826481
              ],
              [
                -76.986862,
                39.826481
              ]
            ]
          ],
          [
            [
              [
                -76.986245,
                39.826494
              ],
              [
                -76.986156,
                39.826494
              ],
              [
                -76.986156,
                39.826476
              ],
              [
                -76.986245,
                39.826476
              ],
              [
                -76.986245,
                39.826494
              ]
            ]
          ],
          [
            [
              [
                -76.985623,
                39.826421
              ],
              [
                -76.985623,
                39.826795
              ],
              [
                -76.985754,
                39.826795
              ],
              [
                -76.985754,
                39.827085
              ],
              [
                -76.985346,
                39.827085
              ],
              [
                -76.985346,
                39.826421
              ],
              [
                -76.985623,
                39.826421
              ]
            ]
          ],
          [
            [
              [
                -76.985905,
                39.826644
              ],
              [
                -76.985905,
                39.826632
              ],
              [
                -76.986045,
                39.826632
              ],
              [
                -76.986045,
                39.826502
              ],
              [
                -76.985974,
                39.826502
              ],
              [
                -76.9858,
                39.826502
              ],
              [
                -76.985659,
                39.826502
              ],
              [
                -76.985659,
                39.826509
              ],
              [
                -76.985626,
                39.826509
              ],
              [
                -76.985626,
                39.826703
              ],
              [
                -76.985654,
                39.826703
              ],
              [
                -76.985654,
                39.826644
              ],
              [
                -76.985654,
                39.826608
              ],
              [
                -76.985682,
                39.826608
              ],
              [
                -76.985682,
                39.826644
              ],
              [
                -76.985905,
                39.826644
              ]
            ]
          ],
          [
            [
              [
                -76.986606,
                39.826829
              ],
              [
                -76.986606,
                39.82684
              ],
              [
                -76.986633,
                39.82684
              ],
              [
                -76.986633,
                39.827036
              ],
              [
                -76.986659,
                39.827036
              ],
              [
                -76.986659,
                39.827059
              ],
              [
                -76.986622,
                39.827059
              ],
              [
                -76.986622,
                39.82708
              ],
              [
                -76.986538,
                39.82708
              ],
              [
                -76.986538,
                39.827065
              ],
              [
                -76.986522,
                39.827065
              ],
              [
                -76.986522,
                39.82708
              ],
              [
                -76.986338,
                39.82708
              ],
              [
                -76.986338,
                39.827059
              ],
              [
                -76.986353,
                39.827059
              ],
              [
                -76.986353,
                39.827031
              ],
              [
                -76.986376,
                39.827031
              ],
              [
                -76.986376,
                39.826846
              ],
              [
                -76.986353,
                39.826846
              ],
              [
                -76.986353,
                39.826829
              ],
              [
                -76.986606,
                39.826829
              ]
            ]
          ],
          [
            [
              [
                -76.986954,
                39.8268
              ],
              [
                -76.986954,
                39.826726
              ],
              [
                -76.986921,
                39.826726
              ],
              [
                -76.986921,
                39.826628
              ],
              [
                -76.986955,
                39.826628
              ],
              [
                -76.986955,
                39.826518
              ],
              [
                -76.986921,
                39.826518
              ],
              [
                -76.986921,
                39.826522
              ],
              [
                -76.986837,
                39.826522
              ],
              [
                -76.986837,
                39.826785
              ],
              [
                -76.986921,
                39.826785
              ],
              [
                -76.986921,
                39.8268
              ],
              [
                -76.986954,
                39.8268
              ]
            ]
          ],
          [
            [
              [
                -76.986231,
                39.82706
              ],
              [
                -76.986231,
                39.827038
              ],
              [
                -76.986179,
                39.827038
              ],
              [
                -76.986179,
                39.826941
              ],
              [
                -76.986212,
                39.826941
              ],
              [
                -76.986212,
                39.826929
              ],
              [
                -76.986329,
                39.826929
              ],
              [
                -76.986329,
                39.827038
              ],
              [
                -76.986353,
                39.827038
              ],
              [
                -76.986353,
                39.827031
              ],
              [
                -76.986376,
                39.827031
              ],
              [
                -76.986376,
                39.826846
              ],
              [
                -76.986353,
                39.826846
              ],
              [
                -76.986353,
                39.826842
              ],
              [
                -76.986304,
                39.826842
              ],
              [
                -76.986304,
                39.826829
              ],
              [
                -76.986075,
                39.826829
              ],
              [
                -76.986075,
                39.82706
              ],
              [
                -76.986231,
                39.82706
              ]
            ]
          ],
          [
            [
              [
                -76.986281,
                39.826792
              ],
              [
                -76.986305,
                39.826792
              ],
              [
                -76.986305,
                39.826791
              ],
              [
                -76.986347,
                39.826791
              ],
              [
                -76.986347,
                39.826519
              ],
              [
                -76.986259,
                39.826519
              ],
              [
                -76.986259,
                39.826686
              ],
              [
                -76.986281,
                39.826686
              ],
              [
                -76.986281,
                39.826792
              ]
            ]
          ],
          [
            [
              [
                -76.987096,
                39.826603
              ],
              [
                -76.987085,
                39.826603
              ],
              [
                -76.987085,
                39.826446
              ],
              [
                -76.987125,
                39.826446
              ],
              [
                -76.987125,
                39.827055
              ],
              [
                -76.987096,
                39.827055
              ],
              [
                -76.987096,
                39.826603
              ]
            ]
          ],
          [
            [
              [
                -76.985754,
                39.827085
              ],
              [
                -76.985346,
                39.827085
              ],
              [
                -76.985346,
                39.827064
              ],
              [
                -76.985365,
                39.827064
              ],
              [
                -76.985365,
                39.827061
              ],
              [
                -76.985384,
                39.827061
              ],
              [
                -76.985384,
                39.826881
              ],
              [
                -76.985657,
                39.826881
              ],
              [
                -76.985657,
                39.826834
              ],
              [
                -76.985722,
                39.826834
              ],
              [
                -76.985722,
                39.826842
              ],
              [
                -76.985717,
                39.826842
              ],
              [
                -76.985717,
                39.826951
              ],
              [
                -76.985754,
                39.826951
              ],
              [
                -76.985754,
                39.827085
              ]
            ]
          ],
          [
            [
              [
                -76.986707,
                39.826792
              ],
              [
                -76.986617,
                39.826792
              ],
              [
                -76.986617,
                39.826793
              ],
              [
                -76.986592,
                39.826793
              ],
              [
                -76.986592,
                39.826792
              ],
              [
                -76.986571,
                39.826792
              ],
              [
                -76.986571,
                39.826522
              ],
              [
                -76.986592,
                39.826522
              ],
              [
                -76.986592,
                39.826519
              ],
              [
                -76.986638,
                39.826519
              ],
              [
                -76.986638,
                39.826541
              ],
              [
                -76.986683,
                39.826541
              ],
              [
                -76.986683,
                39.826707
              ],
              [
                -76.986707,
                39.826707
              ],
              [
                -76.986707,
                39.826792
              ]
            ]
          ],
          [
            [
              [
                -76.985799,
                39.827048
              ],
              [
                -76.986024,
                39.827048
              ],
              [
                -76.986024,
                39.827029
              ],
              [
                -76.985799,
                39.827029
              ],
              [
                -76.985799,
                39.827048
              ]
            ]
          ],
          [
            [
              [
                -76.985783,
                39.82708
              ],
              [
                -76.985757,
                39.82708
              ],
              [
                -76.985757,
                39.826842
              ],
              [
                -76.985783,
                39.826842
              ],
              [
                -76.985783,
                39.82708
              ]
            ]
          ],
          [
            [
              [
                -76.986259,
                39.826519
              ],
              [
                -76.986209,
                39.826519
              ],
              [
                -76.986209,
                39.826523
              ],
              [
                -76.986118,
                39.826523
              ],
              [
                -76.986118,
                39.826519
              ],
              [
                -76.986095,
                39.826519
              ],
              [
                -76.986095,
                39.826792
              ],
              [
                -76.986281,
                39.826792
              ],
              [
                -76.986281,
                39.826686
              ],
              [
                -76.986259,
                39.826686
              ],
              [
                -76.986259,
                39.826519
              ]
            ]
          ],
          [
            [
              [
                -76.986095,
                39.826792
              ],
              [
                -76.986071,
                39.826792
              ],
              [
                -76.986071,
                39.826519
              ],
              [
                -76.986095,
                39.826519
              ],
              [
                -76.986095,
                39.826792
              ]
            ]
          ],
          [
            [
              [
                -76.986812,
                39.826749
              ],
              [
                -76.986788,
                39.826749
              ],
              [
                -76.986788,
                39.826792
              ],
              [
                -76.986707,
                39.826792
              ],
              [
                -76.986707,
                39.826707
              ],
              [
                -76.986683,
                39.826707
              ],
              [
                -76.986683,
                39.826519
              ],
              [
                -76.986788,
                39.826519
              ],
              [
                -76.986788,
                39.826624
              ],
              [
                -76.986812,
                39.826624
              ],
              [
                -76.986812,
                39.826749
              ]
            ]
          ],
          [
            [
              [
                -76.985879,
                39.8267
              ],
              [
                -76.9858,
                39.8267
              ],
              [
                -76.985785,
                39.8267
              ],
              [
                -76.985682,
                39.8267
              ],
              [
                -76.985682,
                39.82672
              ],
              [
                -76.985654,
                39.82672
              ],
              [
                -76.985654,
                39.826644
              ],
              [
                -76.985654,
                39.826608
              ],
              [
                -76.985682,
                39.826608
              ],
              [
                -76.985682,
                39.826644
              ],
              [
                -76.985894,
                39.826644
              ],
              [
                -76.985905,
                39.826644
              ],
              [
                -76.985905,
                39.826632
              ],
              [
                -76.986045,
                39.826632
              ],
              [
                -76.986045,
                39.826676
              ],
              [
                -76.986037,
                39.826676
              ],
              [
                -76.986037,
                39.826682
              ],
              [
                -76.986024,
                39.826682
              ],
              [
                -76.986024,
                39.8267
              ],
              [
                -76.985892,
                39.8267
              ],
              [
                -76.985879,
                39.8267
              ]
            ]
          ],
          [
            [
              [
                -76.985754,
                39.826951
              ],
              [
                -76.985717,
                39.826951
              ],
              [
                -76.985717,
                39.826842
              ],
              [
                -76.985754,
                39.826842
              ],
              [
                -76.985754,
                39.826951
              ]
            ]
          ],
          [
            [
              [
                -76.987035,
                39.827014
              ],
              [
                -76.987003,
                39.827014
              ],
              [
                -76.987003,
                39.827055
              ],
              [
                -76.987064,
                39.827055
              ],
              [
                -76.987064,
                39.826839
              ],
              [
                -76.987035,
                39.826839
              ],
              [
                -76.987035,
                39.827014
              ]
            ]
          ],
          [
            [
              [
                -76.98581,
                39.82708
              ],
              [
                -76.98581,
                39.82706
              ],
              [
                -76.986231,
                39.82706
              ],
              [
                -76.986231,
                39.827038
              ],
              [
                -76.986179,
                39.827038
              ],
              [
                -76.986179,
                39.826941
              ],
              [
                -76.986212,
                39.826941
              ],
              [
                -76.986212,
                39.826929
              ],
              [
                -76.986329,
                39.826929
              ],
              [
                -76.986329,
                39.827038
              ],
              [
                -76.986353,
                39.827038
              ],
              [
                -76.986353,
                39.827059
              ],
              [
                -76.986338,
                39.827059
              ],
              [
                -76.986338,
                39.82708
              ],
              [
                -76.986298,
                39.82708
              ],
              [
                -76.986298,
                39.827065
              ],
              [
                -76.986281,
                39.827065
              ],
              [
                -76.986281,
                39.82708
              ],
              [
                -76.98581,
                39.82708
              ]
            ]
          ],
          [
            [
              [
                -76.985793,
                39.826482
              ],
              [
                -76.985793,
                39.826452
              ],
              [
                -76.985851,
                39.826452
              ],
              [
                -76.985851,
                39.826423
              ],
              [
                -76.985788,
                39.826423
              ],
              [
                -76.985788,
                39.826438
              ],
              [
                -76.985757,
                39.826438
              ],
              [
                -76.985757,
                39.826482
              ],
              [
                -76.985793,
                39.826482
              ]
            ]
          ],
          [
            [
              [
                -76.98647,
                39.8268
              ],
              [
                -76.98647,
                39.826749
              ],
              [
                -76.98645,
                39.826749
              ],
              [
                -76.98645,
                39.826519
              ],
              [
                -76.986366,
                39.826519
              ],
              [
                -76.986366,
                39.82679
              ],
              [
                -76.986347,
                39.82679
              ],
              [
                -76.986347,
                39.8268
              ],
              [
                -76.98647,
                39.8268
              ]
            ]
          ],
          [
            [
              [
                -76.986873,
                39.826843
              ],
              [
                -76.986817,
                39.826843
              ],
              [
                -76.986817,
                39.826829
              ],
              [
                -76.986763,
                39.826829
              ],
              [
                -76.986763,
                39.82684
              ],
              [
                -76.986633,
                39.82684
              ],
              [
                -76.986633,
                39.827036
              ],
              [
                -76.986659,
                39.827036
              ],
              [
                -76.986659,
                39.827059
              ],
              [
                -76.986622,
                39.827059
              ],
              [
                -76.986622,
                39.82708
              ],
              [
                -76.987022,
                39.82708
              ],
              [
                -76.987022,
                39.827065
              ],
              [
                -76.98704,
                39.827065
              ],
              [
                -76.98704,
                39.827055
              ],
              [
                -76.987003,
                39.827055
              ],
              [
                -76.987003,
                39.827014
              ],
              [
                -76.987035,
                39.827014
              ],
              [
                -76.987035,
                39.826839
              ],
              [
                -76.987003,
                39.826839
              ],
              [
                -76.987003,
                39.826837
              ],
              [
                -76.986969,
                39.826837
              ],
              [
                -76.986969,
                39.827055
              ],
              [
                -76.986937,
                39.827055
              ],
              [
                -76.986937,
                39.827036
              ],
              [
                -76.986905,
                39.827036
              ],
              [
                -76.986905,
                39.826905
              ],
              [
                -76.986873,
                39.826905
              ],
              [
                -76.986873,
                39.826843
              ]
            ]
          ],
          [
            [
              [
                -76.986458,
                39.826487
              ],
              [
                -76.986458,
                39.826444
              ],
              [
                -76.986464,
                39.826444
              ],
              [
                -76.986464,
                39.826423
              ],
              [
                -76.986683,
                39.826423
              ],
              [
                -76.986683,
                39.826438
              ],
              [
                -76.986698,
                39.826438
              ],
              [
                -76.986698,
                39.826423
              ],
              [
                -76.986862,
                39.826423
              ],
              [
                -76.986862,
                39.826481
              ],
              [
                -76.986875,
                39.826481
              ],
              [
                -76.986875,
                39.826487
              ],
              [
                -76.986458,
                39.826487
              ]
            ]
          ],
          [
            [
              [
                -76.985647,
                39.826423
              ],
              [
                -76.985626,
                39.826423
              ],
              [
                -76.985626,
                39.826474
              ],
              [
                -76.985647,
                39.826474
              ],
              [
                -76.985647,
                39.826423
              ]
            ]
          ]
        ]
      },
      "properties": {
        "fill": "#D9E2F6",
        "stroke-width": "0.5",
        "stroke": "#96A3BD",
        "opacity": "0.75"
      }
    },
    {
      "type": "Feature",
      "geometry": {
        "type": "MultiLineString",
        "coordinates": []
      },
      "properties": {
        "stroke-width": "0.5"
      }
    },
    {
      "type": "Feature",
      "geometry": {
        "type": "Point",
        "coordinates": [
          -76.986311,
          39.826781
        ]
      },
      "properties": {
        "type": "P",
        "sub_category": "Services",
        "poi_name": "WIRE CUTTING",
        "profile": "STORE SERVICES",
        "icon_id": "wire_cutting",
        "orientation": 0
      }
    },
    {
      "type": "Feature",
      "geometry": {
        "type": "Point",
        "coordinates": [
          -76.986136,
          39.826403
        ]
      },
      "properties": {
        "type": "P",
        "sub_category": "EntryExit",
        "poi_name": "MAIN ENTRANCE",
        "profile": "BASIC INFO",
        "icon_id": "entrance_exit",
        "orientation": 0
      }
    },
    {
      "type": "Feature",
      "geometry": {
        "type": "Point",
        "coordinates": [
          -76.986361,
          39.826431
        ]
      },
      "properties": {
        "type": "P",
        "sub_category": "EntryExit",
        "poi_name": "MAIN EXIT",
        "profile": "BASIC INFO",
        "icon_id": "entrance_exit",
        "orientation": 0
      }
    },
    {
      "type": "Feature",
      "geometry": {
        "type": "Point",
        "coordinates": [
          -76.987017,
          39.826412
        ]
      },
      "properties": {
        "type": "P",
        "sub_category": "EntryExit",
        "poi_name": "PRO ENTRANCE",
        "profile": "BASIC INFO",
        "icon_id": "entrance_exit",
        "orientation": 0
      }
    },
    {
      "type": "Feature",
      "geometry": {
        "type": "Point",
        "coordinates": [
          -76.987017,
          39.826434
        ]
      },
      "properties": {
        "type": "P",
        "sub_category": "EntryExit",
        "poi_name": "PRO EXIT",
        "profile": "BASIC INFO",
        "icon_id": "entrance_exit",
        "orientation": 0
      }
    },
    {
      "type": "Feature",
      "geometry": {
        "type": "Point",
        "coordinates": [
          -76.985435,
          39.8264
        ]
      },
      "properties": {
        "type": "P",
        "sub_category": "EntryExit",
        "poi_name": "GARDEN CENTER ENTRANCE",
        "profile": "BASIC INFO",
        "icon_id": "entrance_exit",
        "orientation": 0
      }
    },
    {
      "type": "Feature",
      "geometry": {
        "type": "Point",
        "coordinates": [
          -76.985436,
          39.826435
        ]
      },
      "properties": {
        "type": "P",
        "sub_category": "EntryExit",
        "poi_name": "GARDEN CENTER EXIT",
        "profile": "BASIC INFO",
        "icon_id": "entrance_exit",
        "orientation": 0
      }
    },
    {
      "type": "Feature",
      "geometry": {
        "type": "Point",
        "coordinates": [
          -76.98629,
          39.827112
        ]
      },
      "properties": {
        "type": "P",
        "sub_category": "Restrooms",
        "poi_name": "MEN/WOMEN’S RESTROOMS",
        "profile": "BASIC INFO",
        "icon_id": "restrooms",
        "orientation": 0
      }
    },
    {
      "type": "Feature",
      "geometry": {
        "type": "Point",
        "coordinates": [
          -76.986961,
          39.82647
        ]
      },
      "properties": {
        "type": "P",
        "sub_category": "ServiceDesks",
        "poi_name": "PRO SERVICE DESK",
        "profile": "BASIC INFO",
        "icon_id": "pro_service_desk",
        "orientation": 0
      }
    },
    {
      "type": "Feature",
      "geometry": {
        "type": "Point",
        "coordinates": [
          -76.986129,
          39.826924
        ]
      },
      "properties": {
        "type": "P",
        "sub_category": "ServiceDesks",
        "poi_name": "APPLIANCE DESK",
        "profile": "STORE SERVICES",
        "icon_id": "appliance_desk",
        "orientation": 0
      }
    },
    {
      "type": "Feature",
      "geometry": {
        "type": "Point",
        "coordinates": [
          -76.986502,
          39.826861
        ]
      },
      "properties": {
        "type": "P",
        "sub_category": "ServiceDesks",
        "poi_name": "FLOORING DESK",
        "profile": "STORE SERVICES",
        "icon_id": "flooring_desk",
        "orientation": 0
      }
    },
    {
      "type": "Feature",
      "geometry": {
        "type": "Point",
        "coordinates": [
          -76.986406,
          39.826774
        ]
      },
      "properties": {
        "type": "P",
        "sub_category": "ServiceDesks",
        "poi_name": "HOME DECOR DESK",
        "profile": "STORE SERVICES",
        "icon_id": "home_décor_desk",
        "orientation": 0
      }
    },
    {
      "type": "Feature",
      "geometry": {
        "type": "Point",
        "coordinates": [
          -76.986291,
          39.826994
        ]
      },
      "properties": {
        "type": "P",
        "sub_category": "ServiceDesks",
        "poi_name": "KITCHEN DESIGN DESK",
        "profile": "STORE SERVICES",
        "icon_id": "kitchen_design_desk",
        "orientation": 0
      }
    },
    {
      "type": "Feature",
      "geometry": {
        "type": "Point",
        "coordinates": [
          -76.987019,
          39.826475
        ]
      },
      "properties": {
        "type": "P",
        "sub_category": "Checkouts",
        "poi_name": "PRO CHECKOUT",
        "profile": "BASIC INFO",
        "icon_id": "checkouts",
        "orientation": 0
      }
    },
    {
      "type": "Feature",
      "geometry": {
        "type": "Point",
        "coordinates": [
          -76.985437,
          39.82649
        ]
      },
      "properties": {
        "type": "P",
        "sub_category": "Checkouts",
        "poi_name": "GARDEN CENTER CHECKOUT",
        "profile": "BASIC INFO",
        "icon_id": "checkouts",
        "orientation": 0
      }
    },
    {
      "type": "Feature",
      "geometry": {
        "type": "Point",
        "coordinates": [
          -76.986783,
          39.826728
        ]
      },
      "properties": {
        "type": "P",
        "sub_category": "Services",
        "poi_name": "CHAIN AND ROPE CUTTING",
        "profile": "STORE SERVICES",
        "icon_id": "chain_rope_cutting",
        "orientation": 0
      }
    },
    {
      "type": "Feature",
      "geometry": {
        "type": "Point",
        "coordinates": [
          -76.986752,
          39.826531
        ]
      },
      "properties": {
        "type": "P",
        "sub_category": "Services",
        "poi_name": "KEY CUTTING",
        "profile": "STORE SERVICES",
        "icon_id": "key_copying",
        "orientation": 0
      }
    },
    {
      "type": "Feature",
      "geometry": {
        "type": "Point",
        "coordinates": [
          -76.986796,
          39.826634
        ]
      },
      "properties": {
        "type": "P",
        "sub_category": "Services",
        "poi_name": "GLASS CUTTING",
        "profile": "STORE SERVICES",
        "icon_id": "glass_cutting",
        "orientation": 0
      }
    },
    {
      "type": "Feature",
      "geometry": {
        "type": "Point",
        "coordinates": [
          -76.987037,
          39.827033
        ]
      },
      "properties": {
        "type": "P",
        "sub_category": "Services",
        "poi_name": "WOOD CUTTING",
        "profile": "STORE SERVICES",
        "icon_id": "wood_cutting",
        "orientation": 0
      }
    },
    {
      "type": "Feature",
      "geometry": {
        "type": "Point",
        "coordinates": [
          -76.986402,
          39.826718
        ]
      },
      "properties": {
        "type": "P",
        "sub_category": "Services",
        "poi_name": "BLIND CUTTING",
        "profile": "STORE SERVICES",
        "icon_id": "blind_cutting",
        "orientation": 0
      }
    },
    {
      "type": "Feature",
      "geometry": {
        "type": "Point",
        "coordinates": [
          -76.986105,
          39.826465
        ]
      },
      "properties": {
        "type": "P",
        "sub_category": "ServiceDesks",
        "poi_name": "CUSTOMER SERVICE",
        "profile": "BASIC INFO",
        "icon_id": "customer_service_desk",
        "orientation": 0
      }
    },
    {
      "type": "Feature",
      "geometry": {
        "type": "Point",
        "coordinates": [
          -76.986284,
          39.826495
        ]
      },
      "properties": {
        "type": "P",
        "sub_category": "Checkouts",
        "poi_name": "MAIN CHECKOUT",
        "profile": "BASIC INFO",
        "icon_id": "checkouts",
        "orientation": 0
      }
    },
    {
      "type": "Feature",
      "geometry": {
        "type": "Point",
        "coordinates": [
          -76.986349,
          39.826491
        ]
      },
      "properties": {
        "type": "P",
        "sub_category": "Checkouts",
        "poi_name": "MAIN SELF-CHECKOUT",
        "profile": "BASIC INFO",
        "icon_id": "checkouts",
        "orientation": 0
      }
    },
    {
      "type": "Feature",
      "geometry": {
        "type": "Point",
        "coordinates": [
          -76.986104,
          39.826476
        ]
      },
      "properties": {
        "type": "P",
        "sub_category": "Services",
        "poi_name": "RETURNS",
        "profile": "BASIC INFO",
        "icon_id": "returns",
        "orientation": 0
      }
    },
    {
      "type": "Feature",
      "geometry": {
        "type": "Point",
        "coordinates": [
          -76.986205,
          39.826432
        ]
      },
      "properties": {
        "type": "P",
        "sub_category": "Services",
        "poi_name": "PRODUCT PICK-UP",
        "profile": "BASIC INFO",
        "icon_id": "store_pick_up",
        "orientation": 0
      }
    },
    {
      "type": "Feature",
      "geometry": {
        "type": "Point",
        "coordinates": [
          -76.986168,
          39.826432
        ]
      },
      "properties": {
        "type": "P",
        "sub_category": "Services",
        "poi_name": "PICKUP LOCKER",
        "profile": "BASIC INFO",
        "icon_id": "pickup_lockers",
        "orientation": 0
      }
    },
    {
      "type": "Feature",
      "geometry": {
        "type": "Point",
        "coordinates": [
          -76.986407,
          39.82706
        ]
      },
      "properties": {
        "type": "P",
        "sub_category": "Services",
        "poi_name": "CARPET CUTTING",
        "profile": "STORE SERVICES",
        "icon_id": "carpet_cutting",
        "orientation": 0
      }
    },
    {
      "type": "Feature",
      "geometry": {
        "type": "Point",
        "coordinates": [
          -76.986794,
          39.826821
        ]
      },
      "properties": {
        "type": "P",
        "sub_category": "ServiceDesks",
        "poi_name": "MILLWORK DESK",
        "profile": "STORE SERVICES",
        "icon_id": "millwork_desk",
        "orientation": 0
      }
    },
    {
      "type": "Feature",
      "geometry": {
        "type": "Point",
        "coordinates": [
          -76.985979,
          39.827162
        ]
      },
      "properties": {
        "type": "P",
        "sub_category": "ServiceDesks",
        "poi_name": "RECEIVING DESK",
        "profile": "BASIC INFO",
        "icon_id": "receiving_desk",
        "orientation": 0
      }
    },
    {
      "type": "Feature",
      "geometry": {
        "type": "Point",
        "coordinates": [
          -76.986993,
          39.826654
        ]
      },
      "properties": {
        "name": "LUMBER",
        "orientation": 0
      }
    },
    {
      "type": "Feature",
      "geometry": {
        "type": "Point",
        "coordinates": [
          -76.986938,
          39.826942
        ]
      },
      "properties": {
        "name": "BUILDING MATERIALS",
        "orientation": 0
      }
    },
    {
      "type": "Feature",
      "geometry": {
        "type": "Point",
        "coordinates": [
          -76.985918,
          39.826927
        ]
      },
      "properties": {
        "name": "FASHION PLUMBING",
        "orientation": 0
      }
    },
    {
      "type": "Feature",
      "geometry": {
        "type": "Point",
        "coordinates": [
          -76.986357,
          39.826655
        ]
      },
      "properties": {
        "name": "ROUGH PLUMBING",
        "orientation": 0
      }
    },
    {
      "type": "Feature",
      "geometry": {
        "type": "Point",
        "coordinates": [
          -76.985825,
          39.82676
        ]
      },
      "properties": {
        "name": "ROUGH PLUMBING",
        "orientation": 0
      }
    },
    {
      "type": "Feature",
      "geometry": {
        "type": "Point",
        "coordinates": [
          -76.98651,
          39.826652
        ]
      },
      "properties": {
        "name": "PAINT",
        "orientation": 0
      }
    },
    {
      "type": "Feature",
      "geometry": {
        "type": "Point",
        "coordinates": [
          -76.986812,
          39.826655
        ]
      },
      "properties": {
        "name": "TOOLS",
        "orientation": 0
      }
    },
    {
      "type": "Feature",
      "geometry": {
        "type": "Point",
        "coordinates": [
          -76.985839,
          39.826737
        ]
      },
      "properties": {
        "name": "CLEANING",
        "orientation": 0
      }
    },
    {
      "type": "Feature",
      "geometry": {
        "type": "Point",
        "coordinates": [
          -76.985702,
          39.826453
        ]
      },
      "properties": {
        "name": "INSIDE LAWN AND GARDEN",
        "orientation": 0
      }
    },
    {
      "type": "Feature",
      "geometry": {
        "type": "Point",
        "coordinates": [
          -76.985853,
          39.82671
        ]
      },
      "properties": {
        "name": "INSIDE LAWN AND GARDEN",
        "orientation": 0
      }
    },
    {
      "type": "Feature",
      "geometry": {
        "type": "Point",
        "coordinates": [
          -76.985542,
          39.826448
        ]
      },
      "properties": {
        "name": "OUTSIDE LAWN AND GARDEN",
        "orientation": 0
      }
    },
    {
      "type": "Feature",
      "geometry": {
        "type": "Point",
        "coordinates": [
          -76.985359,
          39.826967
        ]
      },
      "properties": {
        "name": "OUTSIDE LAWN AND GARDEN",
        "orientation": 0
      }
    },
    {
      "type": "Feature",
      "geometry": {
        "type": "Point",
        "coordinates": [
          -76.985709,
          39.826805
        ]
      },
      "properties": {
        "name": "OUTSIDE LAWN AND GARDEN",
        "orientation": 0
      }
    },
    {
      "type": "Feature",
      "geometry": {
        "type": "Point",
        "coordinates": [
          -76.985493,
          39.826635
        ]
      },
      "properties": {
        "name": "OUTSIDE LAWN AND GARDEN",
        "orientation": 0
      }
    },
    {
      "type": "Feature",
      "geometry": {
        "type": "Point",
        "coordinates": [
          -76.98555,
          39.826753
        ]
      },
      "properties": {
        "name": "GARDEN CENTER",
        "orientation": 0
      }
    },
    {
      "type": "Feature",
      "geometry": {
        "type": "Point",
        "coordinates": [
          -76.985836,
          39.826602
        ]
      },
      "properties": {
        "name": "INSIDE LAWN AND GARDEN",
        "orientation": 0
      }
    },
    {
      "type": "Feature",
      "geometry": {
        "type": "Point",
        "coordinates": [
          -76.986498,
          39.826954
        ]
      },
      "properties": {
        "name": "FLOORING",
        "orientation": 0
      }
    },
    {
      "type": "Feature",
      "geometry": {
        "type": "Point",
        "coordinates": [
          -76.986896,
          39.826659
        ]
      },
      "properties": {
        "name": "BUILDING MATERIALS",
        "orientation": 0
      }
    },
    {
      "type": "Feature",
      "geometry": {
        "type": "Point",
        "coordinates": [
          -76.986225,
          39.826944
        ]
      },
      "properties": {
        "name": "APPLIANCES",
        "orientation": 0
      }
    },
    {
      "type": "Feature",
      "geometry": {
        "type": "Point",
        "coordinates": [
          -76.986303,
          39.826655
        ]
      },
      "properties": {
        "name": "ROUGH ELECTRICAL",
        "orientation": 0
      }
    },
    {
      "type": "Feature",
      "geometry": {
        "type": "Point",
        "coordinates": [
          -76.987105,
          39.826751
        ]
      },
      "properties": {
        "name": "LUMBER",
        "orientation": 0
      }
    },
    {
      "type": "Feature",
      "geometry": {
        "type": "Point",
        "coordinates": [
          -76.98555,
          39.826959
        ]
      },
      "properties": {
        "name": "OUTSIDE LAWN AND GARDEN",
        "orientation": 0
      }
    },
    {
      "type": "Feature",
      "geometry": {
        "type": "Point",
        "coordinates": [
          -76.986639,
          39.826656
        ]
      },
      "properties": {
        "name": "STORAGE",
        "orientation": 0
      }
    },
    {
      "type": "Feature",
      "geometry": {
        "type": "Point",
        "coordinates": [
          -76.985912,
          39.827039
        ]
      },
      "properties": {
        "name": "APPLIANCES",
        "orientation": 0
      }
    },
    {
      "type": "Feature",
      "geometry": {
        "type": "Point",
        "coordinates": [
          -76.98577,
          39.826961
        ]
      },
      "properties": {
        "name": "FASHION PLUMBING",
        "orientation": 0
      }
    },
    {
      "type": "Feature",
      "geometry": {
        "type": "Point",
        "coordinates": [
          -76.986188,
          39.826655
        ]
      },
      "properties": {
        "name": "LIGHTING",
        "orientation": 0
      }
    },
    {
      "type": "Feature",
      "geometry": {
        "type": "Point",
        "coordinates": [
          -76.986083,
          39.826655
        ]
      },
      "properties": {
        "name": "CLEANING",
        "orientation": 0
      }
    },
    {
      "type": "Feature",
      "geometry": {
        "type": "Point",
        "coordinates": [
          -76.986747,
          39.826655
        ]
      },
      "properties": {
        "name": "HARDWARE",
        "orientation": 0
      }
    },
    {
      "type": "Feature",
      "geometry": {
        "type": "Point",
        "coordinates": [
          -76.98585,
          39.826664
        ]
      },
      "properties": {
        "name": "OUTDOOR POWER EQUIPMENT",
        "orientation": 0
      }
    },
    {
      "type": "Feature",
      "geometry": {
        "type": "Point",
        "coordinates": [
          -76.985736,
          39.826896
        ]
      },
      "properties": {
        "name": "INSIDE LAWN AND GARDEN",
        "orientation": 0
      }
    },
    {
      "type": "Feature",
      "geometry": {
        "type": "Point",
        "coordinates": [
          -76.987034,
          39.826947
        ]
      },
      "properties": {
        "name": "LUMBER",
        "orientation": 0
      }
    },
    {
      "type": "Feature",
      "geometry": {
        "type": "Point",
        "coordinates": [
          -76.986081,
          39.827005
        ]
      },
      "properties": {
        "name": "CABINETS",
        "orientation": 0
      }
    },
    {
      "type": "Feature",
      "geometry": {
        "type": "Point",
        "coordinates": [
          -76.985804,
          39.826453
        ]
      },
      "properties": {
        "name": "INSIDE LAWN AND GARDEN",
        "orientation": 0
      }
    },
    {
      "type": "Feature",
      "geometry": {
        "type": "Point",
        "coordinates": [
          -76.986409,
          39.82666
        ]
      },
      "properties": {
        "name": "HOME DECOR",
        "orientation": 0
      }
    },
    {
      "type": "Feature",
      "geometry": {
        "type": "Point",
        "coordinates": [
          -76.986832,
          39.826954
        ]
      },
      "properties": {
        "name": "MILLWORK",
        "orientation": 0
      }
    },
    {
      "type": "Feature",
      "geometry": {
        "type": "Point",
        "coordinates": [
          -76.986666,
          39.826455
        ]
      },
      "properties": {
        "name": "TOOLS",
        "orientation": 0
      }
    },
    {
      "type": "Feature",
      "geometry": {
        "type": "Point",
        "coordinates": [
          -76.985636,
          39.826449
        ]
      },
      "properties": {
        "name": "OUTSIDE LAWN AND GARDEN",
        "orientation": 0
      }
    }
  ]
}