{"type": "FeatureCollection", "name": "Lowes_aisle_point", "crs": {"type": "name", "properties": {"name": "urn:ogc:def:crs:EPSG::4326"}}, "features": [{"type": "Feature", "properties": {"fill": null, "stroke-width": null, "stroke": null, "type": "A", "name": "48", "orientation": 0}, "geometry": {"type": "Point", "coordinates": [-72.71565545826488, 41.81428484689738]}}, {"type": "Feature", "properties": {"fill": null, "stroke-width": null, "stroke": null, "type": "A", "name": "49", "orientation": 0}, "geometry": {"type": "Point", "coordinates": [-72.71570045826486, 41.81428484689738]}}, {"type": "Feature", "properties": {"fill": null, "stroke-width": null, "stroke": null, "type": "A", "name": "47", "orientation": 0}, "geometry": {"type": "Point", "coordinates": [-72.71560945826486, 41.81428484689738]}}, {"type": "Feature", "properties": {"fill": null, "stroke-width": null, "stroke": null, "type": "A", "name": "1", "orientation": 0}, "geometry": {"type": "Point", "coordinates": [-72.71503145826486, 41.81395384689738]}}, {"type": "Feature", "properties": {"fill": null, "stroke-width": null, "stroke": null, "type": "A", "name": "43", "orientation": 0}, "geometry": {"type": "Point", "coordinates": [-72.71541545826484, 41.814376846897375]}}, {"type": "Feature", "properties": {"fill": null, "stroke-width": null, "stroke": null, "type": "A", "name": "22", "orientation": 0}, "geometry": {"type": "Point", "coordinates": [-72.71498445826487, 41.81387684689736]}}, {"type": "Feature", "properties": {"fill": null, "stroke-width": null, "stroke": null, "type": "A", "name": "7", "orientation": 0}, "geometry": {"type": "Point", "coordinates": [-72.71528545826486, 41.81405584689737]}}, {"type": "Feature", "properties": {"fill": null, "stroke-width": null, "stroke": null, "type": "A", "name": "2", "orientation": 0}, "geometry": {"type": "Point", "coordinates": [-72.71507845826486, 41.81395384689739]}}, {"type": "Feature", "properties": {"fill": null, "stroke-width": null, "stroke": null, "type": "A", "name": "3", "orientation": 0}, "geometry": {"type": "Point", "coordinates": [-72.71512045826486, 41.8139498468974]}}, {"type": "Feature", "properties": {"fill": null, "stroke-width": null, "stroke": null, "type": "A", "name": "4", "orientation": 0}, "geometry": {"type": "Point", "coordinates": [-72.71516545826486, 41.81395384689738]}}, {"type": "Feature", "properties": {"fill": null, "stroke-width": null, "stroke": null, "type": "A", "name": "5", "orientation": 0}, "geometry": {"type": "Point", "coordinates": [-72.71520745826486, 41.81395384689739]}}, {"type": "Feature", "properties": {"fill": null, "stroke-width": null, "stroke": null, "type": "A", "name": "6", "orientation": 0}, "geometry": {"type": "Point", "coordinates": [-72.71524645826484, 41.81395384689739]}}, {"type": "Feature", "properties": {"fill": null, "stroke-width": null, "stroke": null, "type": "A", "name": "8", "orientation": 0}, "geometry": {"type": "Point", "coordinates": [-72.71532645826487, 41.813956846897376]}}, {"type": "Feature", "properties": {"fill": null, "stroke-width": null, "stroke": null, "type": "A", "name": "9", "orientation": 0}, "geometry": {"type": "Point", "coordinates": [-72.71537245826487, 41.81395384689738]}}, {"type": "Feature", "properties": {"fill": null, "stroke-width": null, "stroke": null, "type": "A", "name": "10", "orientation": 0}, "geometry": {"type": "Point", "coordinates": [-72.71541845826486, 41.81395384689738]}}, {"type": "Feature", "properties": {"fill": null, "stroke-width": null, "stroke": null, "type": "A", "name": "11", "orientation": 0}, "geometry": {"type": "Point", "coordinates": [-72.71546345826489, 41.81395384689737]}}, {"type": "Feature", "properties": {"fill": null, "stroke-width": null, "stroke": null, "type": "A", "name": "13", "orientation": 0}, "geometry": {"type": "Point", "coordinates": [-72.71555745826487, 41.81395384689737]}}, {"type": "Feature", "properties": {"fill": null, "stroke-width": null, "stroke": null, "type": "A", "name": "15", "orientation": 0}, "geometry": {"type": "Point", "coordinates": [-72.71564545826486, 41.81395384689738]}}, {"type": "Feature", "properties": {"fill": null, "stroke-width": null, "stroke": null, "type": "A", "name": "16", "orientation": 0}, "geometry": {"type": "Point", "coordinates": [-72.71568445826487, 41.81395384689736]}}, {"type": "Feature", "properties": {"fill": null, "stroke-width": null, "stroke": null, "type": "A", "name": "17", "orientation": 0}, "geometry": {"type": "Point", "coordinates": [-72.71572945826486, 41.813953846897384]}}, {"type": "Feature", "properties": {"fill": null, "stroke-width": null, "stroke": null, "type": "A", "name": "18", "orientation": 0}, "geometry": {"type": "Point", "coordinates": [-72.71578345826488, 41.813953846897384]}}, {"type": "Feature", "properties": {"fill": null, "stroke-width": null, "stroke": null, "type": "A", "name": "19", "orientation": 0}, "geometry": {"type": "Point", "coordinates": [-72.71585245826486, 41.81395384689738]}}, {"type": "Feature", "properties": {"fill": null, "stroke-width": null, "stroke": null, "type": "A", "name": "20", "orientation": 0}, "geometry": {"type": "Point", "coordinates": [-72.71592145826487, 41.813953846897384]}}, {"type": "Feature", "properties": {"fill": null, "stroke-width": null, "stroke": null, "type": "A", "name": "12", "orientation": 0}, "geometry": {"type": "Point", "coordinates": [-72.71550945826485, 41.81395384689739]}}, {"type": "Feature", "properties": {"fill": null, "stroke-width": null, "stroke": null, "type": "A", "name": "14", "orientation": 0}, "geometry": {"type": "Point", "coordinates": [-72.71559645826486, 41.81395384689738]}}, {"type": "Feature", "properties": {"fill": null, "stroke-width": null, "stroke": null, "type": "A", "name": "24", "orientation": 0}, "geometry": {"type": "Point", "coordinates": [-72.71491445826486, 41.813992846897385]}}, {"type": "Feature", "properties": {"fill": null, "stroke-width": null, "stroke": null, "type": "A", "name": "25", "orientation": 0}, "geometry": {"type": "Point", "coordinates": [-72.71491145826487, 41.8140378468974]}}, {"type": "Feature", "properties": {"fill": null, "stroke-width": null, "stroke": null, "type": "A", "name": "26", "orientation": 0}, "geometry": {"type": "Point", "coordinates": [-72.71491145826485, 41.814084846897366]}}, {"type": "Feature", "properties": {"fill": null, "stroke-width": null, "stroke": null, "type": "A", "name": "27", "orientation": 0}, "geometry": {"type": "Point", "coordinates": [-72.71491145826485, 41.81413284689738]}}, {"type": "Feature", "properties": {"fill": null, "stroke-width": null, "stroke": null, "type": "A", "name": "28", "orientation": 0}, "geometry": {"type": "Point", "coordinates": [-72.71499645826488, 41.8141788468974]}}, {"type": "Feature", "properties": {"fill": null, "stroke-width": null, "stroke": null, "type": "A", "name": "30", "orientation": 0}, "geometry": {"type": "Point", "coordinates": [-72.71499645826485, 41.81426484689739]}}, {"type": "Feature", "properties": {"fill": null, "stroke-width": null, "stroke": null, "type": "A", "name": "31", "orientation": 0}, "geometry": {"type": "Point", "coordinates": [-72.71474345826486, 41.81428484689738]}}, {"type": "Feature", "properties": {"fill": null, "stroke-width": null, "stroke": null, "type": "A", "name": "34", "orientation": 0}, "geometry": {"type": "Point", "coordinates": [-72.71501445826487, 41.814284846897365]}}, {"type": "Feature", "properties": {"fill": null, "stroke-width": null, "stroke": null, "type": "A", "name": "35", "orientation": 0}, "geometry": {"type": "Point", "coordinates": [-72.71505445826486, 41.81428484689737]}}, {"type": "Feature", "properties": {"fill": null, "stroke-width": null, "stroke": null, "type": "A", "name": "36", "orientation": 0}, "geometry": {"type": "Point", "coordinates": [-72.71510045826487, 41.81428484689738]}}, {"type": "Feature", "properties": {"fill": null, "stroke-width": null, "stroke": null, "type": "A", "name": "37", "orientation": 0}, "geometry": {"type": "Point", "coordinates": [-72.71514545826486, 41.81437884689738]}}, {"type": "Feature", "properties": {"fill": null, "stroke-width": null, "stroke": null, "type": "A", "name": "38", "orientation": 0}, "geometry": {"type": "Point", "coordinates": [-72.71518545826487, 41.8143788468974]}}, {"type": "Feature", "properties": {"fill": null, "stroke-width": null, "stroke": null, "type": "A", "name": "39", "orientation": 0}, "geometry": {"type": "Point", "coordinates": [-72.71524045826487, 41.81437884689739]}}, {"type": "Feature", "properties": {"fill": null, "stroke-width": null, "stroke": null, "type": "A", "name": "40", "orientation": 0}, "geometry": {"type": "Point", "coordinates": [-72.71528945826486, 41.81436984689739]}}, {"type": "Feature", "properties": {"fill": null, "stroke-width": null, "stroke": null, "type": "A", "name": "41", "orientation": 0}, "geometry": {"type": "Point", "coordinates": [-72.71533645826486, 41.814376846897375]}}, {"type": "Feature", "properties": {"fill": null, "stroke-width": null, "stroke": null, "type": "A", "name": "42", "orientation": 0}, "geometry": {"type": "Point", "coordinates": [-72.71537645826487, 41.81437684689738]}}, {"type": "Feature", "properties": {"fill": null, "stroke-width": null, "stroke": null, "type": "A", "name": "43", "orientation": 0}, "geometry": {"type": "Point", "coordinates": [-72.71541945826483, 41.81437684689738]}}, {"type": "Feature", "properties": {"fill": null, "stroke-width": null, "stroke": null, "type": "A", "name": "44", "orientation": 0}, "geometry": {"type": "Point", "coordinates": [-72.71546645826486, 41.814376846897396]}}, {"type": "Feature", "properties": {"fill": null, "stroke-width": null, "stroke": null, "type": "A", "name": "46", "orientation": 0}, "geometry": {"type": "Point", "coordinates": [-72.71555845826485, 41.814336846897405]}}, {"type": "Feature", "properties": {"fill": null, "stroke-width": null, "stroke": null, "type": "A", "name": "50", "orientation": 0}, "geometry": {"type": "Point", "coordinates": [-72.71574745826486, 41.81428484689737]}}, {"type": "Feature", "properties": {"fill": null, "stroke-width": null, "stroke": null, "type": "A", "name": "51", "orientation": 0}, "geometry": {"type": "Point", "coordinates": [-72.71579445826487, 41.81428484689738]}}, {"type": "Feature", "properties": {"fill": null, "stroke-width": null, "stroke": null, "type": "A", "name": "52", "orientation": 0}, "geometry": {"type": "Point", "coordinates": [-72.71585245826486, 41.81428484689738]}}, {"type": "Feature", "properties": {"fill": null, "stroke-width": null, "stroke": null, "type": "A", "name": "53", "orientation": 0}, "geometry": {"type": "Point", "coordinates": [-72.71592545826486, 41.81428484689738]}}, {"type": "Feature", "properties": {"fill": null, "stroke-width": null, "stroke": null, "type": "A", "name": "59", "orientation": 0}, "geometry": {"type": "Point", "coordinates": [-72.71542045826486, 41.813867846897395]}}, {"type": "Feature", "properties": {"fill": null, "stroke-width": null, "stroke": null, "type": "A", "name": "61", "orientation": 0}, "geometry": {"type": "Point", "coordinates": [-72.71545345826486, 41.81393384689738]}}, {"type": "Feature", "properties": {"fill": null, "stroke-width": null, "stroke": null, "type": "A", "name": "62", "orientation": 0}, "geometry": {"type": "Point", "coordinates": [-72.71548045826486, 41.81393384689738]}}, {"type": "Feature", "properties": {"fill": null, "stroke-width": null, "stroke": null, "type": "A", "name": "63", "orientation": 0}, "geometry": {"type": "Point", "coordinates": [-72.71549245826488, 41.813897846897376]}}, {"type": "Feature", "properties": {"fill": null, "stroke-width": null, "stroke": null, "type": "A", "name": "64", "orientation": 0}, "geometry": {"type": "Point", "coordinates": [-72.71549245826485, 41.813933846897385]}}, {"type": "Feature", "properties": {"fill": null, "stroke-width": null, "stroke": null, "type": "A", "name": "65", "orientation": 0}, "geometry": {"type": "Point", "coordinates": [-72.71567345826485, 41.81393284689739]}}, {"type": "Feature", "properties": {"fill": null, "stroke-width": null, "stroke": null, "type": "A", "name": "66", "orientation": 0}, "geometry": {"type": "Point", "coordinates": [-72.71569845826485, 41.81393384689738]}}, {"type": "Feature", "properties": {"fill": null, "stroke-width": null, "stroke": null, "type": "A", "name": "67", "orientation": 0}, "geometry": {"type": "Point", "coordinates": [-72.71570445826487, 41.813893846897386]}}, {"type": "Feature", "properties": {"fill": null, "stroke-width": null, "stroke": null, "type": "A", "name": "68", "orientation": 0}, "geometry": {"type": "Point", "coordinates": [-72.71570445826487, 41.81392084689739]}}, {"type": "Feature", "properties": {"fill": null, "stroke-width": null, "stroke": null, "type": "A", "name": "69", "orientation": 0}, "geometry": {"type": "Point", "coordinates": [-72.71576245826486, 41.81393384689737]}}, {"type": "Feature", "properties": {"fill": null, "stroke-width": null, "stroke": null, "type": "A", "name": "70", "orientation": 0}, "geometry": {"type": "Point", "coordinates": [-72.71578545826486, 41.81393384689737]}}, {"type": "Feature", "properties": {"fill": null, "stroke-width": null, "stroke": null, "type": "A", "name": "71", "orientation": 0}, "geometry": {"type": "Point", "coordinates": [-72.71581245826486, 41.81393384689738]}}, {"type": "Feature", "properties": {"fill": null, "stroke-width": null, "stroke": null, "type": "A", "name": "BACK WALL", "orientation": 0}, "geometry": {"type": "Point", "coordinates": [-72.71479945826486, 41.81460784689737]}}, {"type": "Feature", "properties": {"fill": null, "stroke-width": null, "stroke": null, "type": "A", "name": "BACK WALL", "orientation": 0}, "geometry": {"type": "Point", "coordinates": [-72.71543645826486, 41.81460784689739]}}, {"type": "Feature", "properties": {"fill": null, "stroke-width": null, "stroke": null, "type": "A", "name": "BACK WALL", "orientation": 0}, "geometry": {"type": "Point", "coordinates": [-72.71596945826488, 41.814606846897384]}}, {"type": "Feature", "properties": {"fill": null, "stroke-width": null, "stroke": null, "type": "A", "name": "GC2", "orientation": 0}, "geometry": {"type": "Point", "coordinates": [-72.71461745826485, 41.81412184689738]}}, {"type": "Feature", "properties": {"fill": null, "stroke-width": null, "stroke": null, "type": "A", "name": "GC3", "orientation": 0}, "geometry": {"type": "Point", "coordinates": [-72.71455445826484, 41.81412184689738]}}, {"type": "Feature", "properties": {"fill": null, "stroke-width": null, "stroke": null, "type": "A", "name": "GC4", "orientation": 0}, "geometry": {"type": "Point", "coordinates": [-72.71448945826485, 41.81412184689739]}}, {"type": "Feature", "properties": {"fill": null, "stroke-width": null, "stroke": null, "type": "A", "name": "GC5", "orientation": 0}, "geometry": {"type": "Point", "coordinates": [-72.71442645826487, 41.81412184689737]}}, {"type": "Feature", "properties": {"fill": null, "stroke-width": null, "stroke": null, "type": "A", "name": "GC6", "orientation": 0}, "geometry": {"type": "Point", "coordinates": [-72.71436145826485, 41.814121846897386]}}, {"type": "Feature", "properties": {"fill": null, "stroke-width": null, "stroke": null, "type": "A", "name": "GC9", "orientation": 0}, "geometry": {"type": "Point", "coordinates": [-72.71463845826486, 41.81387284689737]}}, {"type": "Feature", "properties": {"fill": null, "stroke-width": null, "stroke": null, "type": "A", "name": "GC10", "orientation": 0}, "geometry": {"type": "Point", "coordinates": [-72.71459345826486, 41.81387284689737]}}, {"type": "Feature", "properties": {"fill": null, "stroke-width": null, "stroke": null, "type": "A", "name": "GC11", "orientation": 0}, "geometry": {"type": "Point", "coordinates": [-72.71455045826487, 41.81387284689738]}}, {"type": "Feature", "properties": {"fill": null, "stroke-width": null, "stroke": null, "type": "A", "name": "GC BACK WALL", "orientation": 0}, "geometry": {"type": "Point", "coordinates": [-72.71444545826488, 41.81430684689737]}}, {"type": "Feature", "properties": {"fill": null, "stroke-width": null, "stroke": null, "type": "A", "name": "GC SIDE WALL", "orientation": 0}, "geometry": {"type": "Point", "coordinates": [-72.71468745826486, 41.8140448468974]}}, {"type": "Feature", "properties": {"fill": null, "stroke-width": null, "stroke": null, "type": "A", "name": "GC SIDE WALL", "orientation": 0}, "geometry": {"type": "Point", "coordinates": [-72.71427945826485, 41.81394384689739]}}, {"type": "Feature", "properties": {"fill": null, "stroke-width": null, "stroke": null, "type": "A", "name": "SIDE WALL", "orientation": 0}, "geometry": {"type": "Point", "coordinates": [-72.71600645826486, 41.81411884689737]}}, {"type": "Feature", "properties": {"fill": null, "stroke-width": null, "stroke": null, "type": "A", "name": "SIDE WALL", "orientation": 0}, "geometry": {"type": "Point", "coordinates": [-72.71600845826487, 41.81442284689739]}}, {"type": "Feature", "properties": {"fill": null, "stroke-width": null, "stroke": null, "type": "A", "name": "21", "orientation": 0}, "geometry": {"type": "Point", "coordinates": [-72.71599545826484, 41.81395584689737]}}, {"type": "Feature", "properties": {"fill": null, "stroke-width": null, "stroke": null, "type": "A", "name": "54", "orientation": 0}, "geometry": {"type": "Point", "coordinates": [-72.71599545826486, 41.814284846897394]}}, {"type": "Feature", "properties": {"fill": null, "stroke-width": null, "stroke": null, "type": "A", "name": "72", "orientation": 0}, "geometry": {"type": "Point", "coordinates": [-72.71584245826486, 41.81393284689737]}}, {"type": "Feature", "properties": {"fill": null, "stroke-width": null, "stroke": null, "type": "A", "name": "GC1", "orientation": 0}, "geometry": {"type": "Point", "coordinates": [-72.71467945826487, 41.814122846897384]}}, {"type": "Feature", "properties": {"fill": null, "stroke-width": null, "stroke": null, "type": "A", "name": "GC7", "orientation": 0}, "geometry": {"type": "Point", "coordinates": [-72.71429945826485, 41.81411984689738]}}, {"type": "Feature", "properties": {"fill": null, "stroke-width": null, "stroke": null, "type": "A", "name": "29", "orientation": 0}, "geometry": {"type": "Point", "coordinates": [-72.71499645826489, 41.8142278468974]}}, {"type": "Feature", "properties": {"fill": null, "stroke-width": null, "stroke": null, "type": "A", "name": "GC8", "orientation": 0}, "geometry": {"type": "Point", "coordinates": [-72.71468445826486, 41.81387384689737]}}, {"type": "Feature", "properties": {"fill": null, "stroke-width": null, "stroke": null, "type": "A", "name": "60", "orientation": 0}, "geometry": {"type": "Point", "coordinates": [-72.71542245826485, 41.813933846897385]}}, {"type": "Feature", "properties": {"fill": null, "stroke-width": null, "stroke": null, "type": "A", "name": "58", "orientation": 0}, "geometry": {"type": "Point", "coordinates": [-72.71536745826486, 41.813933846897385]}}, {"type": "Feature", "properties": {"fill": null, "stroke-width": null, "stroke": null, "type": "A", "name": "GC SIDE WALL", "orientation": 0}, "geometry": {"type": "Point", "coordinates": [-72.71468545826487, 41.81418684689738]}}, {"type": "Feature", "properties": {"fill": null, "stroke-width": null, "stroke": null, "type": "A", "name": "GC SIDE WALL", "orientation": 0}, "geometry": {"type": "Point", "coordinates": [-72.71428645826487, 41.81419284689738]}}, {"type": "Feature", "properties": {"fill": null, "stroke-width": null, "stroke": null, "type": "A", "name": "SIDE WALL", "orientation": 0}, "geometry": {"type": "Point", "coordinates": [-72.71473245826488, 41.81411284689738]}}]}