{"type": "FeatureCollection", "name": "Lowes_depertment", "crs": {"type": "name", "properties": {"name": "urn:ogc:def:crs:EPSG::4326"}}, "features": [{"type": "Feature", "properties": {"fill": "#D9E2F6", "name": null, "stroke-width": "0.5", "stroke": "#96A3BD", "opacity": "0.75", "type": null, "sub_category": null, "poi_name": null, "profile": null, "icon_id": null, "orientation": null}, "geometry": {"type": "MultiPolygon", "coordinates": [[[[-72.71579445826487, 41.81429984689738], [-72.71581945826486, 41.814299846897384], [-72.71581945826486, 41.81435284689738], [-72.71579445826487, 41.81435284689739], [-72.71579445826487, 41.81429984689738]]], [[[-72.71591145826486, 41.81428984689738], [-72.71588445826487, 41.81428984689739], [-72.71585245826486, 41.81428984689738], [-72.71585245826486, 41.81437984689738], [-72.71581945826487, 41.81437984689738], [-72.71581945826485, 41.81456484689739], [-72.71583145826486, 41.814564846897376], [-72.71583145826486, 41.814594846897386], [-72.71576845826486, 41.81459484689738], [-72.71576845826483, 41.814630846897366], [-72.71586545826486, 41.81463084689739], [-72.71586545826486, 41.8146128468974], [-72.71587945826487, 41.8146128468974], [-72.71587945826487, 41.8146008468974], [-72.71591145826486, 41.8146008468974], [-72.71591145826486, 41.81428984689738]]], [[[-72.71596645826486, 41.81430084689739], [-72.71594045826487, 41.81430084689737], [-72.71594045826485, 41.814557846897365], [-72.71596645826486, 41.81455784689737], [-72.71596645826486, 41.81430084689739]]], [[[-72.71591145826487, 41.81395884689737], [-72.71585145826488, 41.813958846897386], [-72.71585145826486, 41.814254846897384], [-72.71591145826486, 41.81425484689736], [-72.71591145826487, 41.81395884689737]]], [[[-72.71603045826485, 41.81463084689738], [-72.71594345826486, 41.81463084689737], [-72.71594345826486, 41.8146008468974], [-72.71594045826487, 41.81460084689739], [-72.71594045826485, 41.81458984689738], [-72.71603045826485, 41.814589846897384], [-72.71603045826485, 41.81463084689738]]], [[[-72.71581945826487, 41.81437984689738], [-72.71585245826486, 41.81437984689738], [-72.71585245826486, 41.81429984689739], [-72.71581945826486, 41.814299846897384], [-72.71581945826487, 41.81437984689738]]], [[[-72.71574745826489, 41.81448584689736], [-72.71577045826486, 41.814485846897384], [-72.71577045826486, 41.814301846897386], [-72.71574745826489, 41.81430184689739], [-72.71574745826489, 41.81448584689736]]], [[[-72.71578345826485, 41.81396684689738], [-72.71578345826484, 41.81404684689739], [-72.71575845826484, 41.81404684689739], [-72.71575845826483, 41.81413884689736], [-72.71575745826485, 41.81413884689737], [-72.71575745826486, 41.814245846897364], [-72.71578345826487, 41.814245846897386], [-72.71578345826485, 41.81425484689738], [-72.71585145826486, 41.814254846897384], [-72.71585145826488, 41.813958846897386], [-72.71583245826484, 41.813958846897386], [-72.71583245826487, 41.813966846897365], [-72.71578345826485, 41.81396684689738]]], [[[-72.71603045826487, 41.813902846897385], [-72.7159974582649, 41.81390284689737], [-72.71599745826484, 41.81395884689738], [-72.71594045826485, 41.813958846897386], [-72.71594045826487, 41.81397584689737], [-72.71593045826486, 41.81397584689738], [-72.71593045826488, 41.81405084689739], [-72.71594045826488, 41.81405084689738], [-72.71594045826487, 41.814240846897384], [-72.71597845826484, 41.814240846897384], [-72.71597845826487, 41.81430084689738], [-72.71596645826486, 41.81430084689739], [-72.71596645826486, 41.81455784689737], [-72.71594045826485, 41.814557846897365], [-72.71594045826485, 41.81458984689738], [-72.71603045826485, 41.814589846897384], [-72.71603045826487, 41.813902846897385]]], [[[-72.71576845826485, 41.81462984689739], [-72.71576845826483, 41.814630846897366], [-72.71560145826486, 41.81463084689741], [-72.71560145826484, 41.814604846897375], [-72.71558545826488, 41.81460484689739], [-72.71558545826487, 41.814302846897405], [-72.71560945826488, 41.81430184689739], [-72.71560945826486, 41.81428984689739], [-72.71570045826485, 41.81428984689738], [-72.71570045826486, 41.814301846897386], [-72.71574745826489, 41.81430184689739], [-72.71574745826489, 41.81448584689736], [-72.71577045826486, 41.814485846897384], [-72.71577045826486, 41.81440784689739], [-72.71577045826484, 41.81435484689739], [-72.71577045826486, 41.814301846897386], [-72.71579445826487, 41.8143018468974], [-72.71579445826487, 41.81435284689739], [-72.71581945826486, 41.81435284689738], [-72.71581945826485, 41.814511846897396], [-72.71581945826485, 41.81456484689739], [-72.71583145826486, 41.814564846897376], [-72.71583145826486, 41.814594846897386], [-72.71576845826486, 41.81459484689738], [-72.71576845826485, 41.81462984689739]]], [[[-72.71553245826486, 41.81396784689739], [-72.71553245826486, 41.81424484689738], [-72.71550945826485, 41.81424484689738], [-72.71550945826486, 41.81424584689739], [-72.71546345826488, 41.814245846897386], [-72.71546345826486, 41.81424384689738], [-72.71541845826486, 41.81424384689739], [-72.71541845826486, 41.814226846897384], [-72.71537245826488, 41.81422684689738], [-72.71537245826488, 41.814245846897386], [-72.71534945826487, 41.8142458468974], [-72.71534945826485, 41.81414384689739], [-72.71537245826487, 41.81414384689739], [-72.71537245826487, 41.81411884689739], [-72.71534945826487, 41.814118846897394], [-72.71534945826485, 41.813967846897384], [-72.71537245826485, 41.81396784689738], [-72.71537245826487, 41.81397284689739], [-72.71539545826485, 41.81397284689739], [-72.71546345826486, 41.81397284689739], [-72.71546345826486, 41.81396784689738], [-72.71553245826486, 41.81396784689739]]], [[[-72.71562045826488, 41.81424584689738], [-72.71556745826486, 41.81424584689741], [-72.71555745826485, 41.81424584689738], [-72.71555745826487, 41.814244846897395], [-72.71553245826486, 41.81424484689738], [-72.71553245826486, 41.81396784689739], [-72.71562045826488, 41.813967846897384], [-72.71562045826488, 41.81424584689738]]], [[[-72.71558545826487, 41.814302846897405], [-72.7155854582649, 41.814594846897386], [-72.71558545826488, 41.81460484689739], [-72.71560145826484, 41.814604846897375], [-72.71560145826486, 41.81463084689741], [-72.71557645826486, 41.81463084689738], [-72.71557645826486, 41.8146128468974], [-72.71556245826486, 41.81461284689738], [-72.71556245826486, 41.814630846897366], [-72.71540945826486, 41.814630846897394], [-72.71540945826486, 41.81460484689739], [-72.71533545826485, 41.81460484689738], [-72.71533545826486, 41.814582846897395], [-72.71537645826486, 41.81458284689739], [-72.71537645826486, 41.81457584689737], [-72.71539645826485, 41.814575846897384], [-72.71539645826486, 41.81429884689738], [-72.71541545826486, 41.81429884689739], [-72.71541545826486, 41.814289846897395], [-72.71556145826486, 41.81428984689739], [-72.71556145826486, 41.81430284689736], [-72.71558545826487, 41.814302846897405]]], [[[-72.71575745826486, 41.814245846897364], [-72.71568445826486, 41.814245846897386], [-72.71568445826486, 41.81424484689739], [-72.71566445826487, 41.81424484689739], [-72.71566445826487, 41.814245846897386], [-72.71564545826486, 41.81424584689738], [-72.71564545826487, 41.814244846897395], [-72.71562045826488, 41.81424484689737], [-72.71562045826488, 41.813967846897384], [-72.71572945826485, 41.81396784689739], [-72.71572945826485, 41.8139668468974], [-72.71575845826484, 41.81396684689739], [-72.71575845826483, 41.81413884689736], [-72.71575745826485, 41.81413884689737], [-72.71575745826486, 41.814245846897364]]], [[[-72.71501445826486, 41.81429184689739], [-72.71501445826486, 41.814302846897405], [-72.71503545826486, 41.81430284689738], [-72.71503545826486, 41.814579846897395], [-72.71502445826486, 41.8145798468974], [-72.71502445826486, 41.81459884689738], [-72.71499545826487, 41.81459884689739], [-72.71499545826487, 41.81463084689739], [-72.71497045826486, 41.81463084689739], [-72.71497045826486, 41.814612846897376], [-72.71495645826487, 41.814612846897376], [-72.71495645826487, 41.81463084689738], [-72.71482645826485, 41.81463084689739], [-72.71482645826485, 41.81460484689739], [-72.71478745826485, 41.81460484689738], [-72.71478745826488, 41.814579846897395], [-72.71488545826486, 41.814579846897374], [-72.71488545826486, 41.81457384689739], [-72.71488345826486, 41.81457384689738], [-72.71488345826486, 41.81429184689738], [-72.71501445826486, 41.81429184689739]]], [[[-72.71522645826485, 41.81396784689739], [-72.71522645826485, 41.81416984689738], [-72.71520745826486, 41.81416984689737], [-72.71520745826486, 41.81396784689737], [-72.71522645826485, 41.81396784689739]]], [[[-72.71518445826486, 41.813967846897384], [-72.71518445826484, 41.81424484689739], [-72.71516545826489, 41.81424484689737], [-72.71516545826488, 41.814218846897354], [-72.71514245826486, 41.814218846897376], [-72.71514245826486, 41.814243846897384], [-72.71507845826487, 41.814243846897384], [-72.71507845826486, 41.81424484689739], [-72.71505745826488, 41.81424484689738], [-72.71505745826487, 41.81396784689737], [-72.71507845826487, 41.813967846897384], [-72.71507845826486, 41.8139658468974], [-72.71509745826486, 41.81396584689739], [-72.71509745826486, 41.8139668468974], [-72.71516545826486, 41.81396684689739], [-72.71516545826486, 41.813967846897384], [-72.71518445826486, 41.813967846897384]]], [[[-72.71534945826485, 41.813967846897384], [-72.71534945826487, 41.8142458468974], [-72.71524645826484, 41.814245846897386], [-72.71524645826484, 41.81424484689738], [-72.71520745826486, 41.81424484689739], [-72.71520745826486, 41.81416984689737], [-72.71522645826485, 41.81416984689738], [-72.71522645826485, 41.81396784689739], [-72.71524645826486, 41.81396784689738], [-72.71524645826486, 41.813958846897414], [-72.71532645826487, 41.813958846897364], [-72.71532645826487, 41.81396784689739], [-72.71534945826485, 41.813967846897384]]], [[[-72.71520745826486, 41.81409384689741], [-72.71518445826486, 41.81409384689737], [-72.71518445826486, 41.813967846897384], [-72.71520745826486, 41.81396784689737], [-72.71520745826486, 41.81409384689741]]], [[[-72.71578345826484, 41.81404684689739], [-72.71575845826484, 41.81404684689739], [-72.71575845826484, 41.81396684689739], [-72.71578345826485, 41.81396684689738], [-72.71578345826484, 41.81404684689739]]], [[[-72.71583845826486, 41.81385084689737], [-72.71583845826486, 41.81386584689739], [-72.71582645826484, 41.81386584689739], [-72.71582645826487, 41.81392184689739], [-72.71584145826488, 41.81392184689739], [-72.71584145826486, 41.81392784689737], [-72.71575245826487, 41.81392784689738], [-72.71575245826486, 41.81392084689738], [-72.71570545826488, 41.81392084689737], [-72.71570545826486, 41.813927846897386], [-72.71543345826487, 41.813927846897386], [-72.71543345826487, 41.81386484689738], [-72.71541645826485, 41.81386484689738], [-72.71541645826485, 41.813850846897374], [-72.71583845826486, 41.81385084689737]]], [[[-72.71499245826486, 41.814201846897376], [-72.71482145826486, 41.814201846897404], [-72.71482145826488, 41.81422484689738], [-72.71479745826484, 41.814224846897396], [-72.7147974582649, 41.81420184689739], [-72.71474845826488, 41.814201846897404], [-72.71474845826486, 41.8141788468974], [-72.71473645826488, 41.8141788468974], [-72.71473645826485, 41.8141078468974], [-72.71489545826486, 41.814107846897386], [-72.71489545826488, 41.81417884689738], [-72.71490745826488, 41.814178846897384], [-72.71490745826486, 41.81409184689739], [-72.71501445826486, 41.81409184689737], [-72.71501445826487, 41.8141788468974], [-72.71499245826487, 41.814178846897384], [-72.71499245826486, 41.814201846897376]]], [[[-72.71511045826486, 41.8143168468974], [-72.71511045826485, 41.81428984689738], [-72.71532445826486, 41.81428984689739], [-72.71532445826486, 41.814355846897385], [-72.71531645826487, 41.81435584689738], [-72.71531445826486, 41.81435584689738], [-72.71531445826487, 41.8143578468974], [-72.71527545826487, 41.81435784689738], [-72.71527545826484, 41.81438984689737], [-72.71526445826487, 41.814389846897384], [-72.71526445826485, 41.8145628468974], [-72.71528945826486, 41.81456284689738], [-72.71528945826488, 41.81451684689739], [-72.71531545826488, 41.81451684689738], [-72.71531545826487, 41.81457084689739], [-72.71532445826486, 41.81457084689739], [-72.71532445826485, 41.8145828468974], [-72.71533545826486, 41.814582846897395], [-72.71533545826485, 41.81463084689738], [-72.71527345826486, 41.814630846897366], [-72.71527345826486, 41.81461284689738], [-72.71525945826487, 41.814612846897376], [-72.71525945826488, 41.81463084689738], [-72.71509645826485, 41.81463084689739], [-72.71509645826487, 41.814579846897374], [-72.71510045826486, 41.814579846897395], [-72.71510045826486, 41.81456884689738], [-72.71512245826486, 41.81456884689738], [-72.71512245826486, 41.814316846897384], [-72.71511045826486, 41.8143168468974]]], [[[-72.71471345826488, 41.814304846897414], [-72.71473745826485, 41.8143048468974], [-72.71473745826486, 41.81456084689739], [-72.71471245826486, 41.81456084689739], [-72.71471245826486, 41.814304846897365], [-72.71471345826488, 41.814304846897414]]], [[[-72.71488345826486, 41.81429184689738], [-72.71488345826486, 41.81457384689738], [-72.71488545826486, 41.81457384689739], [-72.71488545826486, 41.814579846897374], [-72.71478745826488, 41.814579846897395], [-72.71478745826485, 41.81460484689738], [-72.71482645826485, 41.81460484689739], [-72.71482645826485, 41.81463084689739], [-72.71471145826489, 41.81463084689737], [-72.71471245826486, 41.8146008468974], [-72.71475045826487, 41.8146008468974], [-72.71475045826486, 41.81431084689737], [-72.71479745826485, 41.81431084689739], [-72.71479745826485, 41.81429184689739], [-72.71488345826486, 41.81429184689738]]], [[[-72.71505745826487, 41.8139658468974], [-72.71503845826484, 41.8139658468974], [-72.71503845826487, 41.81424484689739], [-72.71505745826488, 41.81424484689738], [-72.71505745826487, 41.8139658468974]]], [[[-72.71497945826485, 41.81424784689739], [-72.71475945826488, 41.81424784689738], [-72.71475945826487, 41.81426684689737], [-72.71474245826485, 41.814266846897375], [-72.71474245826488, 41.81425884689739], [-72.71473645826488, 41.814258846897395], [-72.71473645826488, 41.81423684689739], [-72.71474845826488, 41.81423684689739], [-72.71474845826488, 41.814201846897404], [-72.71477245826487, 41.81420184689739], [-72.71477245826486, 41.81422484689739], [-72.71497945826486, 41.81422484689739], [-72.71497945826485, 41.81424784689739]]], [[[-72.71539645826485, 41.814575846897384], [-72.71537645826486, 41.81457584689737], [-72.71537645826486, 41.81458284689739], [-72.71532445826485, 41.8145828468974], [-72.71532445826486, 41.81457084689739], [-72.71531545826487, 41.81457084689739], [-72.71531545826488, 41.81451684689738], [-72.71528945826488, 41.81451684689739], [-72.71528945826486, 41.81456284689738], [-72.71526445826485, 41.8145628468974], [-72.71526445826487, 41.814389846897384], [-72.71527545826484, 41.81438984689737], [-72.71527545826487, 41.81435784689738], [-72.71531545826487, 41.81435784689737], [-72.71531545826487, 41.814355846897385], [-72.71532445826486, 41.814355846897385], [-72.71532445826486, 41.81428984689739], [-72.71537645826486, 41.81428984689738], [-72.71537645826486, 41.814298846897366], [-72.71539645826486, 41.81429884689738], [-72.71539645826485, 41.814575846897384]]], [[[-72.71540945826486, 41.814630846897394], [-72.71533545826485, 41.81463084689738], [-72.71533545826485, 41.81460484689738], [-72.71540945826486, 41.81460484689739], [-72.71540945826486, 41.814630846897394]]], [[[-72.71489045826486, 41.81385084689736], [-72.71489045826485, 41.81387384689735], [-72.71486345826487, 41.81387384689737], [-72.71486345826486, 41.81391884689737], [-72.71474245826487, 41.813918846897394], [-72.71474245826488, 41.813909846897374], [-72.71471245826486, 41.813909846897374], [-72.71471245826486, 41.813850846897374], [-72.71472845826486, 41.813850846897374], [-72.71472845826486, 41.81386884689738], [-72.71474245826487, 41.81386884689737], [-72.71474245826488, 41.81385084689737], [-72.71489045826486, 41.81385084689736]]], [[[-72.71461745826488, 41.81424684689738], [-72.71458545826486, 41.81424684689738], [-72.71458545826486, 41.81414084689738], [-72.71457345826487, 41.81414084689738], [-72.7145734582649, 41.81412684689741], [-72.71459845826486, 41.8141268468974], [-72.71459845826486, 41.81414084689739], [-72.71461745826488, 41.81414084689739], [-72.71461745826488, 41.81424684689738]]], [[[-72.71470945826486, 41.81411584689741], [-72.71468045826488, 41.8141158468974], [-72.71468045826487, 41.81395284689738], [-72.71470945826486, 41.81395284689739], [-72.71470945826486, 41.81411584689741]]], [[[-72.71497945826485, 41.81424784689739], [-72.71497945826486, 41.81426684689739], [-72.71475945826487, 41.81426684689737], [-72.71475945826487, 41.81425584689739], [-72.71475945826488, 41.81424784689738], [-72.71497945826485, 41.81424784689739]]], [[[-72.71489545826486, 41.814107846897386], [-72.71473645826485, 41.8141078468974], [-72.71473645826488, 41.8141788468974], [-72.71474845826486, 41.8141788468974], [-72.71474845826488, 41.81423684689739], [-72.71473645826488, 41.81423684689739], [-72.71473645826488, 41.814258846897395], [-72.71471245826487, 41.814258846897374], [-72.71471245826487, 41.8139528468974], [-72.71474245826487, 41.8139528468974], [-72.71474245826487, 41.81394384689739], [-72.71501445826486, 41.813943846897374], [-72.71501445826486, 41.81409184689737], [-72.71490745826486, 41.81409184689739], [-72.71490745826486, 41.8140378468974], [-72.71489545826486, 41.814037846897385], [-72.71489545826486, 41.814107846897386]]], [[[-72.71499245826486, 41.81422484689737], [-72.71499245826486, 41.814201846897376], [-72.71482145826486, 41.814201846897404], [-72.71482145826488, 41.81422484689738], [-72.71499245826486, 41.81422484689737]]], [[[-72.71446445826486, 41.81387984689739], [-72.71467245826484, 41.813879846897365], [-72.71467245826486, 41.81380084689738], [-72.71446445826486, 41.813800846897394], [-72.71446445826486, 41.81387984689739]]], [[[-72.71470945826486, 41.814329846897394], [-72.71470945826485, 41.814301846897386], [-72.71467845826484, 41.814301846897386], [-72.71467845826484, 41.81430584689738], [-72.71425545826484, 41.81430584689737], [-72.71425545826486, 41.814329846897394], [-72.71470945826486, 41.814329846897394]]], [[[-72.71470945826488, 41.81425884689739], [-72.71470945826486, 41.81411584689741], [-72.71468045826488, 41.8141158468974], [-72.71468045826487, 41.814126846897395], [-72.71430845826487, 41.814126846897395], [-72.71430845826487, 41.814273846897386], [-72.71459845826486, 41.81427384689738], [-72.71459845826487, 41.81424684689738], [-72.71458545826486, 41.81424684689738], [-72.71458545826486, 41.81414084689738], [-72.71457345826487, 41.81414084689738], [-72.7145734582649, 41.81412684689741], [-72.71459845826486, 41.8141268468974], [-72.71459845826486, 41.81414084689739], [-72.71461745826488, 41.81414084689739], [-72.71461745826488, 41.81424684689738], [-72.71459845826487, 41.81424684689738], [-72.71459845826486, 41.81427384689738], [-72.71467845826486, 41.81427384689738], [-72.71467845826487, 41.81425884689739], [-72.71470945826488, 41.81425884689739]]], [[[-72.71428445826486, 41.814118846897394], [-72.71425545826486, 41.81411884689739], [-72.71425545826486, 41.814273846897386], [-72.71428445826486, 41.81427384689738], [-72.71428445826486, 41.814118846897394]]], [[[-72.71468045826485, 41.8140878468974], [-72.71468045826487, 41.81395284689738], [-72.71467045826489, 41.81395284689738], [-72.71467045826486, 41.81393184689737], [-72.71465145826487, 41.81393184689739], [-72.71465145826487, 41.813909846897374], [-72.71434645826488, 41.813909846897396], [-72.71434645826486, 41.813800846897394], [-72.71429645826488, 41.8138008468974], [-72.71429645826487, 41.81381884689739], [-72.71428045826484, 41.813818846897384], [-72.71428045826485, 41.81380084689737], [-72.71425545826486, 41.813800846897394], [-72.71425545826486, 41.81406184689737], [-72.71430745826486, 41.81406184689735], [-72.71430745826486, 41.8140878468974], [-72.71468045826485, 41.8140878468974]]], [[[-72.71500045826487, 41.813850846897374], [-72.71500045826487, 41.81388084689738], [-72.71500445826486, 41.81388084689739], [-72.71500445826486, 41.81391884689741], [-72.71486345826486, 41.81391884689737], [-72.71486345826487, 41.81387384689737], [-72.71489045826485, 41.81387384689735], [-72.71489045826486, 41.81385084689736], [-72.71500045826487, 41.813850846897374]]], [[[-72.71587045826486, 41.81392784689739], [-72.71587045826485, 41.8138658468974], [-72.71588745826485, 41.81386584689738], [-72.71588745826485, 41.81385084689737], [-72.71583845826486, 41.81385084689737], [-72.71583845826486, 41.81386584689739], [-72.71582645826484, 41.81386584689739], [-72.71582645826487, 41.81392184689739], [-72.71584145826488, 41.81392184689739], [-72.71584145826486, 41.81392784689737], [-72.71587045826486, 41.81392784689739]]], [[[-72.71578345826485, 41.81425484689738], [-72.71503845826484, 41.81425484689737], [-72.71503845826487, 41.81424484689739], [-72.71507845826486, 41.81424484689739], [-72.71507845826487, 41.814243846897384], [-72.71516545826485, 41.814243846897384], [-72.71516545826489, 41.81424484689737], [-72.71524645826484, 41.81424484689738], [-72.71524645826484, 41.814245846897386], [-72.71537245826488, 41.814245846897386], [-72.71537245826488, 41.81422684689738], [-72.71541845826486, 41.814226846897384], [-72.71541845826486, 41.81424384689739], [-72.71546345826486, 41.81424384689738], [-72.71546345826488, 41.814245846897386], [-72.71550945826486, 41.81424584689739], [-72.71550945826485, 41.81424484689738], [-72.71555745826487, 41.814244846897395], [-72.71555745826485, 41.81424584689738], [-72.71562045826488, 41.81424584689738], [-72.71562045826488, 41.81424484689737], [-72.71564545826487, 41.814244846897395], [-72.71564545826486, 41.81424584689738], [-72.71566445826487, 41.814245846897386], [-72.71566445826487, 41.81424484689739], [-72.71568445826486, 41.81424484689739], [-72.71568445826486, 41.814245846897386], [-72.71578345826487, 41.814245846897386], [-72.71578345826485, 41.81425484689738]]], [[[-72.71501445826487, 41.8141788468974], [-72.71499245826487, 41.814178846897384], [-72.71499245826486, 41.81422484689737], [-72.71501445826486, 41.81422484689738], [-72.71501445826487, 41.8141788468974]]], [[[-72.71509645826485, 41.81463084689739], [-72.71507245826486, 41.81463084689737], [-72.71499545826487, 41.81463084689739], [-72.71499545826487, 41.81459884689739], [-72.71502445826486, 41.81459884689738], [-72.71502445826486, 41.8145798468974], [-72.71503545826486, 41.814579846897395], [-72.71503545826486, 41.81430284689738], [-72.71505445826486, 41.81430284689739], [-72.71505445826486, 41.8142898468974], [-72.71511045826485, 41.81428984689738], [-72.71511045826486, 41.8143168468974], [-72.71512245826486, 41.814316846897384], [-72.71512245826486, 41.81456884689738], [-72.71510045826486, 41.81456884689738], [-72.71510045826486, 41.814579846897395], [-72.71509645826487, 41.814579846897374], [-72.71509645826485, 41.81463084689739]]], [[[-72.71520745826486, 41.81409384689741], [-72.71518445826486, 41.81409384689737], [-72.71518445826484, 41.81424484689739], [-72.71520745826486, 41.81424484689739], [-72.71520745826486, 41.81409384689741]]], [[[-72.71425545826486, 41.814329846897394], [-72.71470945826486, 41.814329846897394], [-72.71470945826485, 41.81380084689738], [-72.71425545826486, 41.813800846897394], [-72.71425545826486, 41.814329846897394]]]]}}]}