{
  "type": "FeatureCollection",
  "features": [
    {
      "type": "Feature",
      "geometry": {
        "type": "MultiPolygon",
        "coordinates": [
          [
            [
              [
                -76.986889,
                39.826912
              ],
              [
                -76.986914,
                39.826912
              ],
              [
                -76.986914,
                39.826965
              ],
              [
                -76.986889,
                39.826965
              ],
              [
                -76.986889,
                39.826912
              ]
            ]
          ],
          [
            [
              [
                -76.987006,
                39.826902
              ],
              [
                -76.986979,
                39.826902
              ],
              [
                -76.986947,
                39.826902
              ],
              [
                -76.986947,
                39.826992
              ],
              [
                -76.986914,
                39.826992
              ],
              [
                -76.986914,
                39.827177
              ],
              [
                -76.986926,
                39.827177
              ],
              [
                -76.986926,
                39.827207
              ],
              [
                -76.986863,
                39.827207
              ],
              [
                -76.986863,
                39.827243
              ],
              [
                -76.98696,
                39.827243
              ],
              [
                -76.98696,
                39.827225
              ],
              [
                -76.986974,
                39.827225
              ],
              [
                -76.986974,
                39.827213
              ],
              [
                -76.987006,
                39.827213
              ],
              [
                -76.987006,
                39.826902
              ]
            ]
          ],
          [
            [
              [
                -76.987061,
                39.826913
              ],
              [
                -76.987035,
                39.826913
              ],
              [
                -76.987035,
                39.82717
              ],
              [
                -76.987061,
                39.82717
              ],
              [
                -76.987061,
                39.826913
              ]
            ]
          ],
          [
            [
              [
                -76.987006,
                39.826571
              ],
              [
                -76.986946,
                39.826571
              ],
              [
                -76.986946,
                39.826867
              ],
              [
                -76.987006,
                39.826867
              ],
              [
                -76.987006,
                39.826571
              ]
            ]
          ],
          [
            [
              [
                -76.987125,
                39.827243
              ],
              [
                -76.987038,
                39.827243
              ],
              [
                -76.987038,
                39.827213
              ],
              [
                -76.987035,
                39.827213
              ],
              [
                -76.987035,
                39.827202
              ],
              [
                -76.987125,
                39.827202
              ],
              [
                -76.987125,
                39.827243
              ]
            ]
          ],
          [
            [
              [
                -76.986914,
                39.826992
              ],
              [
                -76.986947,
                39.826992
              ],
              [
                -76.986947,
                39.826912
              ],
              [
                -76.986914,
                39.826912
              ],
              [
                -76.986914,
                39.826992
              ]
            ]
          ],
          [
            [
              [
                -76.986842,
                39.827098
              ],
              [
                -76.986865,
                39.827098
              ],
              [
                -76.986865,
                39.826914
              ],
              [
                -76.986842,
                39.826914
              ],
              [
                -76.986842,
                39.827098
              ]
            ]
          ],
          [
            [
              [
                -76.986878,
                39.826579
              ],
              [
                -76.986878,
                39.826659
              ],
              [
                -76.986853,
                39.826659
              ],
              [
                -76.986853,
                39.826751
              ],
              [
                -76.986852,
                39.826751
              ],
              [
                -76.986852,
                39.826858
              ],
              [
                -76.986878,
                39.826858
              ],
              [
                -76.986878,
                39.826867
              ],
              [
                -76.986946,
                39.826867
              ],
              [
                -76.986946,
                39.826571
              ],
              [
                -76.986927,
                39.826571
              ],
              [
                -76.986927,
                39.826579
              ],
              [
                -76.986878,
                39.826579
              ]
            ]
          ],
          [
            [
              [
                -76.987125,
                39.826515
              ],
              [
                -76.987092,
                39.826515
              ],
              [
                -76.987092,
                39.826571
              ],
              [
                -76.987035,
                39.826571
              ],
              [
                -76.987035,
                39.826588
              ],
              [
                -76.987025,
                39.826588
              ],
              [
                -76.987025,
                39.826663
              ],
              [
                -76.987035,
                39.826663
              ],
              [
                -76.987035,
                39.826853
              ],
              [
                -76.987073,
                39.826853
              ],
              [
                -76.987073,
                39.826913
              ],
              [
                -76.987061,
                39.826913
              ],
              [
                -76.987061,
                39.82717
              ],
              [
                -76.987035,
                39.82717
              ],
              [
                -76.987035,
                39.827202
              ],
              [
                -76.987125,
                39.827202
              ],
              [
                -76.987125,
                39.826515
              ]
            ]
          ],
          [
            [
              [
                -76.986863,
                39.827242
              ],
              [
                -76.986863,
                39.827243
              ],
              [
                -76.986696,
                39.827243
              ],
              [
                -76.986696,
                39.827217
              ],
              [
                -76.98668,
                39.827217
              ],
              [
                -76.98668,
                39.826915
              ],
              [
                -76.986704,
                39.826914
              ],
              [
                -76.986704,
                39.826902
              ],
              [
                -76.986795,
                39.826902
              ],
              [
                -76.986795,
                39.826914
              ],
              [
                -76.986842,
                39.826914
              ],
              [
                -76.986842,
                39.827098
              ],
              [
                -76.986865,
                39.827098
              ],
              [
                -76.986865,
                39.82702
              ],
              [
                -76.986865,
                39.826967
              ],
              [
                -76.986865,
                39.826914
              ],
              [
                -76.986889,
                39.826914
              ],
              [
                -76.986889,
                39.826965
              ],
              [
                -76.986914,
                39.826965
              ],
              [
                -76.986914,
                39.827124
              ],
              [
                -76.986914,
                39.827177
              ],
              [
                -76.986926,
                39.827177
              ],
              [
                -76.986926,
                39.827207
              ],
              [
                -76.986863,
                39.827207
              ],
              [
                -76.986863,
                39.827242
              ]
            ]
          ],
          [
            [
              [
                -76.986627,
                39.82658
              ],
              [
                -76.986627,
                39.826857
              ],
              [
                -76.986604,
                39.826857
              ],
              [
                -76.986604,
                39.826858
              ],
              [
                -76.986558,
                39.826858
              ],
              [
                -76.986558,
                39.826856
              ],
              [
                -76.986513,
                39.826856
              ],
              [
                -76.986513,
                39.826839
              ],
              [
                -76.986467,
                39.826839
              ],
              [
                -76.986467,
                39.826858
              ],
              [
                -76.986444,
                39.826858
              ],
              [
                -76.986444,
                39.826756
              ],
              [
                -76.986467,
                39.826756
              ],
              [
                -76.986467,
                39.826731
              ],
              [
                -76.986444,
                39.826731
              ],
              [
                -76.986444,
                39.82658
              ],
              [
                -76.986467,
                39.82658
              ],
              [
                -76.986467,
                39.826585
              ],
              [
                -76.98649,
                39.826585
              ],
              [
                -76.986558,
                39.826585
              ],
              [
                -76.986558,
                39.82658
              ],
              [
                -76.986627,
                39.82658
              ]
            ]
          ],
          [
            [
              [
                -76.986715,
                39.826858
              ],
              [
                -76.986662,
                39.826858
              ],
              [
                -76.986652,
                39.826858
              ],
              [
                -76.986652,
                39.826857
              ],
              [
                -76.986627,
                39.826857
              ],
              [
                -76.986627,
                39.82658
              ],
              [
                -76.986715,
                39.82658
              ],
              [
                -76.986715,
                39.826858
              ]
            ]
          ],
          [
            [
              [
                -76.98668,
                39.826915
              ],
              [
                -76.98668,
                39.827207
              ],
              [
                -76.98668,
                39.827217
              ],
              [
                -76.986696,
                39.827217
              ],
              [
                -76.986696,
                39.827243
              ],
              [
                -76.986671,
                39.827243
              ],
              [
                -76.986671,
                39.827225
              ],
              [
                -76.986657,
                39.827225
              ],
              [
                -76.986657,
                39.827243
              ],
              [
                -76.986504,
                39.827243
              ],
              [
                -76.986504,
                39.827217
              ],
              [
                -76.98643,
                39.827217
              ],
              [
                -76.98643,
                39.827195
              ],
              [
                -76.986471,
                39.827195
              ],
              [
                -76.986471,
                39.827188
              ],
              [
                -76.986491,
                39.827188
              ],
              [
                -76.986491,
                39.826911
              ],
              [
                -76.98651,
                39.826911
              ],
              [
                -76.98651,
                39.826902
              ],
              [
                -76.986656,
                39.826902
              ],
              [
                -76.986656,
                39.826915
              ],
              [
                -76.98668,
                39.826915
              ]
            ]
          ],
          [
            [
              [
                -76.986852,
                39.826858
              ],
              [
                -76.986779,
                39.826858
              ],
              [
                -76.986779,
                39.826857
              ],
              [
                -76.986759,
                39.826857
              ],
              [
                -76.986759,
                39.826858
              ],
              [
                -76.98674,
                39.826858
              ],
              [
                -76.98674,
                39.826857
              ],
              [
                -76.986715,
                39.826857
              ],
              [
                -76.986715,
                39.82658
              ],
              [
                -76.986824,
                39.82658
              ],
              [
                -76.986824,
                39.826579
              ],
              [
                -76.986853,
                39.826579
              ],
              [
                -76.986853,
                39.826751
              ],
              [
                -76.986852,
                39.826751
              ],
              [
                -76.986852,
                39.826858
              ]
            ]
          ],
          [
            [
              [
                -76.986109,
                39.826904
              ],
              [
                -76.986109,
                39.826915
              ],
              [
                -76.98613,
                39.826915
              ],
              [
                -76.98613,
                39.827192
              ],
              [
                -76.986119,
                39.827192
              ],
              [
                -76.986119,
                39.827211
              ],
              [
                -76.98609,
                39.827211
              ],
              [
                -76.98609,
                39.827243
              ],
              [
                -76.986065,
                39.827243
              ],
              [
                -76.986065,
                39.827225
              ],
              [
                -76.986051,
                39.827225
              ],
              [
                -76.986051,
                39.827243
              ],
              [
                -76.985921,
                39.827243
              ],
              [
                -76.985921,
                39.827217
              ],
              [
                -76.985882,
                39.827217
              ],
              [
                -76.985882,
                39.827192
              ],
              [
                -76.98598,
                39.827192
              ],
              [
                -76.98598,
                39.827186
              ],
              [
                -76.985978,
                39.827186
              ],
              [
                -76.985978,
                39.826904
              ],
              [
                -76.986109,
                39.826904
              ]
            ]
          ],
          [
            [
              [
                -76.986321,
                39.82658
              ],
              [
                -76.986321,
                39.826782
              ],
              [
                -76.986302,
                39.826782
              ],
              [
                -76.986302,
                39.82658
              ],
              [
                -76.986321,
                39.82658
              ]
            ]
          ],
          [
            [
              [
                -76.986279,
                39.82658
              ],
              [
                -76.986279,
                39.826857
              ],
              [
                -76.98626,
                39.826857
              ],
              [
                -76.98626,
                39.826831
              ],
              [
                -76.986237,
                39.826831
              ],
              [
                -76.986237,
                39.826856
              ],
              [
                -76.986173,
                39.826856
              ],
              [
                -76.986173,
                39.826857
              ],
              [
                -76.986152,
                39.826857
              ],
              [
                -76.986152,
                39.82658
              ],
              [
                -76.986173,
                39.82658
              ],
              [
                -76.986173,
                39.826578
              ],
              [
                -76.986192,
                39.826578
              ],
              [
                -76.986192,
                39.826579
              ],
              [
                -76.98626,
                39.826579
              ],
              [
                -76.98626,
                39.82658
              ],
              [
                -76.986279,
                39.82658
              ]
            ]
          ],
          [
            [
              [
                -76.986444,
                39.82658
              ],
              [
                -76.986444,
                39.826858
              ],
              [
                -76.986341,
                39.826858
              ],
              [
                -76.986341,
                39.826857
              ],
              [
                -76.986302,
                39.826857
              ],
              [
                -76.986302,
                39.826782
              ],
              [
                -76.986321,
                39.826782
              ],
              [
                -76.986321,
                39.82658
              ],
              [
                -76.986341,
                39.82658
              ],
              [
                -76.986341,
                39.826571
              ],
              [
                -76.986421,
                39.826571
              ],
              [
                -76.986421,
                39.82658
              ],
              [
                -76.986444,
                39.82658
              ]
            ]
          ],
          [
            [
              [
                -76.986302,
                39.826706
              ],
              [
                -76.986279,
                39.826706
              ],
              [
                -76.986279,
                39.82658
              ],
              [
                -76.986302,
                39.82658
              ],
              [
                -76.986302,
                39.826706
              ]
            ]
          ],
          [
            [
              [
                -76.986878,
                39.826659
              ],
              [
                -76.986853,
                39.826659
              ],
              [
                -76.986853,
                39.826579
              ],
              [
                -76.986878,
                39.826579
              ],
              [
                -76.986878,
                39.826659
              ]
            ]
          ],
          [
            [
              [
                -76.986933,
                39.826463
              ],
              [
                -76.986933,
                39.826478
              ],
              [
                -76.986921,
                39.826478
              ],
              [
                -76.986921,
                39.826534
              ],
              [
                -76.986936,
                39.826534
              ],
              [
                -76.986936,
                39.82654
              ],
              [
                -76.986847,
                39.82654
              ],
              [
                -76.986847,
                39.826533
              ],
              [
                -76.9868,
                39.826533
              ],
              [
                -76.9868,
                39.82654
              ],
              [
                -76.986528,
                39.82654
              ],
              [
                -76.986528,
                39.826477
              ],
              [
                -76.986511,
                39.826477
              ],
              [
                -76.986511,
                39.826463
              ],
              [
                -76.986933,
                39.826463
              ]
            ]
          ],
          [
            [
              [
                -76.986087,
                39.826814
              ],
              [
                -76.985916,
                39.826814
              ],
              [
                -76.985916,
                39.826837
              ],
              [
                -76.985892,
                39.826837
              ],
              [
                -76.985892,
                39.826814
              ],
              [
                -76.985843,
                39.826814
              ],
              [
                -76.985843,
                39.826791
              ],
              [
                -76.985831,
                39.826791
              ],
              [
                -76.985831,
                39.82672
              ],
              [
                -76.98599,
                39.82672
              ],
              [
                -76.98599,
                39.826791
              ],
              [
                -76.986002,
                39.826791
              ],
              [
                -76.986002,
                39.826704
              ],
              [
                -76.986109,
                39.826704
              ],
              [
                -76.986109,
                39.826791
              ],
              [
                -76.986087,
                39.826791
              ],
              [
                -76.986087,
                39.826814
              ]
            ]
          ],
          [
            [
              [
                -76.986205,
                39.826929
              ],
              [
                -76.986205,
                39.826902
              ],
              [
                -76.986419,
                39.826902
              ],
              [
                -76.986419,
                39.826968
              ],
              [
                -76.986411,
                39.826968
              ],
              [
                -76.986409,
                39.826968
              ],
              [
                -76.986409,
                39.82697
              ],
              [
                -76.98637,
                39.82697
              ],
              [
                -76.98637,
                39.827002
              ],
              [
                -76.986359,
                39.827002
              ],
              [
                -76.986359,
                39.827175
              ],
              [
                -76.986384,
                39.827175
              ],
              [
                -76.986384,
                39.827129
              ],
              [
                -76.98641,
                39.827129
              ],
              [
                -76.98641,
                39.827183
              ],
              [
                -76.986419,
                39.827183
              ],
              [
                -76.986419,
                39.827195
              ],
              [
                -76.98643,
                39.827195
              ],
              [
                -76.98643,
                39.827243
              ],
              [
                -76.986368,
                39.827243
              ],
              [
                -76.986368,
                39.827225
              ],
              [
                -76.986354,
                39.827225
              ],
              [
                -76.986354,
                39.827243
              ],
              [
                -76.986191,
                39.827243
              ],
              [
                -76.986191,
                39.827192
              ],
              [
                -76.986195,
                39.827192
              ],
              [
                -76.986195,
                39.827181
              ],
              [
                -76.986217,
                39.827181
              ],
              [
                -76.986217,
                39.826929
              ],
              [
                -76.986205,
                39.826929
              ]
            ]
          ],
          [
            [
              [
                -76.985808,
                39.826917
              ],
              [
                -76.985832,
                39.826917
              ],
              [
                -76.985832,
                39.827173
              ],
              [
                -76.985807,
                39.827173
              ],
              [
                -76.985807,
                39.826917
              ],
              [
                -76.985808,
                39.826917
              ]
            ]
          ],
          [
            [
              [
                -76.985978,
                39.826904
              ],
              [
                -76.985978,
                39.827186
              ],
              [
                -76.98598,
                39.827186
              ],
              [
                -76.98598,
                39.827192
              ],
              [
                -76.985882,
                39.827192
              ],
              [
                -76.985882,
                39.827217
              ],
              [
                -76.985921,
                39.827217
              ],
              [
                -76.985921,
                39.827243
              ],
              [
                -76.985806,
                39.827243
              ],
              [
                -76.985807,
                39.827213
              ],
              [
                -76.985845,
                39.827213
              ],
              [
                -76.985845,
                39.826923
              ],
              [
                -76.985892,
                39.826923
              ],
              [
                -76.985892,
                39.826904
              ],
              [
                -76.985978,
                39.826904
              ]
            ]
          ],
          [
            [
              [
                -76.986152,
                39.826578
              ],
              [
                -76.986133,
                39.826578
              ],
              [
                -76.986133,
                39.826857
              ],
              [
                -76.986152,
                39.826857
              ],
              [
                -76.986152,
                39.826578
              ]
            ]
          ],
          [
            [
              [
                -76.986074,
                39.82686
              ],
              [
                -76.985854,
                39.82686
              ],
              [
                -76.985854,
                39.826879
              ],
              [
                -76.985837,
                39.826879
              ],
              [
                -76.985837,
                39.826871
              ],
              [
                -76.985831,
                39.826871
              ],
              [
                -76.985831,
                39.826849
              ],
              [
                -76.985843,
                39.826849
              ],
              [
                -76.985843,
                39.826814
              ],
              [
                -76.985867,
                39.826814
              ],
              [
                -76.985867,
                39.826837
              ],
              [
                -76.986074,
                39.826837
              ],
              [
                -76.986074,
                39.82686
              ]
            ]
          ],
          [
            [
              [
                -76.986491,
                39.827188
              ],
              [
                -76.986471,
                39.827188
              ],
              [
                -76.986471,
                39.827195
              ],
              [
                -76.986419,
                39.827195
              ],
              [
                -76.986419,
                39.827183
              ],
              [
                -76.98641,
                39.827183
              ],
              [
                -76.98641,
                39.827129
              ],
              [
                -76.986384,
                39.827129
              ],
              [
                -76.986384,
                39.827175
              ],
              [
                -76.986359,
                39.827175
              ],
              [
                -76.986359,
                39.827002
              ],
              [
                -76.98637,
                39.827002
              ],
              [
                -76.98637,
                39.82697
              ],
              [
                -76.98641,
                39.82697
              ],
              [
                -76.98641,
                39.826968
              ],
              [
                -76.986419,
                39.826968
              ],
              [
                -76.986419,
                39.826902
              ],
              [
                -76.986471,
                39.826902
              ],
              [
                -76.986471,
                39.826911
              ],
              [
                -76.986491,
                39.826911
              ],
              [
                -76.986491,
                39.827188
              ]
            ]
          ],
          [
            [
              [
                -76.986504,
                39.827243
              ],
              [
                -76.98643,
                39.827243
              ],
              [
                -76.98643,
                39.827217
              ],
              [
                -76.986504,
                39.827217
              ],
              [
                -76.986504,
                39.827243
              ]
            ]
          ],
          [
            [
              [
                -76.985985,
                39.826463
              ],
              [
                -76.985985,
                39.826486
              ],
              [
                -76.985958,
                39.826486
              ],
              [
                -76.985958,
                39.826531
              ],
              [
                -76.985837,
                39.826531
              ],
              [
                -76.985837,
                39.826522
              ],
              [
                -76.985807,
                39.826522
              ],
              [
                -76.985807,
                39.826463
              ],
              [
                -76.985823,
                39.826463
              ],
              [
                -76.985823,
                39.826481
              ],
              [
                -76.985837,
                39.826481
              ],
              [
                -76.985837,
                39.826463
              ],
              [
                -76.985985,
                39.826463
              ]
            ]
          ],
          [
            [
              [
                -76.985712,
                39.826859
              ],
              [
                -76.98568,
                39.826859
              ],
              [
                -76.98568,
                39.826753
              ],
              [
                -76.985668,
                39.826753
              ],
              [
                -76.985668,
                39.826739
              ],
              [
                -76.985693,
                39.826739
              ],
              [
                -76.985693,
                39.826753
              ],
              [
                -76.985712,
                39.826753
              ],
              [
                -76.985712,
                39.826859
              ]
            ]
          ],
          [
            [
              [
                -76.985804,
                39.826728
              ],
              [
                -76.985775,
                39.826728
              ],
              [
                -76.985775,
                39.826565
              ],
              [
                -76.985804,
                39.826565
              ],
              [
                -76.985804,
                39.826728
              ]
            ]
          ],
          [
            [
              [
                -76.986074,
                39.82686
              ],
              [
                -76.986074,
                39.826879
              ],
              [
                -76.985854,
                39.826879
              ],
              [
                -76.985854,
                39.826868
              ],
              [
                -76.985854,
                39.82686
              ],
              [
                -76.986074,
                39.82686
              ]
            ]
          ],
          [
            [
              [
                -76.98599,
                39.82672
              ],
              [
                -76.985831,
                39.82672
              ],
              [
                -76.985831,
                39.826791
              ],
              [
                -76.985843,
                39.826791
              ],
              [
                -76.985843,
                39.826849
              ],
              [
                -76.985831,
                39.826849
              ],
              [
                -76.985831,
                39.826871
              ],
              [
                -76.985807,
                39.826871
              ],
              [
                -76.985807,
                39.826565
              ],
              [
                -76.985837,
                39.826565
              ],
              [
                -76.985837,
                39.826556
              ],
              [
                -76.986109,
                39.826556
              ],
              [
                -76.986109,
                39.826704
              ],
              [
                -76.986002,
                39.826704
              ],
              [
                -76.986002,
                39.82665
              ],
              [
                -76.98599,
                39.82665
              ],
              [
                -76.98599,
                39.82672
              ]
            ]
          ],
          [
            [
              [
                -76.986087,
                39.826837
              ],
              [
                -76.986087,
                39.826814
              ],
              [
                -76.985916,
                39.826814
              ],
              [
                -76.985916,
                39.826837
              ],
              [
                -76.986087,
                39.826837
              ]
            ]
          ],
          [
            [
              [
                -76.985559,
                39.826492
              ],
              [
                -76.985767,
                39.826492
              ],
              [
                -76.985767,
                39.826413
              ],
              [
                -76.985559,
                39.826413
              ],
              [
                -76.985559,
                39.826492
              ]
            ]
          ],
          [
            [
              [
                -76.985804,
                39.826942
              ],
              [
                -76.985804,
                39.826914
              ],
              [
                -76.985773,
                39.826914
              ],
              [
                -76.985773,
                39.826918
              ],
              [
                -76.98535,
                39.826918
              ],
              [
                -76.98535,
                39.826942
              ],
              [
                -76.985804,
                39.826942
              ]
            ]
          ],
          [
            [
              [
                -76.985804,
                39.826871
              ],
              [
                -76.985804,
                39.826728
              ],
              [
                -76.985775,
                39.826728
              ],
              [
                -76.985775,
                39.826739
              ],
              [
                -76.985403,
                39.826739
              ],
              [
                -76.985403,
                39.826886
              ],
              [
                -76.985693,
                39.826886
              ],
              [
                -76.985693,
                39.826859
              ],
              [
                -76.98568,
                39.826859
              ],
              [
                -76.98568,
                39.826753
              ],
              [
                -76.985668,
                39.826753
              ],
              [
                -76.985668,
                39.826739
              ],
              [
                -76.985693,
                39.826739
              ],
              [
                -76.985693,
                39.826753
              ],
              [
                -76.985712,
                39.826753
              ],
              [
                -76.985712,
                39.826859
              ],
              [
                -76.985693,
                39.826859
              ],
              [
                -76.985693,
                39.826886
              ],
              [
                -76.985773,
                39.826886
              ],
              [
                -76.985773,
                39.826871
              ],
              [
                -76.985804,
                39.826871
              ]
            ]
          ],
          [
            [
              [
                -76.985379,
                39.826731
              ],
              [
                -76.98535,
                39.826731
              ],
              [
                -76.98535,
                39.826886
              ],
              [
                -76.985379,
                39.826886
              ],
              [
                -76.985379,
                39.826731
              ]
            ]
          ],
          [
            [
              [
                -76.985775,
                39.8267
              ],
              [
                -76.985775,
                39.826565
              ],
              [
                -76.985765,
                39.826565
              ],
              [
                -76.985765,
                39.826544
              ],
              [
                -76.985746,
                39.826544
              ],
              [
                -76.985746,
                39.826522
              ],
              [
                -76.985441,
                39.826522
              ],
              [
                -76.985441,
                39.826413
              ],
              [
                -76.985391,
                39.826413
              ],
              [
                -76.985391,
                39.826431
              ],
              [
                -76.985375,
                39.826431
              ],
              [
                -76.985375,
                39.826413
              ],
              [
                -76.98535,
                39.826413
              ],
              [
                -76.98535,
                39.826674
              ],
              [
                -76.985402,
                39.826674
              ],
              [
                -76.985402,
                39.8267
              ],
              [
                -76.985775,
                39.8267
              ]
            ]
          ],
          [
            [
              [
                -76.986095,
                39.826463
              ],
              [
                -76.986095,
                39.826493
              ],
              [
                -76.986099,
                39.826493
              ],
              [
                -76.986099,
                39.826531
              ],
              [
                -76.985958,
                39.826531
              ],
              [
                -76.985958,
                39.826486
              ],
              [
                -76.985985,
                39.826486
              ],
              [
                -76.985985,
                39.826463
              ],
              [
                -76.986095,
                39.826463
              ]
            ]
          ],
          [
            [
              [
                -76.986965,
                39.82654
              ],
              [
                -76.986965,
                39.826478
              ],
              [
                -76.986982,
                39.826478
              ],
              [
                -76.986982,
                39.826463
              ],
              [
                -76.986933,
                39.826463
              ],
              [
                -76.986933,
                39.826478
              ],
              [
                -76.986921,
                39.826478
              ],
              [
                -76.986921,
                39.826534
              ],
              [
                -76.986936,
                39.826534
              ],
              [
                -76.986936,
                39.82654
              ],
              [
                -76.986965,
                39.82654
              ]
            ]
          ],
          [
            [
              [
                -76.986878,
                39.826867
              ],
              [
                -76.986133,
                39.826867
              ],
              [
                -76.986133,
                39.826857
              ],
              [
                -76.986173,
                39.826857
              ],
              [
                -76.986173,
                39.826856
              ],
              [
                -76.98626,
                39.826856
              ],
              [
                -76.98626,
                39.826857
              ],
              [
                -76.986341,
                39.826857
              ],
              [
                -76.986341,
                39.826858
              ],
              [
                -76.986467,
                39.826858
              ],
              [
                -76.986467,
                39.826839
              ],
              [
                -76.986513,
                39.826839
              ],
              [
                -76.986513,
                39.826856
              ],
              [
                -76.986558,
                39.826856
              ],
              [
                -76.986558,
                39.826858
              ],
              [
                -76.986604,
                39.826858
              ],
              [
                -76.986604,
                39.826857
              ],
              [
                -76.986652,
                39.826857
              ],
              [
                -76.986652,
                39.826858
              ],
              [
                -76.986715,
                39.826858
              ],
              [
                -76.986715,
                39.826857
              ],
              [
                -76.98674,
                39.826857
              ],
              [
                -76.98674,
                39.826858
              ],
              [
                -76.986759,
                39.826858
              ],
              [
                -76.986759,
                39.826857
              ],
              [
                -76.986779,
                39.826857
              ],
              [
                -76.986779,
                39.826858
              ],
              [
                -76.986878,
                39.826858
              ],
              [
                -76.986878,
                39.826867
              ]
            ]
          ],
          [
            [
              [
                -76.986109,
                39.826791
              ],
              [
                -76.986087,
                39.826791
              ],
              [
                -76.986087,
                39.826837
              ],
              [
                -76.986109,
                39.826837
              ],
              [
                -76.986109,
                39.826791
              ]
            ]
          ],
          [
            [
              [
                -76.986191,
                39.827243
              ],
              [
                -76.986167,
                39.827243
              ],
              [
                -76.98609,
                39.827243
              ],
              [
                -76.98609,
                39.827211
              ],
              [
                -76.986119,
                39.827211
              ],
              [
                -76.986119,
                39.827192
              ],
              [
                -76.98613,
                39.827192
              ],
              [
                -76.98613,
                39.826915
              ],
              [
                -76.986149,
                39.826915
              ],
              [
                -76.986149,
                39.826902
              ],
              [
                -76.986205,
                39.826902
              ],
              [
                -76.986205,
                39.826929
              ],
              [
                -76.986217,
                39.826929
              ],
              [
                -76.986217,
                39.827181
              ],
              [
                -76.986195,
                39.827181
              ],
              [
                -76.986195,
                39.827192
              ],
              [
                -76.986191,
                39.827192
              ],
              [
                -76.986191,
                39.827243
              ]
            ]
          ],
          [
            [
              [
                -76.986302,
                39.826706
              ],
              [
                -76.986279,
                39.826706
              ],
              [
                -76.986279,
                39.826857
              ],
              [
                -76.986302,
                39.826857
              ],
              [
                -76.986302,
                39.826706
              ]
            ]
          ],
          [
            [
              [
                -76.98535,
                39.826942
              ],
              [
                -76.985804,
                39.826942
              ],
              [
                -76.985804,
                39.826413
              ],
              [
                -76.98535,
                39.826413
              ],
              [
                -76.98535,
                39.826942
              ]
            ]
          ]
        ]
      },
      "properties": {
        "fill": "#D9E2F6",
        "stroke-width": "0.5",
        "stroke": "#96A3BD",
        "opacity": "0.75"
      }
    },
    {
      "type": "Feature",
      "geometry": {
        "type": "MultiLineString",
        "coordinates": []
      },
      "properties": {
        "stroke-width": "0.5"
      }
    },
    {
      "type": "Feature",
      "geometry": {
        "type": "Point",
        "coordinates": [
          -76.986773,
          39.826963
        ]
      },
      "properties": {
        "type": "P",
        "sub_category": "ServiceDesks",
        "poi_name": "MILLWORK DESK",
        "profile": "STORE SERVICES",
        "icon_id": "millwork_desk",
        "orientation": 0
      }
    },
    {
      "type": "Feature",
      "geometry": {
        "type": "Point",
        "coordinates": [
          -76.986389,
          39.826479
        ]
      },
      "properties": {
        "type": "P",
        "sub_category": "EntryExit",
        "poi_name": "MAIN EXIT",
        "profile": "BASIC INFO",
        "icon_id": "entrance_exit",
        "orientation": 0
      }
    },
    {
      "type": "Feature",
      "geometry": {
        "type": "Point",
        "coordinates": [
          -76.987019,
          39.826445
        ]
      },
      "properties": {
        "type": "P",
        "sub_category": "EntryExit",
        "poi_name": "PRO ENTRANCE",
        "profile": "BASIC INFO",
        "icon_id": "entrance_exit",
        "orientation": 0
      }
    },
    {
      "type": "Feature",
      "geometry": {
        "type": "Point",
        "coordinates": [
          -76.987019,
          39.826484
        ]
      },
      "properties": {
        "type": "P",
        "sub_category": "EntryExit",
        "poi_name": "PRO EXIT",
        "profile": "BASIC INFO",
        "icon_id": "entrance_exit",
        "orientation": 0
      }
    },
    {
      "type": "Feature",
      "geometry": {
        "type": "Point",
        "coordinates": [
          -76.9855,
          39.826361
        ]
      },
      "properties": {
        "type": "P",
        "sub_category": "EntryExit",
        "poi_name": "GARDEN CENTER ENTRANCE",
        "profile": "BASIC INFO",
        "icon_id": "entrance_exit",
        "orientation": 0
      }
    },
    {
      "type": "Feature",
      "geometry": {
        "type": "Point",
        "coordinates": [
          -76.9855,
          39.82643
        ]
      },
      "properties": {
        "type": "P",
        "sub_category": "EntryExit",
        "poi_name": "GARDEN CENTER EXIT",
        "profile": "BASIC INFO",
        "icon_id": "entrance_exit",
        "orientation": 0
      }
    },
    {
      "type": "Feature",
      "geometry": {
        "type": "Point",
        "coordinates": [
          -76.986505,
          39.82644
        ]
      },
      "properties": {
        "type": "P",
        "sub_category": "Restrooms",
        "poi_name": "MEN/WOMEN’S RESTROOMS",
        "profile": "BASIC INFO",
        "icon_id": "restrooms",
        "orientation": 0
      }
    },
    {
      "type": "Feature",
      "geometry": {
        "type": "Point",
        "coordinates": [
          -76.986535,
          39.826437
        ]
      },
      "properties": {
        "type": "P",
        "sub_category": "Restrooms",
        "poi_name": "UNISEX",
        "profile": "BASIC INFO",
        "icon_id": "restrooms",
        "orientation": 0
      }
    },
    {
      "type": "Feature",
      "geometry": {
        "type": "Point",
        "coordinates": [
          -76.987071,
          39.826537
        ]
      },
      "properties": {
        "type": "P",
        "sub_category": "ServiceDesks",
        "poi_name": "PRO SERVICE DESK",
        "profile": "BASIC INFO",
        "icon_id": "pro_service_desk",
        "orientation": 0
      }
    },
    {
      "type": "Feature",
      "geometry": {
        "type": "Point",
        "coordinates": [
          -76.986334,
          39.826942
        ]
      },
      "properties": {
        "type": "P",
        "sub_category": "ServiceDesks",
        "poi_name": "FLOORING DESK",
        "profile": "STORE SERVICES",
        "icon_id": "flooring_desk",
        "orientation": 0
      }
    },
    {
      "type": "Feature",
      "geometry": {
        "type": "Point",
        "coordinates": [
          -76.986451,
          39.826985
        ]
      },
      "properties": {
        "type": "P",
        "sub_category": "ServiceDesks",
        "poi_name": "HOME DECOR DESK",
        "profile": "STORE SERVICES",
        "icon_id": "home_décor_desk",
        "orientation": 0
      }
    },
    {
      "type": "Feature",
      "geometry": {
        "type": "Point",
        "coordinates": [
          -76.985901,
          39.827122
        ]
      },
      "properties": {
        "type": "P",
        "sub_category": "ServiceDesks",
        "poi_name": "KITCHEN DESIGN DESK",
        "profile": "STORE SERVICES",
        "icon_id": "kitchen_design_desk",
        "orientation": 0
      }
    },
    {
      "type": "Feature",
      "geometry": {
        "type": "Point",
        "coordinates": [
          -76.987019,
          39.826525
        ]
      },
      "properties": {
        "type": "P",
        "sub_category": "Checkouts",
        "poi_name": "PRO CHECKOUT",
        "profile": "BASIC INFO",
        "icon_id": "checkouts",
        "orientation": 0
      }
    },
    {
      "type": "Feature",
      "geometry": {
        "type": "Point",
        "coordinates": [
          -76.9855,
          39.826503
        ]
      },
      "properties": {
        "type": "P",
        "sub_category": "Checkouts",
        "poi_name": "GARDEN CENTER CHECKOUT",
        "profile": "BASIC INFO",
        "icon_id": "checkouts",
        "orientation": 0
      }
    },
    {
      "type": "Feature",
      "geometry": {
        "type": "Point",
        "coordinates": [
          -76.986231,
          39.82668
        ]
      },
      "properties": {
        "type": "P",
        "sub_category": "Services",
        "poi_name": "CHAIN AND ROPE CUTTING",
        "profile": "STORE SERVICES",
        "icon_id": "chain_rope_cutting",
        "orientation": 0
      }
    },
    {
      "type": "Feature",
      "geometry": {
        "type": "Point",
        "coordinates": [
          -76.986243,
          39.826592
        ]
      },
      "properties": {
        "type": "P",
        "sub_category": "Services",
        "poi_name": "KEY CUTTING",
        "profile": "STORE SERVICES",
        "icon_id": "key_copying",
        "orientation": 0
      }
    },
    {
      "type": "Feature",
      "geometry": {
        "type": "Point",
        "coordinates": [
          -76.987059,
          39.827187
        ]
      },
      "properties": {
        "type": "P",
        "sub_category": "Services",
        "poi_name": "WOOD CUTTING",
        "profile": "STORE SERVICES",
        "icon_id": "wood_cutting",
        "orientation": 0
      }
    },
    {
      "type": "Feature",
      "geometry": {
        "type": "Point",
        "coordinates": [
          -76.986417,
          39.827031
        ]
      },
      "properties": {
        "type": "P",
        "sub_category": "Services",
        "poi_name": "BLIND CUTTING",
        "profile": "STORE SERVICES",
        "icon_id": "blind_cutting",
        "orientation": 0
      }
    },
    {
      "type": "Feature",
      "geometry": {
        "type": "Point",
        "coordinates": [
          -76.986685,
          39.826852
        ]
      },
      "properties": {
        "type": "P",
        "sub_category": "Services",
        "poi_name": "WIRE CUTTING",
        "profile": "STORE SERVICES",
        "icon_id": "wire_cutting",
        "orientation": 0
      }
    },
    {
      "type": "Feature",
      "geometry": {
        "type": "Point",
        "coordinates": [
          -76.986042,
          39.827001
        ]
      },
      "properties": {
        "type": "P",
        "sub_category": "ServiceDesks",
        "poi_name": "APPLIANCE DESK",
        "profile": "STORE SERVICES",
        "icon_id": "appliance_desk",
        "orientation": 0
      }
    },
    {
      "type": "Feature",
      "geometry": {
        "type": "Point",
        "coordinates": [
          -76.986219,
          39.827219
        ]
      },
      "properties": {
        "type": "P",
        "sub_category": "Services",
        "poi_name": "CARPET CUTTING",
        "profile": "STORE SERVICES",
        "icon_id": "carpet_cutting",
        "orientation": 0
      }
    },
    {
      "type": "Feature",
      "geometry": {
        "type": "Point",
        "coordinates": [
          -76.986121,
          39.826445
        ]
      },
      "properties": {
        "type": "P",
        "sub_category": "EntryExit",
        "poi_name": "MAIN ENTRANCE",
        "profile": "BASIC INFO",
        "icon_id": "entrance_exit",
        "orientation": 0
      }
    },
    {
      "type": "Feature",
      "geometry": {
        "type": "Point",
        "coordinates": [
          -76.986161,
          39.826516
        ]
      },
      "properties": {
        "type": "P",
        "sub_category": "ServiceDesks",
        "poi_name": "CUSTOMER SERVICE",
        "profile": "BASIC INFO",
        "icon_id": "customer_service_desk",
        "orientation": 0
      }
    },
    {
      "type": "Feature",
      "geometry": {
        "type": "Point",
        "coordinates": [
          -76.986351,
          39.826554
        ]
      },
      "properties": {
        "type": "P",
        "sub_category": "Checkouts",
        "poi_name": "MAIN CHECKOUT",
        "profile": "BASIC INFO",
        "icon_id": "checkouts",
        "orientation": 0
      }
    },
    {
      "type": "Feature",
      "geometry": {
        "type": "Point",
        "coordinates": [
          -76.986162,
          39.826526
        ]
      },
      "properties": {
        "type": "P",
        "sub_category": "Services",
        "poi_name": "RETURNS",
        "profile": "BASIC INFO",
        "icon_id": "returns",
        "orientation": 0
      }
    },
    {
      "type": "Feature",
      "geometry": {
        "type": "Point",
        "coordinates": [
          -76.986258,
          39.826473
        ]
      },
      "properties": {
        "type": "P",
        "sub_category": "Services",
        "poi_name": "PRODUCT PICK-UP",
        "profile": "BASIC INFO",
        "icon_id": "store_pick_up",
        "orientation": 0
      }
    },
    {
      "type": "Feature",
      "geometry": {
        "type": "Point",
        "coordinates": [
          -76.986222,
          39.826473
        ]
      },
      "properties": {
        "type": "P",
        "sub_category": "Services",
        "poi_name": "PICKUP LOCKER",
        "profile": "BASIC INFO",
        "icon_id": "pickup_lockers",
        "orientation": 0
      }
    },
    {
      "type": "Feature",
      "geometry": {
        "type": "Point",
        "coordinates": [
          -76.986393,
          39.826557
        ]
      },
      "properties": {
        "type": "P",
        "sub_category": "Checkouts",
        "poi_name": "MAIN SELF-CHECKOUT",
        "profile": "BASIC INFO",
        "icon_id": "checkouts",
        "orientation": 0
      }
    },
    {
      "type": "Feature",
      "geometry": {
        "type": "Point",
        "coordinates": [
          -76.986161,
          39.826509
        ]
      },
      "properties": {
        "type": "P",
        "sub_category": "ServiceDesks",
        "poi_name": "CUSTOMER SERVICE",
        "profile": "BASIC INFO",
        "icon_id": "customer_service_desk",
        "orientation": 0
      }
    },
    {
      "type": "Feature",
      "geometry": {
        "type": "Point",
        "coordinates": [
          -76.986902,
          39.826939
        ]
      },
      "properties": {
        "name": "LUMBER",
        "orientation": 0
      }
    },
    {
      "type": "Feature",
      "geometry": {
        "type": "Point",
        "coordinates": [
          -76.986935,
          39.827073
        ]
      },
      "properties": {
        "name": "LUMBER",
        "orientation": 0
      }
    },
    {
      "type": "Feature",
      "geometry": {
        "type": "Point",
        "coordinates": [
          -76.987048,
          39.827042
        ]
      },
      "properties": {
        "name": "LUMBER",
        "orientation": 0
      }
    },
    {
      "type": "Feature",
      "geometry": {
        "type": "Point",
        "coordinates": [
          -76.986976,
          39.826719
        ]
      },
      "properties": {
        "name": "LUMBER",
        "orientation": 0
      }
    },
    {
      "type": "Feature",
      "geometry": {
        "type": "Point",
        "coordinates": [
          -76.98708,
          39.827223
        ]
      },
      "properties": {
        "name": "LUMBER",
        "orientation": 0
      }
    },
    {
      "type": "Feature",
      "geometry": {
        "type": "Point",
        "coordinates": [
          -76.98693,
          39.826953
        ]
      },
      "properties": {
        "name": "BUILDING MATERIALS",
        "orientation": 0
      }
    },
    {
      "type": "Feature",
      "geometry": {
        "type": "Point",
        "coordinates": [
          -76.986853,
          39.827006
        ]
      },
      "properties": {
        "name": "BUILDING MATERIALS",
        "orientation": 0
      }
    },
    {
      "type": "Feature",
      "geometry": {
        "type": "Point",
        "coordinates": [
          -76.986899,
          39.826719
        ]
      },
      "properties": {
        "name": "BUILDING MATERIALS",
        "orientation": 0
      }
    },
    {
      "type": "Feature",
      "geometry": {
        "type": "Point",
        "coordinates": [
          -76.987075,
          39.826858
        ]
      },
      "properties": {
        "name": "BUILDING MATERIALS",
        "orientation": 0
      }
    },
    {
      "type": "Feature",
      "geometry": {
        "type": "Point",
        "coordinates": [
          -76.986803,
          39.827073
        ]
      },
      "properties": {
        "name": "MILLWORK",
        "orientation": 0
      }
    },
    {
      "type": "Feature",
      "geometry": {
        "type": "Point",
        "coordinates": [
          -76.986536,
          39.826719
        ]
      },
      "properties": {
        "name": "LIGHTING",
        "orientation": 0
      }
    },
    {
      "type": "Feature",
      "geometry": {
        "type": "Point",
        "coordinates": [
          -76.986671,
          39.826719
        ]
      },
      "properties": {
        "name": "ROUGH ELECTRICAL",
        "orientation": 0
      }
    },
    {
      "type": "Feature",
      "geometry": {
        "type": "Point",
        "coordinates": [
          -76.986563,
          39.827073
        ]
      },
      "properties": {
        "name": "FASHION PLUMBING",
        "orientation": 0
      }
    },
    {
      "type": "Feature",
      "geometry": {
        "type": "Point",
        "coordinates": [
          -76.986784,
          39.826719
        ]
      },
      "properties": {
        "name": "ROUGH PLUMBING",
        "orientation": 0
      }
    },
    {
      "type": "Feature",
      "geometry": {
        "type": "Point",
        "coordinates": [
          -76.986006,
          39.827074
        ]
      },
      "properties": {
        "name": "APPLIANCES",
        "orientation": 0
      }
    },
    {
      "type": "Feature",
      "geometry": {
        "type": "Point",
        "coordinates": [
          -76.986312,
          39.826681
        ]
      },
      "properties": {
        "name": "HARDWARE",
        "orientation": 0
      }
    },
    {
      "type": "Feature",
      "geometry": {
        "type": "Point",
        "coordinates": [
          -76.986216,
          39.826718
        ]
      },
      "properties": {
        "name": "HARDWARE",
        "orientation": 0
      }
    },
    {
      "type": "Feature",
      "geometry": {
        "type": "Point",
        "coordinates": [
          -76.986373,
          39.826715
        ]
      },
      "properties": {
        "name": "PAINT",
        "orientation": 0
      }
    },
    {
      "type": "Feature",
      "geometry": {
        "type": "Point",
        "coordinates": [
          -76.986291,
          39.826643
        ]
      },
      "properties": {
        "name": "TOOLS",
        "orientation": 0
      }
    },
    {
      "type": "Feature",
      "geometry": {
        "type": "Point",
        "coordinates": [
          -76.986866,
          39.826619
        ]
      },
      "properties": {
        "name": "TOOLS",
        "orientation": 0
      }
    },
    {
      "type": "Feature",
      "geometry": {
        "type": "Point",
        "coordinates": [
          -76.986723,
          39.826502
        ]
      },
      "properties": {
        "name": "TOOLS",
        "orientation": 0
      }
    },
    {
      "type": "Feature",
      "geometry": {
        "type": "Point",
        "coordinates": [
          -76.98597,
          39.82677
        ]
      },
      "properties": {
        "name": "OUTDOOR POWER EQUIPMENT",
        "orientation": 0
      }
    },
    {
      "type": "Feature",
      "geometry": {
        "type": "Point",
        "coordinates": [
          -76.986311,
          39.827073
        ]
      },
      "properties": {
        "name": "FLOORING",
        "orientation": 0
      }
    },
    {
      "type": "Feature",
      "geometry": {
        "type": "Point",
        "coordinates": [
          -76.98582,
          39.827045
        ]
      },
      "properties": {
        "name": "CABINETS",
        "orientation": 0
      }
    },
    {
      "type": "Feature",
      "geometry": {
        "type": "Point",
        "coordinates": [
          -76.985893,
          39.827074
        ]
      },
      "properties": {
        "name": "CABINETS",
        "orientation": 0
      }
    },
    {
      "type": "Feature",
      "geometry": {
        "type": "Point",
        "coordinates": [
          -76.986142,
          39.826718
        ]
      },
      "properties": {
        "name": "CLEANING",
        "orientation": 0
      }
    },
    {
      "type": "Feature",
      "geometry": {
        "type": "Point",
        "coordinates": [
          -76.985952,
          39.826846
        ]
      },
      "properties": {
        "name": "CLEANING",
        "orientation": 0
      }
    },
    {
      "type": "Feature",
      "geometry": {
        "type": "Point",
        "coordinates": [
          -76.986425,
          39.827048
        ]
      },
      "properties": {
        "name": "HOME DECOR",
        "orientation": 0
      }
    },
    {
      "type": "Feature",
      "geometry": {
        "type": "Point",
        "coordinates": [
          -76.986467,
          39.82723
        ]
      },
      "properties": {
        "name": "HOME DECOR",
        "orientation": 0
      }
    },
    {
      "type": "Feature",
      "geometry": {
        "type": "Point",
        "coordinates": [
          -76.985896,
          39.826497
        ]
      },
      "properties": {
        "name": "INSIDE LAWN AND GARDEN",
        "orientation": 0
      }
    },
    {
      "type": "Feature",
      "geometry": {
        "type": "Point",
        "coordinates": [
          -76.98569,
          39.826799
        ]
      },
      "properties": {
        "name": "INSIDE LAWN AND GARDEN",
        "orientation": 0
      }
    },
    {
      "type": "Feature",
      "geometry": {
        "type": "Point",
        "coordinates": [
          -76.985789,
          39.826647
        ]
      },
      "properties": {
        "name": "INSIDE LAWN AND GARDEN",
        "orientation": 0
      }
    },
    {
      "type": "Feature",
      "geometry": {
        "type": "Point",
        "coordinates": [
          -76.985964,
          39.82687
        ]
      },
      "properties": {
        "name": "INSIDE LAWN AND GARDEN",
        "orientation": 0
      }
    },
    {
      "type": "Feature",
      "geometry": {
        "type": "Point",
        "coordinates": [
          -76.985958,
          39.826713
        ]
      },
      "properties": {
        "name": "INSIDE LAWN AND GARDEN",
        "orientation": 0
      }
    },
    {
      "type": "Feature",
      "geometry": {
        "type": "Point",
        "coordinates": [
          -76.986002,
          39.826825
        ]
      },
      "properties": {
        "name": "INSIDE LAWN AND GARDEN",
        "orientation": 0
      }
    },
    {
      "type": "Feature",
      "geometry": {
        "type": "Point",
        "coordinates": [
          -76.985663,
          39.826453
        ]
      },
      "properties": {
        "name": "OUTSIDE LAWN AND GARDEN",
        "orientation": 0
      }
    },
    {
      "type": "Feature",
      "geometry": {
        "type": "Point",
        "coordinates": [
          -76.985577,
          39.826928
        ]
      },
      "properties": {
        "name": "OUTSIDE LAWN AND GARDEN",
        "orientation": 0
      }
    },
    {
      "type": "Feature",
      "geometry": {
        "type": "Point",
        "coordinates": [
          -76.985604,
          39.826807
        ]
      },
      "properties": {
        "name": "OUTSIDE LAWN AND GARDEN",
        "orientation": 0
      }
    },
    {
      "type": "Feature",
      "geometry": {
        "type": "Point",
        "coordinates": [
          -76.985364,
          39.826808
        ]
      },
      "properties": {
        "name": "OUTSIDE LAWN AND GARDEN",
        "orientation": 0
      }
    },
    {
      "type": "Feature",
      "geometry": {
        "type": "Point",
        "coordinates": [
          -76.985562,
          39.826556
        ]
      },
      "properties": {
        "name": "OUTSIDE LAWN AND GARDEN",
        "orientation": 0
      }
    },
    {
      "type": "Feature",
      "geometry": {
        "type": "Point",
        "coordinates": [
          -76.986154,
          39.827073
        ]
      },
      "properties": {
        "name": "STORAGE",
        "orientation": 0
      }
    },
    {
      "type": "Feature",
      "geometry": {
        "type": "Point",
        "coordinates": [
          -76.986291,
          39.826782
        ]
      },
      "properties": {
        "name": "STORAGE",
        "orientation": 0
      }
    },
    {
      "type": "Feature",
      "geometry": {
        "type": "Point",
        "coordinates": [
          -76.985577,
          39.826678
        ]
      },
      "properties": {
        "name": "GARDEN CENTER",
        "orientation": 0
      }
    }
  ]
}