{"type": "FeatureCollection", "name": "Lowes_depertment_point", "crs": {"type": "name", "properties": {"name": "urn:ogc:def:crs:EPSG::4326"}}, "features": [{"type": "Feature", "properties": {"fill": null, "name": null, "stroke-width": null, "stroke": null, "opacity": null, "type": "P", "sub_category": "ServiceDesks", "poi_name": "MILLWORK DESK", "profile": "STORE SERVICES", "icon_id": "millwork_desk", "orientation": 0}, "geometry": {"type": "Point", "coordinates": [-72.71463477602218, 41.813955034203396]}}, {"type": "Feature", "properties": {"fill": null, "name": null, "stroke-width": null, "stroke": null, "opacity": null, "type": "P", "sub_category": "EntryExit", "poi_name": "MAIN EXIT", "profile": "BASIC INFO", "icon_id": "entrance_exit", "orientation": 0}, "geometry": {"type": "Point", "coordinates": [-72.71497436719018, 41.814359913755396]}}, {"type": "Feature", "properties": {"fill": null, "name": null, "stroke-width": null, "stroke": null, "opacity": null, "type": "P", "sub_category": "EntryExit", "poi_name": "PRO ENTRANCE", "profile": "BASIC INFO", "icon_id": "entrance_exit", "orientation": 0}, "geometry": {"type": "Point", "coordinates": [-72.71441722543018, 41.81438835570739]}}, {"type": "Feature", "properties": {"fill": null, "name": null, "stroke-width": null, "stroke": null, "opacity": null, "type": "P", "sub_category": "EntryExit", "poi_name": "PRO EXIT", "profile": "BASIC INFO", "icon_id": "entrance_exit", "orientation": 0}, "geometry": {"type": "Point", "coordinates": [-72.71441722543018, 41.8143557311154]}}, {"type": "Feature", "properties": {"fill": null, "name": null, "stroke-width": null, "stroke": null, "opacity": null, "type": "P", "sub_category": "EntryExit", "poi_name": "GARDEN CENTER ENTRANCE", "profile": "BASIC INFO", "icon_id": "entrance_exit", "orientation": 0}, "geometry": {"type": "Point", "coordinates": [-72.71576055611817, 41.8144586240594]}}, {"type": "Feature", "properties": {"fill": null, "name": null, "stroke-width": null, "stroke": null, "opacity": null, "type": "P", "sub_category": "EntryExit", "poi_name": "GARDEN CENTER EXIT", "profile": "BASIC INFO", "icon_id": "entrance_exit", "orientation": 0}, "geometry": {"type": "Point", "coordinates": [-72.71576055611817, 41.814400903627394]}}, {"type": "Feature", "properties": {"fill": null, "name": null, "stroke-width": null, "stroke": null, "opacity": null, "type": "P", "sub_category": "Restrooms", "poi_name": "MEN/WOMEN\u2019S RESTROOMS", "profile": "BASIC INFO", "icon_id": "restrooms", "orientation": 0}, "geometry": {"type": "Point", "coordinates": [-72.71487178235817, 41.8143925383474]}}, {"type": "Feature", "properties": {"fill": null, "name": null, "stroke-width": null, "stroke": null, "opacity": null, "type": "P", "sub_category": "Restrooms", "poi_name": "UNISEX", "profile": "BASIC INFO", "icon_id": "restrooms", "orientation": 0}, "geometry": {"type": "Point", "coordinates": [-72.71484525179818, 41.8143950479314]}}, {"type": "Feature", "properties": {"fill": null, "name": null, "stroke-width": null, "stroke": null, "opacity": null, "type": "P", "sub_category": "ServiceDesks", "poi_name": "PRO SERVICE DESK", "profile": "BASIC INFO", "icon_id": "pro_service_desk", "orientation": 0}, "geometry": {"type": "Point", "coordinates": [-72.71437123912618, 41.81431139513139]}}, {"type": "Feature", "properties": {"fill": null, "name": null, "stroke-width": null, "stroke": null, "opacity": null, "type": "P", "sub_category": "ServiceDesks", "poi_name": "FLOORING DESK", "profile": "STORE SERVICES", "icon_id": "flooring_desk", "orientation": 0}, "geometry": {"type": "Point", "coordinates": [-72.71502300655017, 41.8139726012914]}}, {"type": "Feature", "properties": {"fill": null, "name": null, "stroke-width": null, "stroke": null, "opacity": null, "type": "P", "sub_category": "ServiceDesks", "poi_name": "HOME DECOR DESK", "profile": "STORE SERVICES", "icon_id": "home_d\u00e9cor_desk", "orientation": 0}, "geometry": {"type": "Point", "coordinates": [-72.71491953736619, 41.8139366305874]}}, {"type": "Feature", "properties": {"fill": null, "name": null, "stroke-width": null, "stroke": null, "opacity": null, "type": "P", "sub_category": "ServiceDesks", "poi_name": "KITCHEN DESIGN DESK", "profile": "STORE SERVICES", "icon_id": "kitchen_design_desk", "orientation": 0}, "geometry": {"type": "Point", "coordinates": [-72.71540593096618, 41.813822026251394]}}, {"type": "Feature", "properties": {"fill": null, "name": null, "stroke-width": null, "stroke": null, "opacity": null, "type": "P", "sub_category": "Checkouts", "poi_name": "PRO CHECKOUT", "profile": "BASIC INFO", "icon_id": "checkouts", "orientation": 0}, "geometry": {"type": "Point", "coordinates": [-72.71441722543018, 41.81432143346739]}}, {"type": "Feature", "properties": {"fill": null, "name": null, "stroke-width": null, "stroke": null, "opacity": null, "type": "P", "sub_category": "Checkouts", "poi_name": "GARDEN CENTER CHECKOUT", "profile": "BASIC INFO", "icon_id": "checkouts", "orientation": 0}, "geometry": {"type": "Point", "coordinates": [-72.71576055611817, 41.814339837083395]}}, {"type": "Feature", "properties": {"fill": null, "name": null, "stroke-width": null, "stroke": null, "opacity": null, "type": "P", "sub_category": "Services", "poi_name": "CHAIN AND ROPE CUTTING", "profile": "STORE SERVICES", "icon_id": "chain_rope_cutting", "orientation": 0}, "geometry": {"type": "Point", "coordinates": [-72.71511409480617, 41.8141917716274]}}, {"type": "Feature", "properties": {"fill": null, "name": null, "stroke-width": null, "stroke": null, "opacity": null, "type": "P", "sub_category": "Services", "poi_name": "KEY CUTTING", "profile": "STORE SERVICES", "icon_id": "key_copying", "orientation": 0}, "geometry": {"type": "Point", "coordinates": [-72.71510348258218, 41.8142653860914]}}, {"type": "Feature", "properties": {"fill": null, "name": null, "stroke-width": null, "stroke": null, "opacity": null, "type": "P", "sub_category": "Services", "poi_name": "WOOD CUTTING", "profile": "STORE SERVICES", "icon_id": "wood_cutting", "orientation": 0}, "geometry": {"type": "Point", "coordinates": [-72.71438185135018, 41.81376765193139]}}, {"type": "Feature", "properties": {"fill": null, "name": null, "stroke-width": null, "stroke": null, "opacity": null, "type": "P", "sub_category": "Services", "poi_name": "BLIND CUTTING", "profile": "STORE SERVICES", "icon_id": "blind_cutting", "orientation": 0}, "geometry": {"type": "Point", "coordinates": [-72.71494960533418, 41.813898150299394]}}, {"type": "Feature", "properties": {"fill": null, "name": null, "stroke-width": null, "stroke": null, "opacity": null, "type": "P", "sub_category": "Services", "poi_name": "WIRE CUTTING", "profile": "STORE SERVICES", "icon_id": "wire_cutting", "orientation": 0}, "geometry": {"type": "Point", "coordinates": [-72.71471259899819, 41.814047888811395]}}, {"type": "Feature", "properties": {"fill": null, "name": null, "stroke-width": null, "stroke": null, "opacity": null, "type": "P", "sub_category": "ServiceDesks", "poi_name": "APPLIANCE DESK", "profile": "STORE SERVICES", "icon_id": "appliance_desk", "orientation": 0}, "geometry": {"type": "Point", "coordinates": [-72.71528123733418, 41.81392324613939]}}, {"type": "Feature", "properties": {"fill": null, "name": null, "stroke-width": null, "stroke": null, "opacity": null, "type": "P", "sub_category": "Services", "poi_name": "CARPET CUTTING", "profile": "STORE SERVICES", "icon_id": "carpet_cutting", "orientation": 0}, "geometry": {"type": "Point", "coordinates": [-72.71512470703017, 41.8137408830354]}}, {"type": "Feature", "properties": {"fill": null, "name": null, "stroke-width": null, "stroke": null, "opacity": null, "type": "P", "sub_category": "EntryExit", "poi_name": "MAIN ENTRANCE", "profile": "BASIC INFO", "icon_id": "entrance_exit", "orientation": 0}, "geometry": {"type": "Point", "coordinates": [-72.71521137352619, 41.81438835570739]}}, {"type": "Feature", "properties": {"fill": null, "name": null, "stroke-width": null, "stroke": null, "opacity": null, "type": "P", "sub_category": "ServiceDesks", "poi_name": "CUSTOMER SERVICE", "profile": "BASIC INFO", "icon_id": "customer_service_desk", "orientation": 0}, "geometry": {"type": "Point", "coordinates": [-72.71517599944617, 41.8143289622194]}}, {"type": "Feature", "properties": {"fill": null, "name": null, "stroke-width": null, "stroke": null, "opacity": null, "type": "P", "sub_category": "Checkouts", "poi_name": "MAIN CHECKOUT", "profile": "BASIC INFO", "icon_id": "checkouts", "orientation": 0}, "geometry": {"type": "Point", "coordinates": [-72.71500797256618, 41.81429717415539]}}, {"type": "Feature", "properties": {"fill": null, "name": null, "stroke-width": null, "stroke": null, "opacity": null, "type": "P", "sub_category": "Services", "poi_name": "RETURNS", "profile": "BASIC INFO", "icon_id": "returns", "orientation": 0}, "geometry": {"type": "Point", "coordinates": [-72.71517511509418, 41.814320596939396]}}, {"type": "Feature", "properties": {"fill": null, "name": null, "stroke-width": null, "stroke": null, "opacity": null, "type": "P", "sub_category": "Services", "poi_name": "PRODUCT PICK-UP", "profile": "BASIC INFO", "icon_id": "store_pick_up", "orientation": 0}, "geometry": {"type": "Point", "coordinates": [-72.71509021730218, 41.8143649329234]}}, {"type": "Feature", "properties": {"fill": null, "name": null, "stroke-width": null, "stroke": null, "opacity": null, "type": "P", "sub_category": "Services", "poi_name": "PICKUP LOCKER", "profile": "BASIC INFO", "icon_id": "pickup_lockers", "orientation": 0}, "geometry": {"type": "Point", "coordinates": [-72.71512205397418, 41.8143649329234]}}, {"type": "Feature", "properties": {"fill": null, "name": null, "stroke-width": null, "stroke": null, "opacity": null, "type": "P", "sub_category": "Checkouts", "poi_name": "MAIN SELF-CHECKOUT", "profile": "BASIC INFO", "icon_id": "checkouts", "orientation": 0}, "geometry": {"type": "Point", "coordinates": [-72.71497082978219, 41.81429466457139]}}, {"type": "Feature", "properties": {"fill": null, "name": null, "stroke-width": null, "stroke": null, "opacity": null, "type": "P", "sub_category": "ServiceDesks", "poi_name": "CUSTOMER SERVICE", "profile": "BASIC INFO", "icon_id": "customer_service_desk", "orientation": 0}, "geometry": {"type": "Point", "coordinates": [-72.71517599944617, 41.814334817915395]}}, {"type": "Feature", "properties": {"fill": null, "name": "LUMBER", "stroke-width": null, "stroke": null, "opacity": null, "type": null, "sub_category": null, "poi_name": null, "profile": null, "icon_id": null, "orientation": 0}, "geometry": {"type": "Point", "coordinates": [-72.71452069461418, 41.8139751108754]}}, {"type": "Feature", "properties": {"fill": null, "name": "LUMBER", "stroke-width": null, "stroke": null, "opacity": null, "type": null, "sub_category": null, "poi_name": null, "profile": null, "icon_id": null, "orientation": 0}, "geometry": {"type": "Point", "coordinates": [-72.71449151099817, 41.8138630161234]}}, {"type": "Feature", "properties": {"fill": null, "name": "LUMBER", "stroke-width": null, "stroke": null, "opacity": null, "type": null, "sub_category": null, "poi_name": null, "profile": null, "icon_id": null, "orientation": 0}, "geometry": {"type": "Point", "coordinates": [-72.71439157922218, 41.8138889484914]}}, {"type": "Feature", "properties": {"fill": null, "name": "LUMBER", "stroke-width": null, "stroke": null, "opacity": null, "type": null, "sub_category": null, "poi_name": null, "profile": null, "icon_id": null, "orientation": 0}, "geometry": {"type": "Point", "coordinates": [-72.71445525256618, 41.8141591470354]}}, {"type": "Feature", "properties": {"fill": null, "name": "LUMBER", "stroke-width": null, "stroke": null, "opacity": null, "type": null, "sub_category": null, "poi_name": null, "profile": null, "icon_id": null, "orientation": 0}, "geometry": {"type": "Point", "coordinates": [-72.71436327995818, 41.81373753692339]}}, {"type": "Feature", "properties": {"fill": null, "name": "BUILDING MATERIALS", "stroke-width": null, "stroke": null, "opacity": null, "type": null, "sub_category": null, "poi_name": null, "profile": null, "icon_id": null, "orientation": 0}, "geometry": {"type": "Point", "coordinates": [-72.71449593275818, 41.81396339948339]}}, {"type": "Feature", "properties": {"fill": null, "name": "BUILDING MATERIALS", "stroke-width": null, "stroke": null, "opacity": null, "type": null, "sub_category": null, "poi_name": null, "profile": null, "icon_id": null, "orientation": 0}, "geometry": {"type": "Point", "coordinates": [-72.71456402786218, 41.8139190634994]}}, {"type": "Feature", "properties": {"fill": null, "name": "BUILDING MATERIALS", "stroke-width": null, "stroke": null, "opacity": null, "type": null, "sub_category": null, "poi_name": null, "profile": null, "icon_id": null, "orientation": 0}, "geometry": {"type": "Point", "coordinates": [-72.71452334767018, 41.8141591470354]}}, {"type": "Feature", "properties": {"fill": null, "name": "BUILDING MATERIALS", "stroke-width": null, "stroke": null, "opacity": null, "type": null, "sub_category": null, "poi_name": null, "profile": null, "icon_id": null, "orientation": 0}, "geometry": {"type": "Point", "coordinates": [-72.71436770171817, 41.814042869643394]}}, {"type": "Feature", "properties": {"fill": null, "name": "MILLWORK", "stroke-width": null, "stroke": null, "opacity": null, "type": null, "sub_category": null, "poi_name": null, "profile": null, "icon_id": null, "orientation": 0}, "geometry": {"type": "Point", "coordinates": [-72.71460824546217, 41.8138630161234]}}, {"type": "Feature", "properties": {"fill": null, "name": "LIGHTING", "stroke-width": null, "stroke": null, "opacity": null, "type": null, "sub_category": null, "poi_name": null, "profile": null, "icon_id": null, "orientation": 0}, "geometry": {"type": "Point", "coordinates": [-72.71484436744618, 41.8141591470354]}}, {"type": "Feature", "properties": {"fill": null, "name": "ROUGH ELECTRICAL", "stroke-width": null, "stroke": null, "opacity": null, "type": null, "sub_category": null, "poi_name": null, "profile": null, "icon_id": null, "orientation": 0}, "geometry": {"type": "Point", "coordinates": [-72.71472497992619, 41.8141591470354]}}, {"type": "Feature", "properties": {"fill": null, "name": "FASHION PLUMBING", "stroke-width": null, "stroke": null, "opacity": null, "type": null, "sub_category": null, "poi_name": null, "profile": null, "icon_id": null, "orientation": 0}, "geometry": {"type": "Point", "coordinates": [-72.71482048994217, 41.8138630161234]}}, {"type": "Feature", "properties": {"fill": null, "name": "ROUGH PLUMBING", "stroke-width": null, "stroke": null, "opacity": null, "type": null, "sub_category": null, "poi_name": null, "profile": null, "icon_id": null, "orientation": 0}, "geometry": {"type": "Point", "coordinates": [-72.71462504815018, 41.8141591470354]}}, {"type": "Feature", "properties": {"fill": null, "name": "APPLIANCES", "stroke-width": null, "stroke": null, "opacity": null, "type": null, "sub_category": null, "poi_name": null, "profile": null, "icon_id": null, "orientation": 0}, "geometry": {"type": "Point", "coordinates": [-72.71531307400619, 41.8138621795954]}}, {"type": "Feature", "properties": {"fill": null, "name": "HARDWARE", "stroke-width": null, "stroke": null, "opacity": null, "type": null, "sub_category": null, "poi_name": null, "profile": null, "icon_id": null, "orientation": 0}, "geometry": {"type": "Point", "coordinates": [-72.71504246229419, 41.8141909350994]}}, {"type": "Feature", "properties": {"fill": null, "name": "HARDWARE", "stroke-width": null, "stroke": null, "opacity": null, "type": null, "sub_category": null, "poi_name": null, "profile": null, "icon_id": null, "orientation": 0}, "geometry": {"type": "Point", "coordinates": [-72.71512736008619, 41.8141599835634]}}, {"type": "Feature", "properties": {"fill": null, "name": "PAINT", "stroke-width": null, "stroke": null, "opacity": null, "type": null, "sub_category": null, "poi_name": null, "profile": null, "icon_id": null, "orientation": 0}, "geometry": {"type": "Point", "coordinates": [-72.71498851682219, 41.8141624931474]}}, {"type": "Feature", "properties": {"fill": null, "name": "TOOLS", "stroke-width": null, "stroke": null, "opacity": null, "type": null, "sub_category": null, "poi_name": null, "profile": null, "icon_id": null, "orientation": 0}, "geometry": {"type": "Point", "coordinates": [-72.71506103368618, 41.814222723163404]}}, {"type": "Feature", "properties": {"fill": null, "name": "TOOLS", "stroke-width": null, "stroke": null, "opacity": null, "type": null, "sub_category": null, "poi_name": null, "profile": null, "icon_id": null, "orientation": 0}, "geometry": {"type": "Point", "coordinates": [-72.71455253128619, 41.8142427998354]}}, {"type": "Feature", "properties": {"fill": null, "name": "TOOLS", "stroke-width": null, "stroke": null, "opacity": null, "type": null, "sub_category": null, "poi_name": null, "profile": null, "icon_id": null, "orientation": 0}, "geometry": {"type": "Point", "coordinates": [-72.71467899362219, 41.8143406736114]}}, {"type": "Feature", "properties": {"fill": null, "name": "OUTDOOR POWER EQUIPMENT", "stroke-width": null, "stroke": null, "opacity": null, "type": null, "sub_category": null, "poi_name": null, "profile": null, "icon_id": null, "orientation": 0}, "geometry": {"type": "Point", "coordinates": [-72.71534491067818, 41.814116484107394]}}, {"type": "Feature", "properties": {"fill": null, "name": "FLOORING", "stroke-width": null, "stroke": null, "opacity": null, "type": null, "sub_category": null, "poi_name": null, "profile": null, "icon_id": null, "orientation": 0}, "geometry": {"type": "Point", "coordinates": [-72.71504334664618, 41.8138630161234]}}, {"type": "Feature", "properties": {"fill": null, "name": "CABINETS", "stroke-width": null, "stroke": null, "opacity": null, "type": null, "sub_category": null, "poi_name": null, "profile": null, "icon_id": null, "orientation": 0}, "geometry": {"type": "Point", "coordinates": [-72.71547756347817, 41.813886438907396]}}, {"type": "Feature", "properties": {"fill": null, "name": "CABINETS", "stroke-width": null, "stroke": null, "opacity": null, "type": null, "sub_category": null, "poi_name": null, "profile": null, "icon_id": null, "orientation": 0}, "geometry": {"type": "Point", "coordinates": [-72.71541300578218, 41.8138621795954]}}, {"type": "Feature", "properties": {"fill": null, "name": "CLEANING", "stroke-width": null, "stroke": null, "opacity": null, "type": null, "sub_category": null, "poi_name": null, "profile": null, "icon_id": null, "orientation": 0}, "geometry": {"type": "Point", "coordinates": [-72.71519280213418, 41.8141599835634]}}, {"type": "Feature", "properties": {"fill": null, "name": "CLEANING", "stroke-width": null, "stroke": null, "opacity": null, "type": null, "sub_category": null, "poi_name": null, "profile": null, "icon_id": null, "orientation": 0}, "geometry": {"type": "Point", "coordinates": [-72.71536082901419, 41.814052907979395]}}, {"type": "Feature", "properties": {"fill": null, "name": "HOME DECOR", "stroke-width": null, "stroke": null, "opacity": null, "type": null, "sub_category": null, "poi_name": null, "profile": null, "icon_id": null, "orientation": 0}, "geometry": {"type": "Point", "coordinates": [-72.71494253051817, 41.813883929323396]}}, {"type": "Feature", "properties": {"fill": null, "name": "HOME DECOR", "stroke-width": null, "stroke": null, "opacity": null, "type": null, "sub_category": null, "poi_name": null, "profile": null, "icon_id": null, "orientation": 0}, "geometry": {"type": "Point", "coordinates": [-72.71490538773418, 41.813731681227395]}}, {"type": "Feature", "properties": {"fill": null, "name": "INSIDE LAWN AND GARDEN", "stroke-width": null, "stroke": null, "opacity": null, "type": null, "sub_category": null, "poi_name": null, "profile": null, "icon_id": null, "orientation": 0}, "geometry": {"type": "Point", "coordinates": [-72.71541035272618, 41.814344856251395]}}, {"type": "Feature", "properties": {"fill": null, "name": "INSIDE LAWN AND GARDEN", "stroke-width": null, "stroke": null, "opacity": null, "type": null, "sub_category": null, "poi_name": null, "profile": null, "icon_id": null, "orientation": 0}, "geometry": {"type": "Point", "coordinates": [-72.7155925292382, 41.814092224795395]}}, {"type": "Feature", "properties": {"fill": null, "name": "INSIDE LAWN AND GARDEN", "stroke-width": null, "stroke": null, "opacity": null, "type": null, "sub_category": null, "poi_name": null, "profile": null, "icon_id": null, "orientation": 0}, "geometry": {"type": "Point", "coordinates": [-72.71550497839019, 41.814219377051394]}}, {"type": "Feature", "properties": {"fill": null, "name": "INSIDE LAWN AND GARDEN", "stroke-width": null, "stroke": null, "opacity": null, "type": null, "sub_category": null, "poi_name": null, "profile": null, "icon_id": null, "orientation": 0}, "geometry": {"type": "Point", "coordinates": [-72.71535021679018, 41.8140328313074]}}, {"type": "Feature", "properties": {"fill": null, "name": "INSIDE LAWN AND GARDEN", "stroke-width": null, "stroke": null, "opacity": null, "type": null, "sub_category": null, "poi_name": null, "profile": null, "icon_id": null, "orientation": 0}, "geometry": {"type": "Point", "coordinates": [-72.71535552290219, 41.8141641662034]}}, {"type": "Feature", "properties": {"fill": null, "name": "INSIDE LAWN AND GARDEN", "stroke-width": null, "stroke": null, "opacity": null, "type": null, "sub_category": null, "poi_name": null, "profile": null, "icon_id": null, "orientation": 0}, "geometry": {"type": "Point", "coordinates": [-72.71531661141418, 41.814070475067396]}}, {"type": "Feature", "properties": {"fill": null, "name": "OUTSIDE LAWN AND GARDEN", "stroke-width": null, "stroke": null, "opacity": null, "type": null, "sub_category": null, "poi_name": null, "profile": null, "icon_id": null, "orientation": 0}, "geometry": {"type": "Point", "coordinates": [-72.7156164067422, 41.8143816634834]}}, {"type": "Feature", "properties": {"fill": null, "name": "OUTSIDE LAWN AND GARDEN", "stroke-width": null, "stroke": null, "opacity": null, "type": null, "sub_category": null, "poi_name": null, "profile": null, "icon_id": null, "orientation": 0}, "geometry": {"type": "Point", "coordinates": [-72.71569246101419, 41.813984312683395]}}, {"type": "Feature", "properties": {"fill": null, "name": "OUTSIDE LAWN AND GARDEN", "stroke-width": null, "stroke": null, "opacity": null, "type": null, "sub_category": null, "poi_name": null, "profile": null, "icon_id": null, "orientation": 0}, "geometry": {"type": "Point", "coordinates": [-72.71566858351018, 41.8140855325714]}}, {"type": "Feature", "properties": {"fill": null, "name": "OUTSIDE LAWN AND GARDEN", "stroke-width": null, "stroke": null, "opacity": null, "type": null, "sub_category": null, "poi_name": null, "profile": null, "icon_id": null, "orientation": 0}, "geometry": {"type": "Point", "coordinates": [-72.71588082799018, 41.814084696043395]}}, {"type": "Feature", "properties": {"fill": null, "name": "OUTSIDE LAWN AND GARDEN", "stroke-width": null, "stroke": null, "opacity": null, "type": null, "sub_category": null, "poi_name": null, "profile": null, "icon_id": null, "orientation": 0}, "geometry": {"type": "Point", "coordinates": [-72.71570572629419, 41.814295501099394]}}, {"type": "Feature", "properties": {"fill": null, "name": "STORAGE", "stroke-width": null, "stroke": null, "opacity": null, "type": null, "sub_category": null, "poi_name": null, "profile": null, "icon_id": null, "orientation": 0}, "geometry": {"type": "Point", "coordinates": [-72.71518218991018, 41.8138630161234]}}, {"type": "Feature", "properties": {"fill": null, "name": "STORAGE", "stroke-width": null, "stroke": null, "opacity": null, "type": null, "sub_category": null, "poi_name": null, "profile": null, "icon_id": null, "orientation": 0}, "geometry": {"type": "Point", "coordinates": [-72.71506103368618, 41.8141064457714]}}, {"type": "Feature", "properties": {"fill": null, "name": "GARDEN CENTER", "stroke-width": null, "stroke": null, "opacity": null, "type": null, "sub_category": null, "poi_name": null, "profile": null, "icon_id": null, "orientation": 0}, "geometry": {"type": "Point", "coordinates": [-72.71569246101419, 41.8141934446834]}}]}