{
  "type": "FeatureCollection",
  "features": [
    {
      "type": "Feature",
      "geometry": {
        "type": "MultiPolygon",
        "coordinates": [
          [
            [
              [
                -76.986964,
                39.826872
              ],
              [
                -76.986931,
                39.826872
              ],
              [
                -76.986931,
                39.827054
              ],
              [
                -76.986964,
                39.827054
              ],
              [
                -76.986964,
                39.826872
              ]
            ]
          ],
          [
            [
              [
                -76.986999,
                39.827065
              ],
              [
                -76.986999,
                39.826844
              ],
              [
                -76.987032,
                39.826844
              ],
              [
                -76.987032,
                39.827034
              ],
              [
                -76.987071,
                39.827034
              ],
              [
                -76.987071,
                39.827065
              ],
              [
                -76.986999,
                39.827065
              ]
            ]
          ],
          [
            [
              [
                -76.987071,
                39.826806
              ],
              [
                -76.987,
                39.826806
              ],
              [
                -76.987,
                39.82663
              ],
              [
                -76.986987,
                39.82663
              ],
              [
                -76.986987,
                39.82658
              ],
              [
                -76.987,
                39.82658
              ],
              [
                -76.987,
                39.82657
              ],
              [
                -76.987071,
                39.82657
              ],
              [
                -76.987071,
                39.826581
              ],
              [
                -76.987033,
                39.826581
              ],
              [
                -76.987033,
                39.826707
              ],
              [
                -76.987071,
                39.826707
              ],
              [
                -76.987071,
                39.826748
              ],
              [
                -76.987111,
                39.826748
              ],
              [
                -76.987111,
                39.826795
              ],
              [
                -76.987089,
                39.826795
              ],
              [
                -76.987089,
                39.826806
              ],
              [
                -76.987071,
                39.826806
              ]
            ]
          ],
          [
            [
              [
                -76.986964,
                39.826805
              ],
              [
                -76.986891,
                39.826805
              ],
              [
                -76.986891,
                39.826806
              ],
              [
                -76.986851,
                39.826806
              ],
              [
                -76.986851,
                39.826772
              ],
              [
                -76.986891,
                39.826772
              ],
              [
                -76.986891,
                39.826719
              ],
              [
                -76.986846,
                39.826719
              ],
              [
                -76.986847,
                39.826659
              ],
              [
                -76.986891,
                39.826659
              ],
              [
                -76.986891,
                39.826577
              ],
              [
                -76.986964,
                39.826577
              ],
              [
                -76.986964,
                39.826587
              ],
              [
                -76.986933,
                39.826587
              ],
              [
                -76.986933,
                39.826596
              ],
              [
                -76.986964,
                39.826596
              ],
              [
                -76.986964,
                39.826669
              ],
              [
                -76.986933,
                39.826669
              ],
              [
                -76.986933,
                39.826741
              ],
              [
                -76.986964,
                39.826741
              ],
              [
                -76.986964,
                39.826805
              ]
            ]
          ],
          [
            [
              [
                -76.986931,
                39.826931
              ],
              [
                -76.986964,
                39.826931
              ],
              [
                -76.986964,
                39.826957
              ],
              [
                -76.986931,
                39.826957
              ],
              [
                -76.986931,
                39.826931
              ]
            ]
          ],
          [
            [
              [
                -76.987111,
                39.827085
              ],
              [
                -76.987094,
                39.827085
              ],
              [
                -76.987094,
                39.827065
              ],
              [
                -76.987071,
                39.827065
              ],
              [
                -76.987071,
                39.827034
              ],
              [
                -76.987032,
                39.827034
              ],
              [
                -76.987032,
                39.826844
              ],
              [
                -76.987071,
                39.826844
              ],
              [
                -76.987071,
                39.826789
              ],
              [
                -76.987033,
                39.826789
              ],
              [
                -76.987033,
                39.82678
              ],
              [
                -76.987071,
                39.82678
              ],
              [
                -76.987071,
                39.826707
              ],
              [
                -76.987033,
                39.826707
              ],
              [
                -76.987033,
                39.826581
              ],
              [
                -76.987071,
                39.826581
              ],
              [
                -76.987071,
                39.826528
              ],
              [
                -76.987111,
                39.826528
              ],
              [
                -76.987111,
                39.826624
              ],
              [
                -76.987089,
                39.826624
              ],
              [
                -76.987089,
                39.826633
              ],
              [
                -76.987111,
                39.826633
              ],
              [
                -76.987111,
                39.826748
              ],
              [
                -76.987111,
                39.826795
              ],
              [
                -76.987089,
                39.826795
              ],
              [
                -76.987089,
                39.826805
              ],
              [
                -76.987111,
                39.826805
              ],
              [
                -76.987111,
                39.826979
              ],
              [
                -76.987089,
                39.826979
              ],
              [
                -76.987089,
                39.826988
              ],
              [
                -76.987111,
                39.826988
              ],
              [
                -76.987111,
                39.827085
              ]
            ]
          ],
          [
            [
              [
                -76.986964,
                39.826577
              ],
              [
                -76.986964,
                39.82657
              ],
              [
                -76.986891,
                39.82657
              ],
              [
                -76.986891,
                39.826575
              ],
              [
                -76.986806,
                39.826575
              ],
              [
                -76.986806,
                39.826608
              ],
              [
                -76.986776,
                39.826608
              ],
              [
                -76.986776,
                39.826674
              ],
              [
                -76.986746,
                39.826674
              ],
              [
                -76.986746,
                39.82679
              ],
              [
                -76.986718,
                39.82679
              ],
              [
                -76.986718,
                39.826806
              ],
              [
                -76.986806,
                39.826806
              ],
              [
                -76.986806,
                39.826812
              ],
              [
                -76.986837,
                39.826812
              ],
              [
                -76.986837,
                39.826806
              ],
              [
                -76.986851,
                39.826806
              ],
              [
                -76.986851,
                39.826772
              ],
              [
                -76.986891,
                39.826772
              ],
              [
                -76.986891,
                39.826719
              ],
              [
                -76.986846,
                39.826719
              ],
              [
                -76.986846,
                39.826694
              ],
              [
                -76.986846,
                39.826659
              ],
              [
                -76.986891,
                39.826659
              ],
              [
                -76.986891,
                39.826577
              ],
              [
                -76.986933,
                39.826577
              ],
              [
                -76.986964,
                39.826577
              ]
            ]
          ],
          [
            [
              [
                -76.986679,
                39.827085
              ],
              [
                -76.986679,
                39.82706
              ],
              [
                -76.986683,
                39.82706
              ],
              [
                -76.986683,
                39.826844
              ],
              [
                -76.986714,
                39.826844
              ],
              [
                -76.986714,
                39.826835
              ],
              [
                -76.986833,
                39.826835
              ],
              [
                -76.986833,
                39.826844
              ],
              [
                -76.986898,
                39.826844
              ],
              [
                -76.986898,
                39.826872
              ],
              [
                -76.986931,
                39.826872
              ],
              [
                -76.986931,
                39.827054
              ],
              [
                -76.986964,
                39.827054
              ],
              [
                -76.986964,
                39.827065
              ],
              [
                -76.986945,
                39.827065
              ],
              [
                -76.986945,
                39.827085
              ],
              [
                -76.986752,
                39.827085
              ],
              [
                -76.986752,
                39.827073
              ],
              [
                -76.986734,
                39.827073
              ],
              [
                -76.986734,
                39.827085
              ],
              [
                -76.986679,
                39.827085
              ]
            ]
          ],
          [
            [
              [
                -76.987094,
                39.827085
              ],
              [
                -76.987046,
                39.827085
              ],
              [
                -76.987046,
                39.827073
              ],
              [
                -76.987029,
                39.827073
              ],
              [
                -76.987029,
                39.827065
              ],
              [
                -76.987094,
                39.827065
              ],
              [
                -76.987094,
                39.827085
              ]
            ]
          ],
          [
            [
              [
                -76.986964,
                39.826669
              ],
              [
                -76.986933,
                39.826669
              ],
              [
                -76.986933,
                39.826741
              ],
              [
                -76.986964,
                39.826741
              ],
              [
                -76.986964,
                39.826669
              ]
            ]
          ],
          [
            [
              [
                -76.986481,
                39.826781
              ],
              [
                -76.986425,
                39.826781
              ],
              [
                -76.986425,
                39.826807
              ],
              [
                -76.986369,
                39.826807
              ],
              [
                -76.986369,
                39.826774
              ],
              [
                -76.986313,
                39.826774
              ],
              [
                -76.986313,
                39.826576
              ],
              [
                -76.986369,
                39.826576
              ],
              [
                -76.986369,
                39.826579
              ],
              [
                -76.986481,
                39.826579
              ],
              [
                -76.986481,
                39.826575
              ],
              [
                -76.98651,
                39.826575
              ],
              [
                -76.98651,
                39.826757
              ],
              [
                -76.986481,
                39.826757
              ],
              [
                -76.986481,
                39.826781
              ]
            ]
          ],
          [
            [
              [
                -76.98651,
                39.826808
              ],
              [
                -76.98654,
                39.826808
              ],
              [
                -76.98654,
                39.826807
              ],
              [
                -76.986591,
                39.826807
              ],
              [
                -76.986591,
                39.826658
              ],
              [
                -76.986567,
                39.826658
              ],
              [
                -76.986567,
                39.826575
              ],
              [
                -76.98651,
                39.826575
              ],
              [
                -76.98651,
                39.826757
              ],
              [
                -76.986481,
                39.826757
              ],
              [
                -76.986481,
                39.826773
              ],
              [
                -76.98651,
                39.826773
              ],
              [
                -76.98651,
                39.826808
              ]
            ]
          ],
          [
            [
              [
                -76.985721,
                39.826828
              ],
              [
                -76.986015,
                39.826828
              ],
              [
                -76.986015,
                39.826835
              ],
              [
                -76.986015,
                39.826948
              ],
              [
                -76.986002,
                39.826948
              ],
              [
                -76.986002,
                39.826965
              ],
              [
                -76.985906,
                39.826965
              ],
              [
                -76.985906,
                39.826977
              ],
              [
                -76.985717,
                39.826977
              ],
              [
                -76.985717,
                39.826959
              ],
              [
                -76.985685,
                39.826959
              ],
              [
                -76.985685,
                39.826838
              ],
              [
                -76.985721,
                39.826838
              ],
              [
                -76.985721,
                39.826828
              ]
            ]
          ],
          [
            [
              [
                -76.986002,
                39.826965
              ],
              [
                -76.986002,
                39.827004
              ],
              [
                -76.986005,
                39.827004
              ],
              [
                -76.986005,
                39.827064
              ],
              [
                -76.985917,
                39.827064
              ],
              [
                -76.985917,
                39.827085
              ],
              [
                -76.985685,
                39.827085
              ],
              [
                -76.985685,
                39.827049
              ],
              [
                -76.985707,
                39.827049
              ],
              [
                -76.985707,
                39.82704
              ],
              [
                -76.985685,
                39.82704
              ],
              [
                -76.985685,
                39.826959
              ],
              [
                -76.985717,
                39.826959
              ],
              [
                -76.985717,
                39.826977
              ],
              [
                -76.985906,
                39.826977
              ],
              [
                -76.985906,
                39.826965
              ],
              [
                -76.986002,
                39.826965
              ]
            ]
          ],
          [
            [
              [
                -76.986108,
                39.827085
              ],
              [
                -76.986108,
                39.827068
              ],
              [
                -76.986233,
                39.827068
              ],
              [
                -76.986233,
                39.827052
              ],
              [
                -76.986147,
                39.827052
              ],
              [
                -76.986147,
                39.827068
              ],
              [
                -76.986118,
                39.827068
              ],
              [
                -76.986118,
                39.826954
              ],
              [
                -76.986239,
                39.826954
              ],
              [
                -76.986239,
                39.826976
              ],
              [
                -76.986267,
                39.826976
              ],
              [
                -76.986267,
                39.82691
              ],
              [
                -76.986295,
                39.82691
              ],
              [
                -76.986295,
                39.826982
              ],
              [
                -76.986324,
                39.826982
              ],
              [
                -76.986324,
                39.82691
              ],
              [
                -76.986352,
                39.82691
              ],
              [
                -76.986352,
                39.826844
              ],
              [
                -76.986295,
                39.826844
              ],
              [
                -76.986295,
                39.826835
              ],
              [
                -76.986015,
                39.826835
              ],
              [
                -76.986015,
                39.827064
              ],
              [
                -76.985917,
                39.827064
              ],
              [
                -76.985917,
                39.827085
              ],
              [
                -76.986108,
                39.827085
              ]
            ]
          ],
          [
            [
              [
                -76.986718,
                39.826806
              ],
              [
                -76.986591,
                39.826806
              ],
              [
                -76.986591,
                39.826658
              ],
              [
                -76.986567,
                39.826658
              ],
              [
                -76.986567,
                39.826575
              ],
              [
                -76.986718,
                39.826575
              ],
              [
                -76.986718,
                39.826806
              ]
            ]
          ],
          [
            [
              [
                -76.986481,
                39.826808
              ],
              [
                -76.98651,
                39.826808
              ],
              [
                -76.98651,
                39.826773
              ],
              [
                -76.986481,
                39.826773
              ],
              [
                -76.986481,
                39.826808
              ]
            ]
          ],
          [
            [
              [
                -76.986189,
                39.826807
              ],
              [
                -76.986082,
                39.826807
              ],
              [
                -76.986082,
                39.826575
              ],
              [
                -76.986106,
                39.826575
              ],
              [
                -76.986106,
                39.82657
              ],
              [
                -76.986214,
                39.82657
              ],
              [
                -76.986214,
                39.826575
              ],
              [
                -76.986239,
                39.826575
              ],
              [
                -76.986239,
                39.826707
              ],
              [
                -76.986214,
                39.826707
              ],
              [
                -76.986214,
                39.826708
              ],
              [
                -76.986189,
                39.826708
              ],
              [
                -76.986189,
                39.826807
              ]
            ]
          ],
          [
            [
              [
                -76.986806,
                39.826575
              ],
              [
                -76.986806,
                39.826608
              ],
              [
                -76.986776,
                39.826608
              ],
              [
                -76.986776,
                39.826674
              ],
              [
                -76.986746,
                39.826674
              ],
              [
                -76.986746,
                39.82679
              ],
              [
                -76.986718,
                39.82679
              ],
              [
                -76.986718,
                39.826575
              ],
              [
                -76.986806,
                39.826575
              ]
            ]
          ],
          [
            [
              [
                -76.986911,
                39.826545
              ],
              [
                -76.986834,
                39.826545
              ],
              [
                -76.986834,
                39.826541
              ],
              [
                -76.986776,
                39.826541
              ],
              [
                -76.986776,
                39.826545
              ],
              [
                -76.986503,
                39.826545
              ],
              [
                -76.986503,
                39.826513
              ],
              [
                -76.986507,
                39.826513
              ],
              [
                -76.986507,
                39.826495
              ],
              [
                -76.986753,
                39.826495
              ],
              [
                -76.986753,
                39.826507
              ],
              [
                -76.986771,
                39.826507
              ],
              [
                -76.986771,
                39.826495
              ],
              [
                -76.986892,
                39.826495
              ],
              [
                -76.986892,
                39.826504
              ],
              [
                -76.986894,
                39.826504
              ],
              [
                -76.986894,
                39.826542
              ],
              [
                -76.986911,
                39.826542
              ],
              [
                -76.986911,
                39.826545
              ]
            ]
          ],
          [
            [
              [
                -76.985979,
                39.826772
              ],
              [
                -76.985767,
                39.826772
              ],
              [
                -76.985767,
                39.826788
              ],
              [
                -76.985713,
                39.826788
              ],
              [
                -76.985713,
                39.826724
              ],
              [
                -76.985737,
                39.826724
              ],
              [
                -76.985737,
                39.826693
              ],
              [
                -76.985889,
                39.826693
              ],
              [
                -76.985889,
                39.826756
              ],
              [
                -76.985904,
                39.826756
              ],
              [
                -76.985904,
                39.826701
              ],
              [
                -76.986024,
                39.826701
              ],
              [
                -76.986024,
                39.826753
              ],
              [
                -76.986018,
                39.826753
              ],
              [
                -76.986018,
                39.826756
              ],
              [
                -76.985979,
                39.826756
              ],
              [
                -76.985979,
                39.826772
              ]
            ]
          ],
          [
            [
              [
                -76.986458,
                39.827085
              ],
              [
                -76.986458,
                39.827063
              ],
              [
                -76.986447,
                39.827063
              ],
              [
                -76.986447,
                39.826853
              ],
              [
                -76.986422,
                39.826853
              ],
              [
                -76.986422,
                39.826835
              ],
              [
                -76.986651,
                39.826835
              ],
              [
                -76.986651,
                39.826982
              ],
              [
                -76.986683,
                39.826982
              ],
              [
                -76.986683,
                39.827017
              ],
              [
                -76.986651,
                39.827017
              ],
              [
                -76.986651,
                39.827019
              ],
              [
                -76.98662,
                39.827019
              ],
              [
                -76.98662,
                39.827036
              ],
              [
                -76.986651,
                39.827036
              ],
              [
                -76.986651,
                39.82706
              ],
              [
                -76.986679,
                39.82706
              ],
              [
                -76.986679,
                39.827085
              ],
              [
                -76.986458,
                39.827085
              ]
            ]
          ],
          [
            [
              [
                -76.986316,
                39.827085
              ],
              [
                -76.986108,
                39.827085
              ],
              [
                -76.986108,
                39.827068
              ],
              [
                -76.986118,
                39.827068
              ],
              [
                -76.986118,
                39.826954
              ],
              [
                -76.986239,
                39.826954
              ],
              [
                -76.986239,
                39.826976
              ],
              [
                -76.986267,
                39.826976
              ],
              [
                -76.986267,
                39.82691
              ],
              [
                -76.986295,
                39.82691
              ],
              [
                -76.986295,
                39.826982
              ],
              [
                -76.986324,
                39.826982
              ],
              [
                -76.986324,
                39.827052
              ],
              [
                -76.986352,
                39.827052
              ],
              [
                -76.986352,
                39.827065
              ],
              [
                -76.986316,
                39.827065
              ],
              [
                -76.986316,
                39.827085
              ]
            ]
          ],
          [
            [
              [
                -76.986054,
                39.826575
              ],
              [
                -76.986082,
                39.826575
              ],
              [
                -76.986082,
                39.826807
              ],
              [
                -76.986054,
                39.826807
              ],
              [
                -76.986054,
                39.826575
              ]
            ]
          ],
          [
            [
              [
                -76.985729,
                39.826788
              ],
              [
                -76.986003,
                39.826788
              ],
              [
                -76.986003,
                39.826804
              ],
              [
                -76.985729,
                39.826804
              ],
              [
                -76.985729,
                39.826788
              ]
            ]
          ],
          [
            [
              [
                -76.986651,
                39.82706
              ],
              [
                -76.986651,
                39.827036
              ],
              [
                -76.98662,
                39.827036
              ],
              [
                -76.98662,
                39.827019
              ],
              [
                -76.986651,
                39.827019
              ],
              [
                -76.986651,
                39.827017
              ],
              [
                -76.986683,
                39.827017
              ],
              [
                -76.986683,
                39.82706
              ],
              [
                -76.986651,
                39.82706
              ]
            ]
          ],
          [
            [
              [
                -76.986683,
                39.826982
              ],
              [
                -76.986651,
                39.826982
              ],
              [
                -76.986651,
                39.826844
              ],
              [
                -76.986683,
                39.826844
              ],
              [
                -76.986683,
                39.826982
              ]
            ]
          ],
          [
            [
              [
                -76.986369,
                39.826812
              ],
              [
                -76.986214,
                39.826812
              ],
              [
                -76.986214,
                39.826807
              ],
              [
                -76.986189,
                39.826807
              ],
              [
                -76.986189,
                39.826708
              ],
              [
                -76.986214,
                39.826708
              ],
              [
                -76.986214,
                39.826707
              ],
              [
                -76.986239,
                39.826707
              ],
              [
                -76.986239,
                39.826575
              ],
              [
                -76.986313,
                39.826575
              ],
              [
                -76.986313,
                39.826774
              ],
              [
                -76.986369,
                39.826774
              ],
              [
                -76.986369,
                39.826812
              ]
            ]
          ],
          [
            [
              [
                -76.986003,
                39.826819
              ],
              [
                -76.985721,
                39.826819
              ],
              [
                -76.985721,
                39.826811
              ],
              [
                -76.985685,
                39.826811
              ],
              [
                -76.985685,
                39.826561
              ],
              [
                -76.985721,
                39.826561
              ],
              [
                -76.985721,
                39.826557
              ],
              [
                -76.986024,
                39.826557
              ],
              [
                -76.986024,
                39.826701
              ],
              [
                -76.985904,
                39.826701
              ],
              [
                -76.985904,
                39.826693
              ],
              [
                -76.985737,
                39.826693
              ],
              [
                -76.985737,
                39.826724
              ],
              [
                -76.985713,
                39.826724
              ],
              [
                -76.985713,
                39.826788
              ],
              [
                -76.985767,
                39.826788
              ],
              [
                -76.985767,
                39.826772
              ],
              [
                -76.985919,
                39.826772
              ],
              [
                -76.985919,
                39.826756
              ],
              [
                -76.985949,
                39.826756
              ],
              [
                -76.985949,
                39.826772
              ],
              [
                -76.985979,
                39.826772
              ],
              [
                -76.985979,
                39.826788
              ],
              [
                -76.986003,
                39.826788
              ],
              [
                -76.986003,
                39.826819
              ]
            ]
          ],
          [
            [
              [
                -76.985685,
                39.826534
              ],
              [
                -76.985685,
                39.826495
              ],
              [
                -76.985704,
                39.826495
              ],
              [
                -76.985704,
                39.826507
              ],
              [
                -76.985721,
                39.826507
              ],
              [
                -76.985721,
                39.826495
              ],
              [
                -76.985986,
                39.826495
              ],
              [
                -76.985986,
                39.826514
              ],
              [
                -76.986008,
                39.826514
              ],
              [
                -76.986008,
                39.826517
              ],
              [
                -76.985862,
                39.826517
              ],
              [
                -76.985862,
                39.826541
              ],
              [
                -76.985721,
                39.826541
              ],
              [
                -76.985721,
                39.826534
              ],
              [
                -76.985685,
                39.826534
              ]
            ]
          ],
          [
            [
              [
                -76.985634,
                39.826474
              ],
              [
                -76.985589,
                39.826474
              ],
              [
                -76.985589,
                39.826413
              ],
              [
                -76.985634,
                39.826413
              ],
              [
                -76.985634,
                39.826474
              ]
            ]
          ],
          [
            [
              [
                -76.985641,
                39.826983
              ],
              [
                -76.985601,
                39.826983
              ],
              [
                -76.985601,
                39.826896
              ],
              [
                -76.985641,
                39.826896
              ],
              [
                -76.985641,
                39.826983
              ]
            ]
          ],
          [
            [
              [
                -76.985507,
                39.826474
              ],
              [
                -76.985589,
                39.826474
              ],
              [
                -76.985589,
                39.826413
              ],
              [
                -76.985507,
                39.826413
              ],
              [
                -76.985507,
                39.826474
              ]
            ]
          ],
          [
            [
              [
                -76.985681,
                39.827019
              ],
              [
                -76.98544,
                39.827019
              ],
              [
                -76.98544,
                39.827001
              ],
              [
                -76.985651,
                39.827001
              ],
              [
                -76.985651,
                39.826993
              ],
              [
                -76.985408,
                39.826993
              ],
              [
                -76.985408,
                39.826844
              ],
              [
                -76.985482,
                39.826844
              ],
              [
                -76.985482,
                39.826835
              ],
              [
                -76.985645,
                39.826835
              ],
              [
                -76.985645,
                39.826839
              ],
              [
                -76.985681,
                39.826839
              ],
              [
                -76.985681,
                39.827019
              ]
            ]
          ],
          [
            [
              [
                -76.985681,
                39.826811
              ],
              [
                -76.985645,
                39.826811
              ],
              [
                -76.985645,
                39.826817
              ],
              [
                -76.985379,
                39.826817
              ],
              [
                -76.985379,
                39.826996
              ],
              [
                -76.98535,
                39.826996
              ],
              [
                -76.98535,
                39.826413
              ],
              [
                -76.98536,
                39.826413
              ],
              [
                -76.98536,
                39.82649
              ],
              [
                -76.985634,
                39.82649
              ],
              [
                -76.985634,
                39.826555
              ],
              [
                -76.985645,
                39.826555
              ],
              [
                -76.985645,
                39.826561
              ],
              [
                -76.985681,
                39.826561
              ],
              [
                -76.985681,
                39.826811
              ]
            ]
          ],
          [
            [
              [
                -76.986422,
                39.82686
              ],
              [
                -76.986367,
                39.82686
              ],
              [
                -76.986367,
                39.826835
              ],
              [
                -76.986422,
                39.826835
              ],
              [
                -76.986422,
                39.82686
              ]
            ]
          ],
          [
            [
              [
                -76.986898,
                39.826872
              ],
              [
                -76.986898,
                39.826844
              ],
              [
                -76.986833,
                39.826844
              ],
              [
                -76.986833,
                39.826835
              ],
              [
                -76.986964,
                39.826835
              ],
              [
                -76.986964,
                39.826872
              ],
              [
                -76.986898,
                39.826872
              ]
            ]
          ],
          [
            [
              [
                -76.986806,
                39.826812
              ],
              [
                -76.986806,
                39.826806
              ],
              [
                -76.986591,
                39.826806
              ],
              [
                -76.986591,
                39.826807
              ],
              [
                -76.98654,
                39.826807
              ],
              [
                -76.98654,
                39.826808
              ],
              [
                -76.986481,
                39.826808
              ],
              [
                -76.986481,
                39.826781
              ],
              [
                -76.986425,
                39.826781
              ],
              [
                -76.986425,
                39.826807
              ],
              [
                -76.986369,
                39.826807
              ],
              [
                -76.986369,
                39.826812
              ],
              [
                -76.986806,
                39.826812
              ]
            ]
          ],
          [
            [
              [
                -76.986018,
                39.826819
              ],
              [
                -76.986003,
                39.826819
              ],
              [
                -76.986003,
                39.826788
              ],
              [
                -76.985979,
                39.826788
              ],
              [
                -76.985979,
                39.826756
              ],
              [
                -76.986018,
                39.826756
              ],
              [
                -76.986018,
                39.826819
              ]
            ]
          ],
          [
            [
              [
                -76.986218,
                39.826532
              ],
              [
                -76.986141,
                39.826532
              ],
              [
                -76.986141,
                39.826544
              ],
              [
                -76.986218,
                39.826544
              ],
              [
                -76.986218,
                39.826532
              ]
            ]
          ],
          [
            [
              [
                -76.986927,
                39.826545
              ],
              [
                -76.986911,
                39.826545
              ],
              [
                -76.986911,
                39.826542
              ],
              [
                -76.986894,
                39.826542
              ],
              [
                -76.986894,
                39.826504
              ],
              [
                -76.986892,
                39.826504
              ],
              [
                -76.986892,
                39.826495
              ],
              [
                -76.986952,
                39.826495
              ],
              [
                -76.986952,
                39.826505
              ],
              [
                -76.986927,
                39.826505
              ],
              [
                -76.986927,
                39.826545
              ]
            ]
          ],
          [
            [
              [
                -76.985862,
                39.826541
              ],
              [
                -76.986008,
                39.826541
              ],
              [
                -76.986008,
                39.826517
              ],
              [
                -76.985862,
                39.826517
              ],
              [
                -76.985862,
                39.826541
              ]
            ]
          ],
          [
            [
              [
                -76.986324,
                39.827052
              ],
              [
                -76.986352,
                39.827052
              ],
              [
                -76.986352,
                39.82691
              ],
              [
                -76.986324,
                39.82691
              ],
              [
                -76.986324,
                39.827052
              ]
            ]
          ],
          [
            [
              [
                -76.986362,
                39.827085
              ],
              [
                -76.986362,
                39.827068
              ],
              [
                -76.986367,
                39.827068
              ],
              [
                -76.986367,
                39.82686
              ],
              [
                -76.986422,
                39.82686
              ],
              [
                -76.986422,
                39.826853
              ],
              [
                -76.986447,
                39.826853
              ],
              [
                -76.986447,
                39.827063
              ],
              [
                -76.986458,
                39.827063
              ],
              [
                -76.986458,
                39.827085
              ],
              [
                -76.986362,
                39.827085
              ]
            ]
          ],
          [
            [
              [
                -76.98535,
                39.82702
              ],
              [
                -76.985438,
                39.82702
              ],
              [
                -76.985438,
                39.827019
              ],
              [
                -76.985681,
                39.827019
              ],
              [
                -76.985681,
                39.826413
              ],
              [
                -76.98535,
                39.826413
              ],
              [
                -76.98535,
                39.82702
              ]
            ]
          ]
        ]
      },
      "properties": {
        "fill": "#D9E2F6",
        "stroke-width": "0.5",
        "stroke": "#96A3BD",
        "opacity": "0.75"
      }
    },
    {
      "type": "Feature",
      "geometry": {
        "type": "MultiLineString",
        "coordinates": []
      },
      "properties": {
        "stroke-width": "0.5"
      }
    },
    {
      "type": "Feature",
      "geometry": {
        "type": "Point",
        "coordinates": [
          -76.98606,
          39.826443
        ]
      },
      "properties": {
        "type": "P",
        "sub_category": "EntryExit",
        "poi_name": "MAIN ENTRANCE",
        "profile": "BASIC INFO",
        "icon_id": "entrance_exit",
        "orientation": 0
      }
    },
    {
      "type": "Feature",
      "geometry": {
        "type": "Point",
        "coordinates": [
          -76.986364,
          39.826504
        ]
      },
      "properties": {
        "type": "P",
        "sub_category": "EntryExit",
        "poi_name": "MAIN EXIT",
        "profile": "BASIC INFO",
        "icon_id": "entrance_exit",
        "orientation": 0
      }
    },
    {
      "type": "Feature",
      "geometry": {
        "type": "Point",
        "coordinates": [
          -76.986985,
          39.826484
        ]
      },
      "properties": {
        "type": "P",
        "sub_category": "EntryExit",
        "poi_name": "PRO ENTRANCE",
        "profile": "BASIC INFO",
        "icon_id": "entrance_exit",
        "orientation": 0
      }
    },
    {
      "type": "Feature",
      "geometry": {
        "type": "Point",
        "coordinates": [
          -76.986986,
          39.826509
        ]
      },
      "properties": {
        "type": "P",
        "sub_category": "EntryExit",
        "poi_name": "PRO EXIT",
        "profile": "BASIC INFO",
        "icon_id": "entrance_exit",
        "orientation": 0
      }
    },
    {
      "type": "Feature",
      "geometry": {
        "type": "Point",
        "coordinates": [
          -76.985434,
          39.826386
        ]
      },
      "properties": {
        "type": "P",
        "sub_category": "EntryExit",
        "poi_name": "GARDEN CENTER ENTRANCE",
        "profile": "BASIC INFO",
        "icon_id": "entrance_exit",
        "orientation": 0
      }
    },
    {
      "type": "Feature",
      "geometry": {
        "type": "Point",
        "coordinates": [
          -76.985434,
          39.826425
        ]
      },
      "properties": {
        "type": "P",
        "sub_category": "EntryExit",
        "poi_name": "GARDEN CENTER EXIT",
        "profile": "BASIC INFO",
        "icon_id": "entrance_exit",
        "orientation": 0
      }
    },
    {
      "type": "Feature",
      "geometry": {
        "type": "Point",
        "coordinates": [
          -76.986508,
          39.826481
        ]
      },
      "properties": {
        "type": "P",
        "sub_category": "Restrooms",
        "poi_name": "MEN/WOMEN’S RESTROOMS",
        "profile": "BASIC INFO",
        "icon_id": "restrooms",
        "orientation": 0
      }
    },
    {
      "type": "Feature",
      "geometry": {
        "type": "Point",
        "coordinates": [
          -76.986546,
          39.826475
        ]
      },
      "properties": {
        "type": "P",
        "sub_category": "Restrooms",
        "poi_name": "UNISEX",
        "profile": "BASIC INFO",
        "icon_id": "restrooms",
        "orientation": 0
      }
    },
    {
      "type": "Feature",
      "geometry": {
        "type": "Point",
        "coordinates": [
          -76.987063,
          39.826537
        ]
      },
      "properties": {
        "type": "P",
        "sub_category": "ServiceDesks",
        "poi_name": "PRO SERVICE DESK",
        "profile": "BASIC INFO",
        "icon_id": "pro_service_desk",
        "orientation": 0
      }
    },
    {
      "type": "Feature",
      "geometry": {
        "type": "Point",
        "coordinates": [
          -76.986146,
          39.826914
        ]
      },
      "properties": {
        "type": "P",
        "sub_category": "ServiceDesks",
        "poi_name": "APPLIANCE DESK",
        "profile": "STORE SERVICES",
        "icon_id": "appliance_desk",
        "orientation": 0
      }
    },
    {
      "type": "Feature",
      "geometry": {
        "type": "Point",
        "coordinates": [
          -76.98656,
          39.826866
        ]
      },
      "properties": {
        "type": "P",
        "sub_category": "ServiceDesks",
        "poi_name": "FLOORING DESK",
        "profile": "STORE SERVICES",
        "icon_id": "flooring_desk",
        "orientation": 0
      }
    },
    {
      "type": "Feature",
      "geometry": {
        "type": "Point",
        "coordinates": [
          -76.986289,
          39.826787
        ]
      },
      "properties": {
        "type": "P",
        "sub_category": "ServiceDesks",
        "poi_name": "HOME DECOR DESK",
        "profile": "STORE SERVICES",
        "icon_id": "home_décor_desk",
        "orientation": 0
      }
    },
    {
      "type": "Feature",
      "geometry": {
        "type": "Point",
        "coordinates": [
          -76.986232,
          39.827017
        ]
      },
      "properties": {
        "type": "P",
        "sub_category": "ServiceDesks",
        "poi_name": "KITCHEN DESIGN DESK",
        "profile": "STORE SERVICES",
        "icon_id": "kitchen_design_desk",
        "orientation": 0
      }
    },
    {
      "type": "Feature",
      "geometry": {
        "type": "Point",
        "coordinates": [
          -76.986742,
          39.826841
        ]
      },
      "properties": {
        "type": "P",
        "sub_category": "ServiceDesks",
        "poi_name": "MILLWORK DESK",
        "profile": "STORE SERVICES",
        "icon_id": "millwork_desk",
        "orientation": 0
      }
    },
    {
      "type": "Feature",
      "geometry": {
        "type": "Point",
        "coordinates": [
          -76.986988,
          39.826544
        ]
      },
      "properties": {
        "type": "P",
        "sub_category": "Checkouts",
        "poi_name": "PRO CHECKOUT",
        "profile": "BASIC INFO",
        "icon_id": "checkouts",
        "orientation": 0
      }
    },
    {
      "type": "Feature",
      "geometry": {
        "type": "Point",
        "coordinates": [
          -76.985464,
          39.826478
        ]
      },
      "properties": {
        "type": "P",
        "sub_category": "Checkouts",
        "poi_name": "GARDEN CENTER CHECKOUT",
        "profile": "BASIC INFO",
        "icon_id": "checkouts",
        "orientation": 0
      }
    },
    {
      "type": "Feature",
      "geometry": {
        "type": "Point",
        "coordinates": [
          -76.986573,
          39.826608
        ]
      },
      "properties": {
        "type": "P",
        "sub_category": "Services",
        "poi_name": "CHAIN AND ROPE CUTTING",
        "profile": "STORE SERVICES",
        "icon_id": "chain_rope_cutting",
        "orientation": 0
      }
    },
    {
      "type": "Feature",
      "geometry": {
        "type": "Point",
        "coordinates": [
          -76.986663,
          39.826584
        ]
      },
      "properties": {
        "type": "P",
        "sub_category": "Services",
        "poi_name": "KEY CUTTING",
        "profile": "STORE SERVICES",
        "icon_id": "key_copying",
        "orientation": 0
      }
    },
    {
      "type": "Feature",
      "geometry": {
        "type": "Point",
        "coordinates": [
          -76.986665,
          39.826649
        ]
      },
      "properties": {
        "type": "P",
        "sub_category": "Services",
        "poi_name": "GLASS CUTTING",
        "profile": "STORE SERVICES",
        "icon_id": "glass_cutting",
        "orientation": 0
      }
    },
    {
      "type": "Feature",
      "geometry": {
        "type": "Point",
        "coordinates": [
          -76.986546,
          39.826799
        ]
      },
      "properties": {
        "type": "P",
        "sub_category": "Services",
        "poi_name": "WIRE CUTTING",
        "profile": "STORE SERVICES",
        "icon_id": "wire_cutting",
        "orientation": 0
      }
    },
    {
      "type": "Feature",
      "geometry": {
        "type": "Point",
        "coordinates": [
          -76.987032,
          39.82704
        ]
      },
      "properties": {
        "type": "P",
        "sub_category": "Services",
        "poi_name": "WOOD CUTTING",
        "profile": "STORE SERVICES",
        "icon_id": "wood_cutting",
        "orientation": 0
      }
    },
    {
      "type": "Feature",
      "geometry": {
        "type": "Point",
        "coordinates": [
          -76.986245,
          39.826732
        ]
      },
      "properties": {
        "type": "P",
        "sub_category": "Services",
        "poi_name": "BLIND CUTTING",
        "profile": "STORE SERVICES",
        "icon_id": "blind_cutting",
        "orientation": 0
      }
    },
    {
      "type": "Feature",
      "geometry": {
        "type": "Point",
        "coordinates": [
          -76.98608,
          39.82653
        ]
      },
      "properties": {
        "type": "P",
        "sub_category": "ServiceDesks",
        "poi_name": "CUSTOMER SERVICE",
        "profile": "BASIC INFO",
        "icon_id": "customer_service_desk",
        "orientation": 0
      }
    },
    {
      "type": "Feature",
      "geometry": {
        "type": "Point",
        "coordinates": [
          -76.986191,
          39.826502
        ]
      },
      "properties": {
        "type": "P",
        "sub_category": "Services",
        "poi_name": "PRODUCT PICK-UP",
        "profile": "BASIC INFO",
        "icon_id": "store_pick_up",
        "orientation": 0
      }
    },
    {
      "type": "Feature",
      "geometry": {
        "type": "Point",
        "coordinates": [
          -76.98616,
          39.826501
        ]
      },
      "properties": {
        "type": "P",
        "sub_category": "Services",
        "poi_name": "PICKUP LOCKER",
        "profile": "BASIC INFO",
        "icon_id": "pickup_lockers",
        "orientation": 0
      }
    },
    {
      "type": "Feature",
      "geometry": {
        "type": "Point",
        "coordinates": [
          -76.986271,
          39.826555
        ]
      },
      "properties": {
        "type": "P",
        "sub_category": "Checkouts",
        "poi_name": "MAIN CHECKOUT",
        "profile": "BASIC INFO",
        "icon_id": "checkouts",
        "orientation": 0
      }
    },
    {
      "type": "Feature",
      "geometry": {
        "type": "Point",
        "coordinates": [
          -76.986366,
          39.826558
        ]
      },
      "properties": {
        "type": "P",
        "sub_category": "Checkouts",
        "poi_name": "MAIN SELF-CHECKOUT",
        "profile": "BASIC INFO",
        "icon_id": "checkouts",
        "orientation": 0
      }
    },
    {
      "type": "Feature",
      "geometry": {
        "type": "Point",
        "coordinates": [
          -76.986079,
          39.826536
        ]
      },
      "properties": {
        "type": "P",
        "sub_category": "Services",
        "poi_name": "RETURNS",
        "profile": "BASIC INFO",
        "icon_id": "returns",
        "orientation": 0
      }
    },
    {
      "type": "Feature",
      "geometry": {
        "type": "Point",
        "coordinates": [
          -76.986646,
          39.827069
        ]
      },
      "properties": {
        "type": "P",
        "sub_category": "Services",
        "poi_name": "CARPET CUTTING",
        "profile": "STORE SERVICES",
        "icon_id": "carpet_cutting",
        "orientation": 0
      }
    },
    {
      "type": "Feature",
      "geometry": {
        "type": "Point",
        "coordinates": [
          -76.986411,
          39.827164
        ]
      },
      "properties": {
        "type": "P",
        "sub_category": "ServiceDesks",
        "poi_name": "RECEIVING DESK",
        "profile": "BASIC INFO",
        "icon_id": "receiving_desk",
        "orientation": 0
      }
    },
    {
      "type": "Feature",
      "geometry": {
        "type": "Point",
        "coordinates": [
          -76.986947,
          39.826963
        ]
      },
      "properties": {
        "name": "LUMBER",
        "orientation": 0
      }
    },
    {
      "type": "Feature",
      "geometry": {
        "type": "Point",
        "coordinates": [
          -76.987035,
          39.826954
        ]
      },
      "properties": {
        "name": "LUMBER",
        "orientation": 0
      }
    },
    {
      "type": "Feature",
      "geometry": {
        "type": "Point",
        "coordinates": [
          -76.987049,
          39.826688
        ]
      },
      "properties": {
        "name": "LUMBER",
        "orientation": 0
      }
    },
    {
      "type": "Feature",
      "geometry": {
        "type": "Point",
        "coordinates": [
          -76.986905,
          39.826692
        ]
      },
      "properties": {
        "name": "LUMBER",
        "orientation": 0
      }
    },
    {
      "type": "Feature",
      "geometry": {
        "type": "Point",
        "coordinates": [
          -76.986947,
          39.826944
        ]
      },
      "properties": {
        "name": "BUILDING MATERIALS",
        "orientation": 0
      }
    },
    {
      "type": "Feature",
      "geometry": {
        "type": "Point",
        "coordinates": [
          -76.987071,
          39.826806
        ]
      },
      "properties": {
        "name": "BUILDING MATERIALS",
        "orientation": 0
      }
    },
    {
      "type": "Feature",
      "geometry": {
        "type": "Point",
        "coordinates": [
          -76.986841,
          39.826691
        ]
      },
      "properties": {
        "name": "BUILDING MATERIALS",
        "orientation": 0
      }
    },
    {
      "type": "Feature",
      "geometry": {
        "type": "Point",
        "coordinates": [
          -76.986822,
          39.82696
        ]
      },
      "properties": {
        "name": "MILLWORK",
        "orientation": 0
      }
    },
    {
      "type": "Feature",
      "geometry": {
        "type": "Point",
        "coordinates": [
          -76.987062,
          39.827075
        ]
      },
      "properties": {
        "name": "MILLWORK",
        "orientation": 0
      }
    },
    {
      "type": "Feature",
      "geometry": {
        "type": "Point",
        "coordinates": [
          -76.986948,
          39.826705
        ]
      },
      "properties": {
        "name": "MILLWORK",
        "orientation": 0
      }
    },
    {
      "type": "Feature",
      "geometry": {
        "type": "Point",
        "coordinates": [
          -76.986411,
          39.826691
        ]
      },
      "properties": {
        "name": "LIGHTING",
        "orientation": 0
      }
    },
    {
      "type": "Feature",
      "geometry": {
        "type": "Point",
        "coordinates": [
          -76.986536,
          39.826692
        ]
      },
      "properties": {
        "name": "ROUGH ELECTRICAL",
        "orientation": 0
      }
    },
    {
      "type": "Feature",
      "geometry": {
        "type": "Point",
        "coordinates": [
          -76.98585,
          39.826902
        ]
      },
      "properties": {
        "name": "FASHION PLUMBING",
        "orientation": 0
      }
    },
    {
      "type": "Feature",
      "geometry": {
        "type": "Point",
        "coordinates": [
          -76.985845,
          39.827022
        ]
      },
      "properties": {
        "name": "ROUGH PLUMBING",
        "orientation": 0
      }
    },
    {
      "type": "Feature",
      "geometry": {
        "type": "Point",
        "coordinates": [
          -76.986134,
          39.82696
        ]
      },
      "properties": {
        "name": "APPLIANCES",
        "orientation": 0
      }
    },
    {
      "type": "Feature",
      "geometry": {
        "type": "Point",
        "coordinates": [
          -76.986643,
          39.826691
        ]
      },
      "properties": {
        "name": "HARDWARE",
        "orientation": 0
      }
    },
    {
      "type": "Feature",
      "geometry": {
        "type": "Point",
        "coordinates": [
          -76.986495,
          39.826791
        ]
      },
      "properties": {
        "name": "HARDWARE",
        "orientation": 0
      }
    },
    {
      "type": "Feature",
      "geometry": {
        "type": "Point",
        "coordinates": [
          -76.98616,
          39.826688
        ]
      },
      "properties": {
        "name": "PAINT",
        "orientation": 0
      }
    },
    {
      "type": "Feature",
      "geometry": {
        "type": "Point",
        "coordinates": [
          -76.986762,
          39.826682
        ]
      },
      "properties": {
        "name": "TOOLS",
        "orientation": 0
      }
    },
    {
      "type": "Feature",
      "geometry": {
        "type": "Point",
        "coordinates": [
          -76.986707,
          39.82652
        ]
      },
      "properties": {
        "name": "TOOLS",
        "orientation": 0
      }
    },
    {
      "type": "Feature",
      "geometry": {
        "type": "Point",
        "coordinates": [
          -76.985868,
          39.826741
        ]
      },
      "properties": {
        "name": "OUTDOOR POWER EQUIPMENT",
        "orientation": 0
      }
    },
    {
      "type": "Feature",
      "geometry": {
        "type": "Point",
        "coordinates": [
          -76.986553,
          39.82696
        ]
      },
      "properties": {
        "name": "FLOORING",
        "orientation": 0
      }
    },
    {
      "type": "Feature",
      "geometry": {
        "type": "Point",
        "coordinates": [
          -76.98623,
          39.826998
        ]
      },
      "properties": {
        "name": "CABINETS",
        "orientation": 0
      }
    },
    {
      "type": "Feature",
      "geometry": {
        "type": "Point",
        "coordinates": [
          -76.986068,
          39.826691
        ]
      },
      "properties": {
        "name": "CLEANING",
        "orientation": 0
      }
    },
    {
      "type": "Feature",
      "geometry": {
        "type": "Point",
        "coordinates": [
          -76.985866,
          39.826796
        ]
      },
      "properties": {
        "name": "CLEANING",
        "orientation": 0
      }
    },
    {
      "type": "Feature",
      "geometry": {
        "type": "Point",
        "coordinates": [
          -76.986651,
          39.827038
        ]
      },
      "properties": {
        "name": "HOME DECOR",
        "orientation": 0
      }
    },
    {
      "type": "Feature",
      "geometry": {
        "type": "Point",
        "coordinates": [
          -76.986667,
          39.826913
        ]
      },
      "properties": {
        "name": "HOME DECOR",
        "orientation": 0
      }
    },
    {
      "type": "Feature",
      "geometry": {
        "type": "Point",
        "coordinates": [
          -76.986279,
          39.826694
        ]
      },
      "properties": {
        "name": "HOME DECOR",
        "orientation": 0
      }
    },
    {
      "type": "Feature",
      "geometry": {
        "type": "Point",
        "coordinates": [
          -76.985855,
          39.826688
        ]
      },
      "properties": {
        "name": "INSIDE LAWN AND GARDEN",
        "orientation": 0
      }
    },
    {
      "type": "Feature",
      "geometry": {
        "type": "Point",
        "coordinates": [
          -76.985846,
          39.826518
        ]
      },
      "properties": {
        "name": "INSIDE LAWN AND GARDEN",
        "orientation": 0
      }
    },
    {
      "type": "Feature",
      "geometry": {
        "type": "Point",
        "coordinates": [
          -76.985611,
          39.826443
        ]
      },
      "properties": {
        "name": "INSIDE LAWN AND GARDEN",
        "orientation": 0
      }
    },
    {
      "type": "Feature",
      "geometry": {
        "type": "Point",
        "coordinates": [
          -76.985621,
          39.826939
        ]
      },
      "properties": {
        "name": "INSIDE LAWN AND GARDEN",
        "orientation": 0
      }
    },
    {
      "type": "Feature",
      "geometry": {
        "type": "Point",
        "coordinates": [
          -76.985548,
          39.826443
        ]
      },
      "properties": {
        "name": "OUTSIDE LAWN AND GARDEN",
        "orientation": 0
      }
    },
    {
      "type": "Feature",
      "geometry": {
        "type": "Point",
        "coordinates": [
          -76.985544,
          39.826927
        ]
      },
      "properties": {
        "name": "OUTSIDE LAWN AND GARDEN",
        "orientation": 0
      }
    },
    {
      "type": "Feature",
      "geometry": {
        "type": "Point",
        "coordinates": [
          -76.985515,
          39.826704
        ]
      },
      "properties": {
        "name": "OUTSIDE LAWN AND GARDEN",
        "orientation": 0
      }
    },
    {
      "type": "Feature",
      "geometry": {
        "type": "Point",
        "coordinates": [
          -76.986338,
          39.826981
        ]
      },
      "properties": {
        "name": "STORAGE",
        "orientation": 0
      }
    },
    {
      "type": "Feature",
      "geometry": {
        "type": "Point",
        "coordinates": [
          -76.98641,
          39.826969
        ]
      },
      "properties": {
        "name": "STORAGE",
        "orientation": 0
      }
    },
    {
      "type": "Feature",
      "geometry": {
        "type": "Point",
        "coordinates": [
          -76.985515,
          39.826716
        ]
      },
      "properties": {
        "name": "GARDEN CENTER",
        "orientation": 0
      }
    }
  ]
}