{
  "type": "FeatureCollection",
  "features": [
    {
      "type": "Feature",
      "geometry": {
        "type": "MultiPolygon",
        "coordinates": [
          [
            [
              [
                -76.986951,
                39.826907
              ],
              [
                -76.986951,
                39.826565
              ],
              [
                -76.986885,
                39.826565
              ],
              [
                -76.986885,
                39.826734
              ],
              [
                -76.986862,
                39.826734
              ],
              [
                -76.986862,
                39.826578
              ],
              [
                -76.986839,
                39.826578
              ],
              [
                -76.986839,
                39.826812
              ],
              [
                -76.986862,
                39.826812
              ],
              [
                -76.986862,
                39.82689
              ],
              [
                -76.986885,
                39.82689
              ],
              [
                -76.986885,
                39.826907
              ],
              [
                -76.986951,
                39.826907
              ]
            ]
          ],
          [
            [
              [
                -76.986576,
                39.82718
              ],
              [
                -76.986552,
                39.82718
              ],
              [
                -76.986552,
                39.827076
              ],
              [
                -76.986576,
                39.827076
              ],
              [
                -76.986576,
                39.82718
              ]
            ]
          ],
          [
            [
              [
                -76.986099,
                39.826925
              ],
              [
                -76.98588,
                39.826925
              ],
              [
                -76.98588,
                39.826917
              ],
              [
                -76.985903,
                39.826917
              ],
              [
                -76.985903,
                39.826903
              ],
              [
                -76.986099,
                39.826903
              ],
              [
                -76.986099,
                39.826925
              ]
            ]
          ],
          [
            [
              [
                -76.986839,
                39.826897
              ],
              [
                -76.986839,
                39.82689
              ],
              [
                -76.986862,
                39.82689
              ],
              [
                -76.986862,
                39.826812
              ],
              [
                -76.986839,
                39.826812
              ],
              [
                -76.986839,
                39.826574
              ],
              [
                -76.986739,
                39.826574
              ],
              [
                -76.986739,
                39.826899
              ],
              [
                -76.986758,
                39.826899
              ],
              [
                -76.986758,
                39.826897
              ],
              [
                -76.986839,
                39.826897
              ]
            ]
          ],
          [
            [
              [
                -76.986885,
                39.826734
              ],
              [
                -76.986862,
                39.826734
              ],
              [
                -76.986862,
                39.826578
              ],
              [
                -76.986885,
                39.826578
              ],
              [
                -76.986885,
                39.826734
              ]
            ]
          ],
          [
            [
              [
                -76.986099,
                39.826903
              ],
              [
                -76.985903,
                39.826903
              ],
              [
                -76.985903,
                39.826917
              ],
              [
                -76.985851,
                39.826917
              ],
              [
                -76.985851,
                39.8269
              ],
              [
                -76.98577,
                39.8269
              ],
              [
                -76.98577,
                39.82688
              ],
              [
                -76.986099,
                39.82688
              ],
              [
                -76.986099,
                39.826903
              ]
            ]
          ],
          [
            [
              [
                -76.985729,
                39.826842
              ],
              [
                -76.985729,
                39.826562
              ],
              [
                -76.985759,
                39.826562
              ],
              [
                -76.985759,
                39.826558
              ],
              [
                -76.986119,
                39.826558
              ],
              [
                -76.986119,
                39.82673
              ],
              [
                -76.98599,
                39.82673
              ],
              [
                -76.98599,
                39.826749
              ],
              [
                -76.985756,
                39.826749
              ],
              [
                -76.985756,
                39.826842
              ],
              [
                -76.985729,
                39.826842
              ]
            ]
          ],
          [
            [
              [
                -76.985848,
                39.826917
              ],
              [
                -76.985818,
                39.826917
              ],
              [
                -76.985818,
                39.826926
              ],
              [
                -76.985768,
                39.826926
              ],
              [
                -76.985768,
                39.826903
              ],
              [
                -76.985848,
                39.826903
              ],
              [
                -76.985848,
                39.826917
              ]
            ]
          ],
          [
            [
              [
                -76.985848,
                39.826959
              ],
              [
                -76.985848,
                39.827049
              ],
              [
                -76.985431,
                39.827049
              ],
              [
                -76.985431,
                39.827052
              ],
              [
                -76.985351,
                39.827052
              ],
              [
                -76.985351,
                39.827034
              ],
              [
                -76.985698,
                39.827034
              ],
              [
                -76.985698,
                39.82695
              ],
              [
                -76.985818,
                39.82695
              ],
              [
                -76.985818,
                39.826959
              ],
              [
                -76.985848,
                39.826959
              ]
            ]
          ],
          [
            [
              [
                -76.985689,
                39.826523
              ],
              [
                -76.985613,
                39.826523
              ],
              [
                -76.985613,
                39.82646
              ],
              [
                -76.985689,
                39.82646
              ],
              [
                -76.985689,
                39.826523
              ]
            ]
          ],
          [
            [
              [
                -76.98701,
                39.826943
              ],
              [
                -76.98701,
                39.826954
              ],
              [
                -76.986951,
                39.826954
              ],
              [
                -76.986951,
                39.826983
              ],
              [
                -76.986893,
                39.826983
              ],
              [
                -76.986893,
                39.826956
              ],
              [
                -76.986846,
                39.826956
              ],
              [
                -76.986846,
                39.826982
              ],
              [
                -76.986824,
                39.826982
              ],
              [
                -76.986824,
                39.826956
              ],
              [
                -76.986801,
                39.826956
              ],
              [
                -76.986801,
                39.826943
              ],
              [
                -76.98701,
                39.826943
              ]
            ]
          ],
          [
            [
              [
                -76.986314,
                39.826534
              ],
              [
                -76.986226,
                39.826534
              ],
              [
                -76.986226,
                39.826514
              ],
              [
                -76.986314,
                39.826514
              ],
              [
                -76.986314,
                39.826534
              ]
            ]
          ],
          [
            [
              [
                -76.986112,
                39.826925
              ],
              [
                -76.986099,
                39.826925
              ],
              [
                -76.986099,
                39.82688
              ],
              [
                -76.986075,
                39.82688
              ],
              [
                -76.986075,
                39.826838
              ],
              [
                -76.986099,
                39.826838
              ],
              [
                -76.986099,
                39.826796
              ],
              [
                -76.986112,
                39.826796
              ],
              [
                -76.986112,
                39.826925
              ]
            ]
          ],
          [
            [
              [
                -76.985848,
                39.827049
              ],
              [
                -76.985848,
                39.826903
              ],
              [
                -76.985726,
                39.826903
              ],
              [
                -76.985726,
                39.82646
              ],
              [
                -76.985351,
                39.82646
              ],
              [
                -76.985351,
                39.827052
              ],
              [
                -76.985431,
                39.827052
              ],
              [
                -76.985431,
                39.827049
              ],
              [
                -76.985848,
                39.827049
              ]
            ]
          ],
          [
            [
              [
                -76.985729,
                39.82652
              ],
              [
                -76.985729,
                39.82646
              ],
              [
                -76.985854,
                39.82646
              ],
              [
                -76.985854,
                39.826477
              ],
              [
                -76.985901,
                39.826477
              ],
              [
                -76.985901,
                39.82646
              ],
              [
                -76.985927,
                39.82646
              ],
              [
                -76.985927,
                39.826494
              ],
              [
                -76.985845,
                39.826494
              ],
              [
                -76.985845,
                39.826534
              ],
              [
                -76.985759,
                39.826534
              ],
              [
                -76.985759,
                39.82652
              ],
              [
                -76.985729,
                39.82652
              ]
            ]
          ],
          [
            [
              [
                -76.986165,
                39.826898
              ],
              [
                -76.986143,
                39.826898
              ],
              [
                -76.986143,
                39.826574
              ],
              [
                -76.986165,
                39.826574
              ],
              [
                -76.986165,
                39.826898
              ]
            ]
          ],
          [
            [
              [
                -76.986099,
                39.826817
              ],
              [
                -76.985781,
                39.826817
              ],
              [
                -76.985781,
                39.826793
              ],
              [
                -76.985756,
                39.826793
              ],
              [
                -76.985756,
                39.826749
              ],
              [
                -76.98599,
                39.826749
              ],
              [
                -76.98599,
                39.82673
              ],
              [
                -76.986119,
                39.82673
              ],
              [
                -76.986119,
                39.826787
              ],
              [
                -76.986112,
                39.826787
              ],
              [
                -76.986112,
                39.826796
              ],
              [
                -76.986099,
                39.826796
              ],
              [
                -76.986099,
                39.826817
              ]
            ]
          ],
          [
            [
              [
                -76.987065,
                39.826964
              ],
              [
                -76.987038,
                39.826964
              ],
              [
                -76.987038,
                39.827214
              ],
              [
                -76.987063,
                39.827214
              ],
              [
                -76.987063,
                39.827243
              ],
              [
                -76.987108,
                39.827243
              ],
              [
                -76.987108,
                39.827214
              ],
              [
                -76.987065,
                39.827214
              ],
              [
                -76.987065,
                39.826964
              ]
            ]
          ],
          [
            [
              [
                -76.98695,
                39.827213
              ],
              [
                -76.986948,
                39.827213
              ],
              [
                -76.986948,
                39.827243
              ],
              [
                -76.986972,
                39.827243
              ],
              [
                -76.986972,
                39.827225
              ],
              [
                -76.986988,
                39.827225
              ],
              [
                -76.986988,
                39.827214
              ],
              [
                -76.98701,
                39.827214
              ],
              [
                -76.98701,
                39.826954
              ],
              [
                -76.98695,
                39.826954
              ],
              [
                -76.98695,
                39.826983
              ],
              [
                -76.986918,
                39.826983
              ],
              [
                -76.986918,
                39.827035
              ],
              [
                -76.98695,
                39.827035
              ],
              [
                -76.98695,
                39.827213
              ]
            ]
          ],
          [
            [
              [
                -76.985638,
                39.82694
              ],
              [
                -76.985603,
                39.82694
              ],
              [
                -76.985603,
                39.82681
              ],
              [
                -76.985638,
                39.82681
              ],
              [
                -76.985638,
                39.82694
              ]
            ]
          ],
          [
            [
              [
                -76.986414,
                39.826565
              ],
              [
                -76.986414,
                39.826574
              ],
              [
                -76.986393,
                39.826574
              ],
              [
                -76.986393,
                39.826649
              ],
              [
                -76.986317,
                39.826649
              ],
              [
                -76.986317,
                39.826574
              ],
              [
                -76.986299,
                39.826574
              ],
              [
                -76.986299,
                39.826565
              ],
              [
                -76.986414,
                39.826565
              ]
            ]
          ],
          [
            [
              [
                -76.986739,
                39.826574
              ],
              [
                -76.986677,
                39.826574
              ],
              [
                -76.986677,
                39.826578
              ],
              [
                -76.986627,
                39.826578
              ],
              [
                -76.986627,
                39.826723
              ],
              [
                -76.986608,
                39.826723
              ],
              [
                -76.986608,
                39.826872
              ],
              [
                -76.986627,
                39.826872
              ],
              [
                -76.986627,
                39.826899
              ],
              [
                -76.986739,
                39.826899
              ],
              [
                -76.986739,
                39.826574
              ]
            ]
          ],
          [
            [
              [
                -76.986627,
                39.826899
              ],
              [
                -76.986627,
                39.826872
              ],
              [
                -76.986608,
                39.826872
              ],
              [
                -76.986608,
                39.826723
              ],
              [
                -76.986627,
                39.826723
              ],
              [
                -76.986627,
                39.826574
              ],
              [
                -76.986548,
                39.826574
              ],
              [
                -76.986548,
                39.826899
              ],
              [
                -76.986627,
                39.826899
              ]
            ]
          ],
          [
            [
              [
                -76.986548,
                39.826899
              ],
              [
                -76.986548,
                39.826574
              ],
              [
                -76.986502,
                39.826574
              ],
              [
                -76.986502,
                39.826604
              ],
              [
                -76.986414,
                39.826604
              ],
              [
                -76.986414,
                39.826574
              ],
              [
                -76.986393,
                39.826574
              ],
              [
                -76.986393,
                39.826898
              ],
              [
                -76.986414,
                39.826898
              ],
              [
                -76.986414,
                39.826858
              ],
              [
                -76.986457,
                39.826858
              ],
              [
                -76.986457,
                39.826895
              ],
              [
                -76.986502,
                39.826895
              ],
              [
                -76.986502,
                39.826899
              ],
              [
                -76.986548,
                39.826899
              ]
            ]
          ],
          [
            [
              [
                -76.986659,
                39.827243
              ],
              [
                -76.986659,
                39.827218
              ],
              [
                -76.98671,
                39.827218
              ],
              [
                -76.98671,
                39.827194
              ],
              [
                -76.986687,
                39.827194
              ],
              [
                -76.986687,
                39.826956
              ],
              [
                -76.986755,
                39.826956
              ],
              [
                -76.986755,
                39.826942
              ],
              [
                -76.986801,
                39.826942
              ],
              [
                -76.986801,
                39.826956
              ],
              [
                -76.986893,
                39.826956
              ],
              [
                -76.986893,
                39.826942
              ],
              [
                -76.98695,
                39.826942
              ],
              [
                -76.98695,
                39.826983
              ],
              [
                -76.986918,
                39.826983
              ],
              [
                -76.986918,
                39.827035
              ],
              [
                -76.98695,
                39.827035
              ],
              [
                -76.98695,
                39.827213
              ],
              [
                -76.986948,
                39.827213
              ],
              [
                -76.986948,
                39.827243
              ],
              [
                -76.986659,
                39.827243
              ]
            ]
          ],
          [
            [
              [
                -76.985899,
                39.827243
              ],
              [
                -76.985934,
                39.827243
              ],
              [
                -76.985934,
                39.827225
              ],
              [
                -76.985954,
                39.827225
              ],
              [
                -76.985954,
                39.827217
              ],
              [
                -76.986064,
                39.827217
              ],
              [
                -76.986064,
                39.827154
              ],
              [
                -76.986087,
                39.827154
              ],
              [
                -76.986087,
                39.827046
              ],
              [
                -76.986065,
                39.827046
              ],
              [
                -76.986065,
                39.827033
              ],
              [
                -76.986029,
                39.827033
              ],
              [
                -76.986029,
                39.827017
              ],
              [
                -76.985966,
                39.827017
              ],
              [
                -76.985966,
                39.826958
              ],
              [
                -76.985921,
                39.826958
              ],
              [
                -76.985921,
                39.826955
              ],
              [
                -76.985899,
                39.826955
              ],
              [
                -76.985899,
                39.827243
              ]
            ]
          ],
          [
            [
              [
                -76.985686,
                39.827022
              ],
              [
                -76.985351,
                39.827022
              ],
              [
                -76.985351,
                39.826799
              ],
              [
                -76.985391,
                39.826799
              ],
              [
                -76.985391,
                39.826795
              ],
              [
                -76.985686,
                39.826795
              ],
              [
                -76.985686,
                39.826808
              ],
              [
                -76.985673,
                39.826808
              ],
              [
                -76.985673,
                39.82699
              ],
              [
                -76.985686,
                39.82699
              ],
              [
                -76.985686,
                39.827022
              ]
            ]
          ],
          [
            [
              [
                -76.986317,
                39.826848
              ],
              [
                -76.98628,
                39.826848
              ],
              [
                -76.98628,
                39.826574
              ],
              [
                -76.986317,
                39.826574
              ],
              [
                -76.986317,
                39.826848
              ]
            ]
          ],
          [
            [
              [
                -76.986393,
                39.826898
              ],
              [
                -76.986393,
                39.826649
              ],
              [
                -76.986317,
                39.826649
              ],
              [
                -76.986317,
                39.826848
              ],
              [
                -76.986261,
                39.826848
              ],
              [
                -76.986261,
                39.826907
              ],
              [
                -76.986374,
                39.826907
              ],
              [
                -76.986374,
                39.826898
              ],
              [
                -76.986393,
                39.826898
              ]
            ]
          ],
          [
            [
              [
                -76.986232,
                39.827225
              ],
              [
                -76.986232,
                39.827217
              ],
              [
                -76.986196,
                39.827217
              ],
              [
                -76.986196,
                39.827191
              ],
              [
                -76.986218,
                39.827191
              ],
              [
                -76.986218,
                39.826969
              ],
              [
                -76.986196,
                39.826969
              ],
              [
                -76.986196,
                39.826942
              ],
              [
                -76.986432,
                39.826942
              ],
              [
                -76.986432,
                39.826956
              ],
              [
                -76.986457,
                39.826956
              ],
              [
                -76.986457,
                39.827164
              ],
              [
                -76.986457,
                39.827192
              ],
              [
                -76.986457,
                39.827208
              ],
              [
                -76.986457,
                39.827243
              ],
              [
                -76.986248,
                39.827243
              ],
              [
                -76.986248,
                39.827225
              ],
              [
                -76.986232,
                39.827225
              ]
            ]
          ],
          [
            [
              [
                -76.986075,
                39.82688
              ],
              [
                -76.98577,
                39.82688
              ],
              [
                -76.98577,
                39.826882
              ],
              [
                -76.985743,
                39.826882
              ],
              [
                -76.985743,
                39.8269
              ],
              [
                -76.985729,
                39.8269
              ],
              [
                -76.985729,
                39.826842
              ],
              [
                -76.985756,
                39.826842
              ],
              [
                -76.985756,
                39.826793
              ],
              [
                -76.985781,
                39.826793
              ],
              [
                -76.985781,
                39.826817
              ],
              [
                -76.986099,
                39.826817
              ],
              [
                -76.986099,
                39.826838
              ],
              [
                -76.986075,
                39.826838
              ],
              [
                -76.986075,
                39.82688
              ]
            ]
          ],
          [
            [
              [
                -76.986232,
                39.827243
              ],
              [
                -76.986232,
                39.827217
              ],
              [
                -76.986196,
                39.827217
              ],
              [
                -76.986196,
                39.827191
              ],
              [
                -76.986218,
                39.827191
              ],
              [
                -76.986218,
                39.826969
              ],
              [
                -76.986196,
                39.826969
              ],
              [
                -76.986196,
                39.826942
              ],
              [
                -76.985966,
                39.826942
              ],
              [
                -76.985966,
                39.827017
              ],
              [
                -76.986029,
                39.827017
              ],
              [
                -76.986029,
                39.827033
              ],
              [
                -76.986065,
                39.827033
              ],
              [
                -76.986065,
                39.827046
              ],
              [
                -76.986087,
                39.827046
              ],
              [
                -76.986087,
                39.827154
              ],
              [
                -76.986064,
                39.827154
              ],
              [
                -76.986064,
                39.827217
              ],
              [
                -76.985954,
                39.827217
              ],
              [
                -76.985954,
                39.827243
              ],
              [
                -76.986083,
                39.827243
              ],
              [
                -76.986083,
                39.827225
              ],
              [
                -76.986103,
                39.827225
              ],
              [
                -76.986103,
                39.827243
              ],
              [
                -76.986232,
                39.827243
              ]
            ]
          ],
          [
            [
              [
                -76.985351,
                39.826712
              ],
              [
                -76.985351,
                39.82646
              ],
              [
                -76.985493,
                39.82646
              ],
              [
                -76.985493,
                39.826553
              ],
              [
                -76.985697,
                39.826553
              ],
              [
                -76.985697,
                39.826562
              ],
              [
                -76.985726,
                39.826562
              ],
              [
                -76.985726,
                39.826903
              ],
              [
                -76.985744,
                39.826903
              ],
              [
                -76.985744,
                39.826926
              ],
              [
                -76.98571,
                39.826926
              ],
              [
                -76.98571,
                39.826771
              ],
              [
                -76.985391,
                39.826771
              ],
              [
                -76.985391,
                39.826712
              ],
              [
                -76.985351,
                39.826712
              ]
            ]
          ],
          [
            [
              [
                -76.986951,
                39.82655
              ],
              [
                -76.98701,
                39.82655
              ],
              [
                -76.98701,
                39.826894
              ],
              [
                -76.986951,
                39.826894
              ],
              [
                -76.986951,
                39.82655
              ]
            ]
          ],
          [
            [
              [
                -76.986261,
                39.826898
              ],
              [
                -76.986261,
                39.826848
              ],
              [
                -76.98628,
                39.826848
              ],
              [
                -76.98628,
                39.826574
              ],
              [
                -76.986261,
                39.826574
              ],
              [
                -76.986261,
                39.826565
              ],
              [
                -76.986184,
                39.826565
              ],
              [
                -76.986184,
                39.826574
              ],
              [
                -76.986165,
                39.826574
              ],
              [
                -76.986165,
                39.826898
              ],
              [
                -76.986261,
                39.826898
              ]
            ]
          ],
          [
            [
              [
                -76.987038,
                39.8269
              ],
              [
                -76.987038,
                39.82665
              ],
              [
                -76.987029,
                39.82665
              ],
              [
                -76.987029,
                39.826575
              ],
              [
                -76.987065,
                39.826575
              ],
              [
                -76.987065,
                39.826745
              ],
              [
                -76.987095,
                39.826745
              ],
              [
                -76.987095,
                39.8269
              ],
              [
                -76.987038,
                39.8269
              ]
            ]
          ],
          [
            [
              [
                -76.986867,
                39.826537
              ],
              [
                -76.986523,
                39.826537
              ],
              [
                -76.986523,
                39.826529
              ],
              [
                -76.986506,
                39.826529
              ],
              [
                -76.986506,
                39.826485
              ],
              [
                -76.986517,
                39.826485
              ],
              [
                -76.986517,
                39.82646
              ],
              [
                -76.986713,
                39.82646
              ],
              [
                -76.986713,
                39.826477
              ],
              [
                -76.986728,
                39.826477
              ],
              [
                -76.986728,
                39.82646
              ],
              [
                -76.986853,
                39.82646
              ],
              [
                -76.986853,
                39.826474
              ],
              [
                -76.986867,
                39.826474
              ],
              [
                -76.986867,
                39.826537
              ]
            ]
          ],
          [
            [
              [
                -76.986457,
                39.827243
              ],
              [
                -76.986457,
                39.827208
              ],
              [
                -76.986457,
                39.826956
              ],
              [
                -76.986481,
                39.826956
              ],
              [
                -76.986481,
                39.826942
              ],
              [
                -76.98666,
                39.826942
              ],
              [
                -76.98666,
                39.826956
              ],
              [
                -76.986687,
                39.826956
              ],
              [
                -76.986687,
                39.827194
              ],
              [
                -76.98671,
                39.827194
              ],
              [
                -76.98671,
                39.827218
              ],
              [
                -76.986659,
                39.827218
              ],
              [
                -76.986659,
                39.827243
              ],
              [
                -76.986523,
                39.827243
              ],
              [
                -76.986523,
                39.827225
              ],
              [
                -76.986508,
                39.827225
              ],
              [
                -76.986508,
                39.827243
              ],
              [
                -76.986457,
                39.827243
              ]
            ]
          ],
          [
            [
              [
                -76.987125,
                39.827224
              ],
              [
                -76.987108,
                39.827224
              ],
              [
                -76.987108,
                39.827214
              ],
              [
                -76.987065,
                39.827214
              ],
              [
                -76.987065,
                39.827186
              ],
              [
                -76.987065,
                39.826965
              ],
              [
                -76.987095,
                39.826965
              ],
              [
                -76.987095,
                39.826913
              ],
              [
                -76.987038,
                39.826913
              ],
              [
                -76.987038,
                39.8269
              ],
              [
                -76.987095,
                39.8269
              ],
              [
                -76.987095,
                39.826745
              ],
              [
                -76.987065,
                39.826745
              ],
              [
                -76.987065,
                39.826575
              ],
              [
                -76.987095,
                39.826575
              ],
              [
                -76.987095,
                39.826515
              ],
              [
                -76.987125,
                39.826515
              ],
              [
                -76.987125,
                39.827224
              ]
            ]
          ]
        ]
      },
      "properties": {
        "fill": "#D9E2F6",
        "stroke-width": "0.5",
        "stroke": "#96A3BD",
        "opacity": "0.75"
      }
    },
    {
      "type": "Feature",
      "geometry": {
        "type": "MultiLineString",
        "coordinates": []
      },
      "properties": {
        "stroke-width": "0.5"
      }
    },
    {
      "type": "Feature",
      "geometry": {
        "type": "Point",
        "coordinates": [
          -76.986778,
          39.826944
        ]
      },
      "properties": {
        "type": "P",
        "sub_category": "ServiceDesks",
        "poi_name": "MILLWORK DESK",
        "profile": "STORE SERVICES",
        "icon_id": "millwork_desk",
        "orientation": 0
      }
    },
    {
      "type": "Feature",
      "geometry": {
        "type": "Point",
        "coordinates": [
          -76.986152,
          39.827039
        ]
      },
      "properties": {
        "type": "P",
        "sub_category": "ServiceDesks",
        "poi_name": "APPLIANCE DESK",
        "profile": "STORE SERVICES",
        "icon_id": "appliance_desk",
        "orientation": 0
      }
    },
    {
      "type": "Feature",
      "geometry": {
        "type": "Point",
        "coordinates": [
          -76.986338,
          39.826548
        ]
      },
      "properties": {
        "type": "P",
        "sub_category": "Checkouts",
        "poi_name": "MAIN CHECKOUT",
        "profile": "BASIC INFO",
        "icon_id": "checkouts",
        "orientation": 0
      }
    },
    {
      "type": "Feature",
      "geometry": {
        "type": "Point",
        "coordinates": [
          -76.986171,
          39.826489
        ]
      },
      "properties": {
        "type": "P",
        "sub_category": "Services",
        "poi_name": "RETURNS",
        "profile": "BASIC INFO",
        "icon_id": "returns",
        "orientation": 0
      }
    },
    {
      "type": "Feature",
      "geometry": {
        "type": "Point",
        "coordinates": [
          -76.986268,
          39.82647
        ]
      },
      "properties": {
        "type": "P",
        "sub_category": "Services",
        "poi_name": "PRODUCT PICK-UP",
        "profile": "BASIC INFO",
        "icon_id": "store_pick_up",
        "orientation": 0
      }
    },
    {
      "type": "Feature",
      "geometry": {
        "type": "Point",
        "coordinates": [
          -76.986172,
          39.826515
        ]
      },
      "properties": {
        "type": "P",
        "sub_category": "ServiceDesks",
        "poi_name": "CUSTOMER SERVICE",
        "profile": "BASIC INFO",
        "icon_id": "customer_service_desk",
        "orientation": 0
      }
    },
    {
      "type": "Feature",
      "geometry": {
        "type": "Point",
        "coordinates": [
          -76.986238,
          39.826469
        ]
      },
      "properties": {
        "type": "P",
        "sub_category": "Services",
        "poi_name": "PICKUP LOCKER",
        "profile": "BASIC INFO",
        "icon_id": "pickup_lockers",
        "orientation": 0
      }
    },
    {
      "type": "Feature",
      "geometry": {
        "type": "Point",
        "coordinates": [
          -76.986134,
          39.826429
        ]
      },
      "properties": {
        "type": "P",
        "sub_category": "EntryExit",
        "poi_name": "MAIN ENTRANCE",
        "profile": "BASIC INFO",
        "icon_id": "entrance_exit",
        "orientation": 0
      }
    },
    {
      "type": "Feature",
      "geometry": {
        "type": "Point",
        "coordinates": [
          -76.985553,
          39.826402
        ]
      },
      "properties": {
        "type": "P",
        "sub_category": "EntryExit",
        "poi_name": "GARDEN CENTER ENTRANCE",
        "profile": "BASIC INFO",
        "icon_id": "entrance_exit",
        "orientation": 0
      }
    },
    {
      "type": "Feature",
      "geometry": {
        "type": "Point",
        "coordinates": [
          -76.985553,
          39.826477
        ]
      },
      "properties": {
        "type": "P",
        "sub_category": "EntryExit",
        "poi_name": "GARDEN CENTER EXIT",
        "profile": "BASIC INFO",
        "icon_id": "entrance_exit",
        "orientation": 0
      }
    },
    {
      "type": "Feature",
      "geometry": {
        "type": "Point",
        "coordinates": [
          -76.985553,
          39.826546
        ]
      },
      "properties": {
        "type": "P",
        "sub_category": "Checkouts",
        "poi_name": "GARDEN CENTER CHECKOUT",
        "profile": "BASIC INFO",
        "icon_id": "checkouts",
        "orientation": 0
      }
    },
    {
      "type": "Feature",
      "geometry": {
        "type": "Point",
        "coordinates": [
          -76.986996,
          39.82644
        ]
      },
      "properties": {
        "type": "P",
        "sub_category": "EntryExit",
        "poi_name": "PRO ENTRANCE",
        "profile": "BASIC INFO",
        "icon_id": "entrance_exit",
        "orientation": 0
      }
    },
    {
      "type": "Feature",
      "geometry": {
        "type": "Point",
        "coordinates": [
          -76.986996,
          39.826483
        ]
      },
      "properties": {
        "type": "P",
        "sub_category": "EntryExit",
        "poi_name": "PRO EXIT",
        "profile": "BASIC INFO",
        "icon_id": "entrance_exit",
        "orientation": 0
      }
    },
    {
      "type": "Feature",
      "geometry": {
        "type": "Point",
        "coordinates": [
          -76.987072,
          39.82654
        ]
      },
      "properties": {
        "type": "P",
        "sub_category": "ServiceDesks",
        "poi_name": "PRO SERVICE DESK",
        "profile": "BASIC INFO",
        "icon_id": "pro_service_desk",
        "orientation": 0
      }
    },
    {
      "type": "Feature",
      "geometry": {
        "type": "Point",
        "coordinates": [
          -76.986415,
          39.826472
        ]
      },
      "properties": {
        "type": "P",
        "sub_category": "EntryExit",
        "poi_name": "MAIN EXIT",
        "profile": "BASIC INFO",
        "icon_id": "entrance_exit",
        "orientation": 0
      }
    },
    {
      "type": "Feature",
      "geometry": {
        "type": "Point",
        "coordinates": [
          -76.986257,
          39.827283
        ]
      },
      "properties": {
        "type": "P",
        "sub_category": "Restrooms",
        "poi_name": "MEN/WOMEN’S RESTROOMS",
        "profile": "BASIC INFO",
        "icon_id": "restrooms",
        "orientation": 0
      }
    },
    {
      "type": "Feature",
      "geometry": {
        "type": "Point",
        "coordinates": [
          -76.986224,
          39.826571
        ]
      },
      "properties": {
        "type": "P",
        "sub_category": "ServiceDesks",
        "poi_name": "PAINT DESK",
        "profile": "STORE SERVICES",
        "icon_id": "paint_desk",
        "orientation": 0
      }
    },
    {
      "type": "Feature",
      "geometry": {
        "type": "Point",
        "coordinates": [
          -76.986317,
          39.82686
        ]
      },
      "properties": {
        "type": "P",
        "sub_category": "ServiceDesks",
        "poi_name": "HOME DECOR DESK",
        "profile": "STORE SERVICES",
        "icon_id": "home_décor_desk",
        "orientation": 0
      }
    },
    {
      "type": "Feature",
      "geometry": {
        "type": "Point",
        "coordinates": [
          -76.986347,
          39.826983
        ]
      },
      "properties": {
        "type": "P",
        "sub_category": "ServiceDesks",
        "poi_name": "FLOORING DESK",
        "profile": "STORE SERVICES",
        "icon_id": "flooring_desk",
        "orientation": 0
      }
    },
    {
      "type": "Feature",
      "geometry": {
        "type": "Point",
        "coordinates": [
          -76.986985,
          39.82719
        ]
      },
      "properties": {
        "type": "P",
        "sub_category": "Services",
        "poi_name": "WOOD CUTTING",
        "profile": "STORE SERVICES",
        "icon_id": "wood_cutting",
        "orientation": 0
      }
    },
    {
      "type": "Feature",
      "geometry": {
        "type": "Point",
        "coordinates": [
          -76.986357,
          39.82681
        ]
      },
      "properties": {
        "type": "P",
        "sub_category": "Services",
        "poi_name": "BLIND CUTTING",
        "profile": "STORE SERVICES",
        "icon_id": "blind_cutting",
        "orientation": 0
      }
    },
    {
      "type": "Feature",
      "geometry": {
        "type": "Point",
        "coordinates": [
          -76.986781,
          39.826587
        ]
      },
      "properties": {
        "type": "P",
        "sub_category": "Services",
        "poi_name": "KEY CUTTING",
        "profile": "STORE SERVICES",
        "icon_id": "key_copying",
        "orientation": 0
      }
    },
    {
      "type": "Feature",
      "geometry": {
        "type": "Point",
        "coordinates": [
          -76.986812,
          39.826821
        ]
      },
      "properties": {
        "type": "P",
        "sub_category": "Services",
        "poi_name": "CHAIN AND ROPE CUTTING",
        "profile": "STORE SERVICES",
        "icon_id": "chain_rope_cutting",
        "orientation": 0
      }
    },
    {
      "type": "Feature",
      "geometry": {
        "type": "Point",
        "coordinates": [
          -76.986593,
          39.826886
        ]
      },
      "properties": {
        "type": "P",
        "sub_category": "Services",
        "poi_name": "WIRE CUTTING",
        "profile": "STORE SERVICES",
        "icon_id": "wire_cutting",
        "orientation": 0
      }
    },
    {
      "type": "Feature",
      "geometry": {
        "type": "Point",
        "coordinates": [
          -76.986878,
          39.826969
        ]
      },
      "properties": {
        "type": "P",
        "sub_category": "Services",
        "poi_name": "GLASS CUTTING",
        "profile": "STORE SERVICES",
        "icon_id": "glass_cutting",
        "orientation": 0
      }
    },
    {
      "type": "Feature",
      "geometry": {
        "type": "Point",
        "coordinates": [
          -76.986996,
          39.826538
        ]
      },
      "properties": {
        "type": "P",
        "sub_category": "Checkouts",
        "poi_name": "PRO CHECKOUT",
        "profile": "BASIC INFO",
        "icon_id": "checkouts",
        "orientation": 0
      }
    },
    {
      "type": "Feature",
      "geometry": {
        "type": "Point",
        "coordinates": [
          -76.986195,
          39.826438
        ]
      },
      "properties": {
        "type": "P",
        "sub_category": "EntryExit",
        "poi_name": "MAIN ENTRANCE",
        "profile": "BASIC INFO",
        "icon_id": "entrance_exit",
        "orientation": 0
      }
    },
    {
      "type": "Feature",
      "geometry": {
        "type": "Point",
        "coordinates": [
          -76.985978,
          39.827146
        ]
      },
      "properties": {
        "type": "P",
        "sub_category": "ServiceDesks",
        "poi_name": "KITCHEN DESIGN DESK",
        "profile": "STORE SERVICES",
        "icon_id": "kitchen_design_desk",
        "orientation": 0
      }
    },
    {
      "type": "Feature",
      "geometry": {
        "type": "Point",
        "coordinates": [
          -76.98643,
          39.827219
        ]
      },
      "properties": {
        "type": "P",
        "sub_category": "Services",
        "poi_name": "CARPET CUTTING",
        "profile": "STORE SERVICES",
        "icon_id": "carpet_cutting",
        "orientation": 0
      }
    },
    {
      "type": "Feature",
      "geometry": {
        "type": "Point",
        "coordinates": [
          -76.985666,
          39.827099
        ]
      },
      "properties": {
        "type": "P",
        "sub_category": "ServiceDesks",
        "poi_name": "RECEIVING DESK",
        "profile": "BASIC INFO",
        "icon_id": "receiving_desk",
        "orientation": 0
      }
    },
    {
      "type": "Feature",
      "geometry": {
        "type": "Point",
        "coordinates": [
          -76.986895,
          39.826736
        ]
      },
      "properties": {
        "name": "BUILDING MATERIALS",
        "orientation": 0
      }
    },
    {
      "type": "Feature",
      "geometry": {
        "type": "Point",
        "coordinates": [
          -76.986564,
          39.827128
        ]
      },
      "properties": {
        "name": "ROUGH PLUMBING",
        "orientation": 0
      }
    },
    {
      "type": "Feature",
      "geometry": {
        "type": "Point",
        "coordinates": [
          -76.98599,
          39.826914
        ]
      },
      "properties": {
        "name": "APPLIANCES",
        "orientation": 0
      }
    },
    {
      "type": "Feature",
      "geometry": {
        "type": "Point",
        "coordinates": [
          -76.9868,
          39.826736
        ]
      },
      "properties": {
        "name": "HARDWARE",
        "orientation": 0
      }
    },
    {
      "type": "Feature",
      "geometry": {
        "type": "Point",
        "coordinates": [
          -76.986873,
          39.826656
        ]
      },
      "properties": {
        "name": "TOOLS",
        "orientation": 0
      }
    },
    {
      "type": "Feature",
      "geometry": {
        "type": "Point",
        "coordinates": [
          -76.985935,
          39.826898
        ]
      },
      "properties": {
        "name": "CLEANING",
        "orientation": 0
      }
    },
    {
      "type": "Feature",
      "geometry": {
        "type": "Point",
        "coordinates": [
          -76.985924,
          39.8267
        ]
      },
      "properties": {
        "name": "INSIDE LAWN AND GARDEN",
        "orientation": 0
      }
    },
    {
      "type": "Feature",
      "geometry": {
        "type": "Point",
        "coordinates": [
          -76.985808,
          39.826914
        ]
      },
      "properties": {
        "name": "OUTSIDE LAWN AND GARDEN",
        "orientation": 0
      }
    },
    {
      "type": "Feature",
      "geometry": {
        "type": "Point",
        "coordinates": [
          -76.985599,
          39.827001
        ]
      },
      "properties": {
        "name": "OUTSIDE LAWN AND GARDEN",
        "orientation": 0
      }
    },
    {
      "type": "Feature",
      "geometry": {
        "type": "Point",
        "coordinates": [
          -76.98565,
          39.826491
        ]
      },
      "properties": {
        "name": "OUTSIDE LAWN AND GARDEN",
        "orientation": 0
      }
    },
    {
      "type": "Feature",
      "geometry": {
        "type": "Point",
        "coordinates": [
          -76.985599,
          39.826756
        ]
      },
      "properties": {
        "name": "GARDEN CENTER",
        "orientation": 0
      }
    },
    {
      "type": "Feature",
      "geometry": {
        "type": "Point",
        "coordinates": [
          -76.985828,
          39.826497
        ]
      },
      "properties": {
        "name": "INSIDE LAWN AND GARDEN",
        "orientation": 0
      }
    },
    {
      "type": "Feature",
      "geometry": {
        "type": "Point",
        "coordinates": [
          -76.986155,
          39.826736
        ]
      },
      "properties": {
        "name": "CLEANING",
        "orientation": 0
      }
    },
    {
      "type": "Feature",
      "geometry": {
        "type": "Point",
        "coordinates": [
          -76.985938,
          39.826774
        ]
      },
      "properties": {
        "name": "OUTDOOR POWER EQUIPMENT",
        "orientation": 0
      }
    },
    {
      "type": "Feature",
      "geometry": {
        "type": "Point",
        "coordinates": [
          -76.987073,
          39.827104
        ]
      },
      "properties": {
        "name": "LUMBER",
        "orientation": 0
      }
    },
    {
      "type": "Feature",
      "geometry": {
        "type": "Point",
        "coordinates": [
          -76.986964,
          39.827098
        ]
      },
      "properties": {
        "name": "LUMBER",
        "orientation": 0
      }
    },
    {
      "type": "Feature",
      "geometry": {
        "type": "Point",
        "coordinates": [
          -76.98562,
          39.826875
        ]
      },
      "properties": {
        "name": "INSIDE LAWN AND GARDEN",
        "orientation": 0
      }
    },
    {
      "type": "Feature",
      "geometry": {
        "type": "Point",
        "coordinates": [
          -76.986356,
          39.826607
        ]
      },
      "properties": {
        "name": "HARDWARE",
        "orientation": 0
      }
    },
    {
      "type": "Feature",
      "geometry": {
        "type": "Point",
        "coordinates": [
          -76.986673,
          39.826736
        ]
      },
      "properties": {
        "name": "ROUGH PLUMBING",
        "orientation": 0
      }
    },
    {
      "type": "Feature",
      "geometry": {
        "type": "Point",
        "coordinates": [
          -76.986588,
          39.826736
        ]
      },
      "properties": {
        "name": "ROUGH ELECTRICAL",
        "orientation": 0
      }
    },
    {
      "type": "Feature",
      "geometry": {
        "type": "Point",
        "coordinates": [
          -76.98647,
          39.826736
        ]
      },
      "properties": {
        "name": "LIGHTING",
        "orientation": 0
      }
    },
    {
      "type": "Feature",
      "geometry": {
        "type": "Point",
        "coordinates": [
          -76.986805,
          39.827093
        ]
      },
      "properties": {
        "name": "MILLWORK",
        "orientation": 0
      }
    },
    {
      "type": "Feature",
      "geometry": {
        "type": "Point",
        "coordinates": [
          -76.985993,
          39.827099
        ]
      },
      "properties": {
        "name": "CABINETS",
        "orientation": 0
      }
    },
    {
      "type": "Feature",
      "geometry": {
        "type": "Point",
        "coordinates": [
          -76.985519,
          39.826909
        ]
      },
      "properties": {
        "name": "OUTSIDE LAWN AND GARDEN",
        "orientation": 0
      }
    },
    {
      "type": "Feature",
      "geometry": {
        "type": "Point",
        "coordinates": [
          -76.986298,
          39.826711
        ]
      },
      "properties": {
        "name": "STORAGE",
        "orientation": 0
      }
    },
    {
      "type": "Feature",
      "geometry": {
        "type": "Point",
        "coordinates": [
          -76.986327,
          39.826778
        ]
      },
      "properties": {
        "name": "HOME DECOR",
        "orientation": 0
      }
    },
    {
      "type": "Feature",
      "geometry": {
        "type": "Point",
        "coordinates": [
          -76.986326,
          39.827093
        ]
      },
      "properties": {
        "name": "FLOORING",
        "orientation": 0
      }
    },
    {
      "type": "Feature",
      "geometry": {
        "type": "Point",
        "coordinates": [
          -76.985915,
          39.826847
        ]
      },
      "properties": {
        "name": "STORAGE",
        "orientation": 0
      }
    },
    {
      "type": "Feature",
      "geometry": {
        "type": "Point",
        "coordinates": [
          -76.986093,
          39.827093
        ]
      },
      "properties": {
        "name": "APPLIANCES",
        "orientation": 0
      }
    },
    {
      "type": "Feature",
      "geometry": {
        "type": "Point",
        "coordinates": [
          -76.985547,
          39.826693
        ]
      },
      "properties": {
        "name": "OUTSIDE LAWN AND GARDEN",
        "orientation": 0
      }
    },
    {
      "type": "Feature",
      "geometry": {
        "type": "Point",
        "coordinates": [
          -76.986981,
          39.826722
        ]
      },
      "properties": {
        "name": "LUMBER",
        "orientation": 0
      }
    },
    {
      "type": "Feature",
      "geometry": {
        "type": "Point",
        "coordinates": [
          -76.986223,
          39.826732
        ]
      },
      "properties": {
        "name": "PAINT",
        "orientation": 0
      }
    },
    {
      "type": "Feature",
      "geometry": {
        "type": "Point",
        "coordinates": [
          -76.987062,
          39.826738
        ]
      },
      "properties": {
        "name": "LUMBER",
        "orientation": 0
      }
    },
    {
      "type": "Feature",
      "geometry": {
        "type": "Point",
        "coordinates": [
          -76.986687,
          39.826498
        ]
      },
      "properties": {
        "name": "TOOLS",
        "orientation": 0
      }
    },
    {
      "type": "Feature",
      "geometry": {
        "type": "Point",
        "coordinates": [
          -76.986583,
          39.827093
        ]
      },
      "properties": {
        "name": "FASHION PLUMBING",
        "orientation": 0
      }
    },
    {
      "type": "Feature",
      "geometry": {
        "type": "Point",
        "coordinates": [
          -76.987082,
          39.826869
        ]
      },
      "properties": {
        "name": "BUILDING MATERIALS",
        "orientation": 0
      }
    }
  ]
}