{
  "type": "FeatureCollection",
  "features": [
    {
      "type": "Feature",
      "geometry": {
        "type": "MultiPolygon",
        "coordinates": [
          [
            [
              [
                -76.985608,
                39.827124
              ],
              [
                -76.985608,
                39.827101
              ],
              [
                -76.985605,
                39.827101
              ],
              [
                -76.985605,
                39.827067
              ],
              [
                -76.985579,
                39.827067
              ],
              [
                -76.985579,
                39.826841
              ],
              [
                -76.985544,
                39.826841
              ],
              [
                -76.985544,
                39.82694
              ],
              [
                -76.98551,
                39.82694
              ],
              [
                -76.98551,
                39.826865
              ],
              [
                -76.985481,
                39.826865
              ],
              [
                -76.985481,
                39.827098
              ],
              [
                -76.985505,
                39.827098
              ],
              [
                -76.985505,
                39.827109
              ],
              [
                -76.985521,
                39.827109
              ],
              [
                -76.985521,
                39.827124
              ],
              [
                -76.985608,
                39.827124
              ]
            ]
          ],
          [
            [
              [
                -76.985545,
                39.826559
              ],
              [
                -76.985507,
                39.826559
              ],
              [
                -76.985507,
                39.826572
              ],
              [
                -76.985481,
                39.826572
              ],
              [
                -76.985481,
                39.8268
              ],
              [
                -76.985545,
                39.8268
              ],
              [
                -76.985545,
                39.826559
              ]
            ]
          ],
          [
            [
              [
                -76.98545,
                39.827016
              ],
              [
                -76.985421,
                39.827016
              ],
              [
                -76.985421,
                39.826843
              ],
              [
                -76.98545,
                39.826843
              ],
              [
                -76.98545,
                39.827016
              ]
            ]
          ],
          [
            [
              [
                -76.98545,
                39.827058
              ],
              [
                -76.985387,
                39.827058
              ],
              [
                -76.985387,
                39.827098
              ],
              [
                -76.985352,
                39.827098
              ],
              [
                -76.985352,
                39.827124
              ],
              [
                -76.985428,
                39.827124
              ],
              [
                -76.985428,
                39.827098
              ],
              [
                -76.98545,
                39.827098
              ],
              [
                -76.98545,
                39.827058
              ]
            ]
          ],
          [
            [
              [
                -76.985451,
                39.82679
              ],
              [
                -76.985421,
                39.82679
              ],
              [
                -76.985421,
                39.826563
              ],
              [
                -76.985387,
                39.826563
              ],
              [
                -76.985387,
                39.826549
              ],
              [
                -76.98545,
                39.826549
              ],
              [
                -76.98545,
                39.826563
              ],
              [
                -76.985461,
                39.826563
              ],
              [
                -76.985461,
                39.826628
              ],
              [
                -76.985451,
                39.826628
              ],
              [
                -76.985451,
                39.82679
              ]
            ]
          ],
          [
            [
              [
                -76.985544,
                39.82694
              ],
              [
                -76.98551,
                39.82694
              ],
              [
                -76.98551,
                39.826865
              ],
              [
                -76.985544,
                39.826865
              ],
              [
                -76.985544,
                39.82694
              ]
            ]
          ],
          [
            [
              [
                -76.985675,
                39.826793
              ],
              [
                -76.985648,
                39.826793
              ],
              [
                -76.985648,
                39.826735
              ],
              [
                -76.98562,
                39.826735
              ],
              [
                -76.98562,
                39.826801
              ],
              [
                -76.985593,
                39.826801
              ],
              [
                -76.985593,
                39.82679
              ],
              [
                -76.985581,
                39.82679
              ],
              [
                -76.985545,
                39.82679
              ],
              [
                -76.985545,
                39.826559
              ],
              [
                -76.985507,
                39.826559
              ],
              [
                -76.985507,
                39.826572
              ],
              [
                -76.985481,
                39.826572
              ],
              [
                -76.985481,
                39.826548
              ],
              [
                -76.98562,
                39.826548
              ],
              [
                -76.98562,
                39.826555
              ],
              [
                -76.985648,
                39.826555
              ],
              [
                -76.985648,
                39.8266
              ],
              [
                -76.985648,
                39.826601
              ],
              [
                -76.985675,
                39.826601
              ],
              [
                -76.985675,
                39.826793
              ]
            ]
          ],
          [
            [
              [
                -76.985387,
                39.827098
              ],
              [
                -76.985387,
                39.827058
              ],
              [
                -76.985421,
                39.827058
              ],
              [
                -76.985421,
                39.826843
              ],
              [
                -76.985387,
                39.826843
              ],
              [
                -76.985387,
                39.826801
              ],
              [
                -76.985451,
                39.826801
              ],
              [
                -76.985451,
                39.82679
              ],
              [
                -76.985421,
                39.82679
              ],
              [
                -76.985421,
                39.826563
              ],
              [
                -76.985387,
                39.826563
              ],
              [
                -76.985387,
                39.826502
              ],
              [
                -76.985352,
                39.826502
              ],
              [
                -76.985352,
                39.827098
              ],
              [
                -76.985387,
                39.827098
              ]
            ]
          ],
          [
            [
              [
                -76.985817,
                39.827124
              ],
              [
                -76.985817,
                39.827109
              ],
              [
                -76.98583,
                39.827109
              ],
              [
                -76.98583,
                39.826842
              ],
              [
                -76.985805,
                39.826842
              ],
              [
                -76.985805,
                39.82683
              ],
              [
                -76.985707,
                39.82683
              ],
              [
                -76.985707,
                39.826842
              ],
              [
                -76.985605,
                39.826842
              ],
              [
                -76.985605,
                39.826841
              ],
              [
                -76.985579,
                39.826841
              ],
              [
                -76.985579,
                39.827067
              ],
              [
                -76.985605,
                39.827067
              ],
              [
                -76.985605,
                39.827101
              ],
              [
                -76.985608,
                39.827101
              ],
              [
                -76.985608,
                39.827124
              ],
              [
                -76.985817,
                39.827124
              ]
            ]
          ],
          [
            [
              [
                -76.986139,
                39.826756
              ],
              [
                -76.986114,
                39.826756
              ],
              [
                -76.986114,
                39.826801
              ],
              [
                -76.986061,
                39.826801
              ],
              [
                -76.986008,
                39.826801
              ],
              [
                -76.986008,
                39.826761
              ],
              [
                -76.985983,
                39.826761
              ],
              [
                -76.985983,
                39.82676
              ],
              [
                -76.985957,
                39.82676
              ],
              [
                -76.985957,
                39.826793
              ],
              [
                -76.985957,
                39.826801
              ],
              [
                -76.985907,
                39.826801
              ],
              [
                -76.985907,
                39.826793
              ],
              [
                -76.985931,
                39.826793
              ],
              [
                -76.985931,
                39.826642
              ],
              [
                -76.985907,
                39.826642
              ],
              [
                -76.985907,
                39.82662
              ],
              [
                -76.985931,
                39.82662
              ],
              [
                -76.985931,
                39.826556
              ],
              [
                -76.985957,
                39.826556
              ],
              [
                -76.985957,
                39.82656
              ],
              [
                -76.98606,
                39.82656
              ],
              [
                -76.98606,
                39.826556
              ],
              [
                -76.986139,
                39.826556
              ],
              [
                -76.986139,
                39.826756
              ]
            ]
          ],
          [
            [
              [
                -76.985931,
                39.826556
              ],
              [
                -76.985835,
                39.826556
              ],
              [
                -76.985835,
                39.826794
              ],
              [
                -76.98586,
                39.826794
              ],
              [
                -76.985907,
                39.826794
              ],
              [
                -76.985907,
                39.82675
              ],
              [
                -76.985931,
                39.82675
              ],
              [
                -76.985931,
                39.826642
              ],
              [
                -76.985907,
                39.826642
              ],
              [
                -76.985907,
                39.82662
              ],
              [
                -76.985931,
                39.82662
              ],
              [
                -76.985931,
                39.826556
              ]
            ]
          ],
          [
            [
              [
                -76.986463,
                39.827004
              ],
              [
                -76.986463,
                39.826944
              ],
              [
                -76.986454,
                39.826944
              ],
              [
                -76.986454,
                39.82683
              ],
              [
                -76.986454,
                39.826821
              ],
              [
                -76.986729,
                39.826821
              ],
              [
                -76.986729,
                39.827004
              ],
              [
                -76.986463,
                39.827004
              ]
            ]
          ],
          [
            [
              [
                -76.986782,
                39.826995
              ],
              [
                -76.986756,
                39.826995
              ],
              [
                -76.986756,
                39.826842
              ],
              [
                -76.986782,
                39.826842
              ],
              [
                -76.986782,
                39.826995
              ]
            ]
          ],
          [
            [
              [
                -76.986756,
                39.826995
              ],
              [
                -76.986782,
                39.826995
              ],
              [
                -76.986782,
                39.827076
              ],
              [
                -76.986756,
                39.827076
              ],
              [
                -76.986756,
                39.826995
              ]
            ]
          ],
          [
            [
              [
                -76.986782,
                39.827088
              ],
              [
                -76.986756,
                39.827088
              ],
              [
                -76.986756,
                39.827102
              ],
              [
                -76.986654,
                39.827102
              ],
              [
                -76.986654,
                39.827124
              ],
              [
                -76.986782,
                39.827124
              ],
              [
                -76.986782,
                39.827088
              ]
            ]
          ],
          [
            [
              [
                -76.986612,
                39.827124
              ],
              [
                -76.986612,
                39.827091
              ],
              [
                -76.986729,
                39.827091
              ],
              [
                -76.986729,
                39.827004
              ],
              [
                -76.986463,
                39.827004
              ],
              [
                -76.986463,
                39.827071
              ],
              [
                -76.986461,
                39.827071
              ],
              [
                -76.986461,
                39.827102
              ],
              [
                -76.986333,
                39.827102
              ],
              [
                -76.986333,
                39.827124
              ],
              [
                -76.986612,
                39.827124
              ]
            ]
          ],
          [
            [
              [
                -76.986857,
                39.827124
              ],
              [
                -76.986857,
                39.827102
              ],
              [
                -76.98682,
                39.827102
              ],
              [
                -76.98682,
                39.82711
              ],
              [
                -76.986786,
                39.82711
              ],
              [
                -76.986786,
                39.827124
              ],
              [
                -76.986857,
                39.827124
              ]
            ]
          ],
          [
            [
              [
                -76.986333,
                39.827124
              ],
              [
                -76.98611,
                39.827124
              ],
              [
                -76.98611,
                39.827102
              ],
              [
                -76.986238,
                39.827102
              ],
              [
                -76.986238,
                39.827081
              ],
              [
                -76.986333,
                39.827081
              ],
              [
                -76.986333,
                39.827066
              ],
              [
                -76.986301,
                39.827066
              ],
              [
                -76.986301,
                39.826904
              ],
              [
                -76.986157,
                39.826904
              ],
              [
                -76.986157,
                39.82683
              ],
              [
                -76.986454,
                39.82683
              ],
              [
                -76.986454,
                39.827102
              ],
              [
                -76.986333,
                39.827102
              ],
              [
                -76.986333,
                39.827124
              ]
            ]
          ],
          [
            [
              [
                -76.986107,
                39.82695
              ],
              [
                -76.986084,
                39.82695
              ],
              [
                -76.986084,
                39.826864
              ],
              [
                -76.986107,
                39.826864
              ],
              [
                -76.986107,
                39.82695
              ]
            ]
          ],
          [
            [
              [
                -76.985835,
                39.826556
              ],
              [
                -76.985769,
                39.826556
              ],
              [
                -76.985769,
                39.826548
              ],
              [
                -76.985721,
                39.826548
              ],
              [
                -76.985721,
                39.826556
              ],
              [
                -76.9857,
                39.826556
              ],
              [
                -76.9857,
                39.826599
              ],
              [
                -76.985675,
                39.826599
              ],
              [
                -76.985675,
                39.826793
              ],
              [
                -76.9857,
                39.826793
              ],
              [
                -76.9857,
                39.826794
              ],
              [
                -76.985721,
                39.826794
              ],
              [
                -76.985721,
                39.826793
              ],
              [
                -76.985835,
                39.826793
              ],
              [
                -76.985835,
                39.826556
              ]
            ]
          ],
          [
            [
              [
                -76.985931,
                39.826793
              ],
              [
                -76.985907,
                39.826793
              ],
              [
                -76.985907,
                39.82675
              ],
              [
                -76.985931,
                39.82675
              ],
              [
                -76.985931,
                39.826793
              ]
            ]
          ],
          [
            [
              [
                -76.986408,
                39.826793
              ],
              [
                -76.986386,
                39.826793
              ],
              [
                -76.986386,
                39.826794
              ],
              [
                -76.986294,
                39.826794
              ],
              [
                -76.986294,
                39.826771
              ],
              [
                -76.986273,
                39.826771
              ],
              [
                -76.986273,
                39.826556
              ],
              [
                -76.986294,
                39.826556
              ],
              [
                -76.986294,
                39.826548
              ],
              [
                -76.986386,
                39.826548
              ],
              [
                -76.986386,
                39.826556
              ],
              [
                -76.986408,
                39.826556
              ],
              [
                -76.986408,
                39.826793
              ]
            ]
          ],
          [
            [
              [
                -76.985648,
                39.826792
              ],
              [
                -76.98562,
                39.826792
              ],
              [
                -76.98562,
                39.826735
              ],
              [
                -76.985648,
                39.826735
              ],
              [
                -76.985648,
                39.826792
              ]
            ]
          ],
          [
            [
              [
                -76.9857,
                39.826556
              ],
              [
                -76.985648,
                39.826556
              ],
              [
                -76.985648,
                39.826601
              ],
              [
                -76.985675,
                39.826601
              ],
              [
                -76.985675,
                39.826599
              ],
              [
                -76.9857,
                39.826599
              ],
              [
                -76.9857,
                39.826556
              ]
            ]
          ],
          [
            [
              [
                -76.985555,
                39.826456
              ],
              [
                -76.985555,
                39.826469
              ],
              [
                -76.985574,
                39.826469
              ],
              [
                -76.985574,
                39.826516
              ],
              [
                -76.98556,
                39.826516
              ],
              [
                -76.98556,
                39.826522
              ],
              [
                -76.985684,
                39.826522
              ],
              [
                -76.985684,
                39.826515
              ],
              [
                -76.985735,
                39.826515
              ],
              [
                -76.985735,
                39.826522
              ],
              [
                -76.986031,
                39.826522
              ],
              [
                -76.986031,
                39.826468
              ],
              [
                -76.986023,
                39.826468
              ],
              [
                -76.986023,
                39.826456
              ],
              [
                -76.985678,
                39.826456
              ],
              [
                -76.985678,
                39.826471
              ],
              [
                -76.985662,
                39.826471
              ],
              [
                -76.985662,
                39.826456
              ],
              [
                -76.985555,
                39.826456
              ]
            ]
          ],
          [
            [
              [
                -76.986694,
                39.826771
              ],
              [
                -76.986694,
                39.826752
              ],
              [
                -76.986758,
                39.826752
              ],
              [
                -76.986758,
                39.826713
              ],
              [
                -76.98672,
                39.826713
              ],
              [
                -76.98672,
                39.826693
              ],
              [
                -76.986758,
                39.826693
              ],
              [
                -76.986758,
                39.826673
              ],
              [
                -76.986588,
                39.826673
              ],
              [
                -76.986588,
                39.826732
              ],
              [
                -76.986575,
                39.826732
              ],
              [
                -76.986575,
                39.826693
              ],
              [
                -76.986575,
                39.826658
              ],
              [
                -76.986459,
                39.826658
              ],
              [
                -76.986459,
                39.826727
              ],
              [
                -76.986468,
                39.826727
              ],
              [
                -76.986468,
                39.826732
              ],
              [
                -76.986482,
                39.826732
              ],
              [
                -76.986482,
                39.826752
              ],
              [
                -76.986508,
                39.826752
              ],
              [
                -76.986508,
                39.826732
              ],
              [
                -76.986561,
                39.826732
              ],
              [
                -76.986561,
                39.826752
              ],
              [
                -76.986667,
                39.826752
              ],
              [
                -76.986667,
                39.826771
              ],
              [
                -76.986694,
                39.826771
              ]
            ]
          ],
          [
            [
              [
                -76.986108,
                39.827102
              ],
              [
                -76.986058,
                39.827102
              ],
              [
                -76.986058,
                39.827079
              ],
              [
                -76.986108,
                39.827079
              ],
              [
                -76.986108,
                39.827102
              ]
            ]
          ],
          [
            [
              [
                -76.986058,
                39.826855
              ],
              [
                -76.986058,
                39.82683
              ],
              [
                -76.985858,
                39.82683
              ],
              [
                -76.985858,
                39.826842
              ],
              [
                -76.98583,
                39.826842
              ],
              [
                -76.98583,
                39.826888
              ],
              [
                -76.985858,
                39.826888
              ],
              [
                -76.985858,
                39.827057
              ],
              [
                -76.985886,
                39.827057
              ],
              [
                -76.985886,
                39.827095
              ],
              [
                -76.98583,
                39.827095
              ],
              [
                -76.98583,
                39.827109
              ],
              [
                -76.985832,
                39.827109
              ],
              [
                -76.985832,
                39.827124
              ],
              [
                -76.986028,
                39.827124
              ],
              [
                -76.986028,
                39.827102
              ],
              [
                -76.986037,
                39.827102
              ],
              [
                -76.986037,
                39.826855
              ],
              [
                -76.986058,
                39.826855
              ]
            ]
          ],
          [
            [
              [
                -76.98611,
                39.827124
              ],
              [
                -76.986029,
                39.827124
              ],
              [
                -76.986028,
                39.827124
              ],
              [
                -76.986028,
                39.827102
              ],
              [
                -76.986108,
                39.827102
              ],
              [
                -76.986108,
                39.827079
              ],
              [
                -76.986131,
                39.827079
              ],
              [
                -76.986131,
                39.826928
              ],
              [
                -76.986157,
                39.826928
              ],
              [
                -76.986157,
                39.826904
              ],
              [
                -76.986301,
                39.826904
              ],
              [
                -76.986301,
                39.827066
              ],
              [
                -76.986333,
                39.827066
              ],
              [
                -76.986333,
                39.827081
              ],
              [
                -76.986238,
                39.827081
              ],
              [
                -76.986238,
                39.827102
              ],
              [
                -76.98611,
                39.827102
              ],
              [
                -76.98611,
                39.827124
              ]
            ]
          ],
          [
            [
              [
                -76.986408,
                39.826793
              ],
              [
                -76.986433,
                39.826793
              ],
              [
                -76.986433,
                39.826556
              ],
              [
                -76.986408,
                39.826556
              ],
              [
                -76.986408,
                39.826793
              ]
            ]
          ],
          [
            [
              [
                -76.986294,
                39.826771
              ],
              [
                -76.986252,
                39.826771
              ],
              [
                -76.986252,
                39.826801
              ],
              [
                -76.986294,
                39.826801
              ],
              [
                -76.986294,
                39.826771
              ]
            ]
          ],
          [
            [
              [
                -76.986695,
                39.826771
              ],
              [
                -76.986695,
                39.82679
              ],
              [
                -76.986758,
                39.82679
              ],
              [
                -76.986758,
                39.826752
              ],
              [
                -76.98672,
                39.826752
              ],
              [
                -76.98672,
                39.826771
              ],
              [
                -76.986695,
                39.826771
              ]
            ]
          ],
          [
            [
              [
                -76.986668,
                39.82679
              ],
              [
                -76.986668,
                39.826771
              ],
              [
                -76.986535,
                39.826771
              ],
              [
                -76.986535,
                39.826752
              ],
              [
                -76.986508,
                39.826752
              ],
              [
                -76.986508,
                39.826771
              ],
              [
                -76.986482,
                39.826771
              ],
              [
                -76.986482,
                39.82679
              ],
              [
                -76.986668,
                39.82679
              ]
            ]
          ],
          [
            [
              [
                -76.985886,
                39.827057
              ],
              [
                -76.985858,
                39.827057
              ],
              [
                -76.985858,
                39.826888
              ],
              [
                -76.98583,
                39.826888
              ],
              [
                -76.98583,
                39.827095
              ],
              [
                -76.985886,
                39.827095
              ],
              [
                -76.985886,
                39.827057
              ]
            ]
          ],
          [
            [
              [
                -76.985805,
                39.827051
              ],
              [
                -76.985781,
                39.827051
              ],
              [
                -76.985781,
                39.827015
              ],
              [
                -76.985805,
                39.827015
              ],
              [
                -76.985805,
                39.827051
              ]
            ]
          ],
          [
            [
              [
                -76.986114,
                39.826756
              ],
              [
                -76.986114,
                39.826801
              ],
              [
                -76.986252,
                39.826801
              ],
              [
                -76.986252,
                39.826771
              ],
              [
                -76.986273,
                39.826771
              ],
              [
                -76.986273,
                39.826728
              ],
              [
                -76.986252,
                39.826728
              ],
              [
                -76.986252,
                39.82675
              ],
              [
                -76.986227,
                39.82675
              ],
              [
                -76.986227,
                39.826548
              ],
              [
                -76.986206,
                39.826548
              ],
              [
                -76.986206,
                39.826556
              ],
              [
                -76.986139,
                39.826556
              ],
              [
                -76.986139,
                39.826756
              ],
              [
                -76.986114,
                39.826756
              ]
            ]
          ],
          [
            [
              [
                -76.986618,
                39.826514
              ],
              [
                -76.986618,
                39.826476
              ],
              [
                -76.986589,
                39.826476
              ],
              [
                -76.986589,
                39.826456
              ],
              [
                -76.986751,
                39.826456
              ],
              [
                -76.986751,
                39.826471
              ],
              [
                -76.986766,
                39.826471
              ],
              [
                -76.986766,
                39.826456
              ],
              [
                -76.986782,
                39.826456
              ],
              [
                -76.986782,
                39.826507
              ],
              [
                -76.986751,
                39.826507
              ],
              [
                -76.986751,
                39.826514
              ],
              [
                -76.986618,
                39.826514
              ]
            ]
          ],
          [
            [
              [
                -76.986482,
                39.82681
              ],
              [
                -76.986751,
                39.82681
              ],
              [
                -76.986751,
                39.826805
              ],
              [
                -76.986758,
                39.826805
              ],
              [
                -76.986758,
                39.82679
              ],
              [
                -76.986482,
                39.82679
              ],
              [
                -76.986482,
                39.82681
              ]
            ]
          ],
          [
            [
              [
                -76.986508,
                39.826732
              ],
              [
                -76.986508,
                39.826752
              ],
              [
                -76.986535,
                39.826752
              ],
              [
                -76.986535,
                39.826771
              ],
              [
                -76.986667,
                39.826771
              ],
              [
                -76.986667,
                39.826752
              ],
              [
                -76.986561,
                39.826752
              ],
              [
                -76.986561,
                39.826732
              ],
              [
                -76.986508,
                39.826732
              ]
            ]
          ],
          [
            [
              [
                -76.986575,
                39.826658
              ],
              [
                -76.986575,
                39.826614
              ],
              [
                -76.986588,
                39.826614
              ],
              [
                -76.986588,
                39.826673
              ],
              [
                -76.986758,
                39.826673
              ],
              [
                -76.986758,
                39.826693
              ],
              [
                -76.98672,
                39.826693
              ],
              [
                -76.98672,
                39.826713
              ],
              [
                -76.986758,
                39.826713
              ],
              [
                -76.986758,
                39.826782
              ],
              [
                -76.986782,
                39.826782
              ],
              [
                -76.986782,
                39.826543
              ],
              [
                -76.986751,
                39.826543
              ],
              [
                -76.986751,
                39.826535
              ],
              [
                -76.986459,
                39.826535
              ],
              [
                -76.986459,
                39.826658
              ],
              [
                -76.986575,
                39.826658
              ]
            ]
          ],
          [
            [
              [
                -76.986856,
                39.82703
              ],
              [
                -76.986856,
                39.827091
              ],
              [
                -76.986827,
                39.827091
              ],
              [
                -76.986827,
                39.827077
              ],
              [
                -76.986805,
                39.827077
              ],
              [
                -76.986805,
                39.827076
              ],
              [
                -76.986786,
                39.827076
              ],
              [
                -76.986786,
                39.827023
              ],
              [
                -76.98682,
                39.827023
              ],
              [
                -76.98682,
                39.82703
              ],
              [
                -76.986856,
                39.82703
              ]
            ]
          ],
          [
            [
              [
                -76.986814,
                39.826663
              ],
              [
                -76.986786,
                39.826663
              ],
              [
                -76.986786,
                39.826595
              ],
              [
                -76.986814,
                39.826595
              ],
              [
                -76.986814,
                39.826663
              ]
            ]
          ],
          [
            [
              [
                -76.986814,
                39.826754
              ],
              [
                -76.986786,
                39.826754
              ],
              [
                -76.986786,
                39.826686
              ],
              [
                -76.986814,
                39.826686
              ],
              [
                -76.986814,
                39.826754
              ]
            ]
          ],
          [
            [
              [
                -76.985421,
                39.827058
              ],
              [
                -76.98545,
                39.827058
              ],
              [
                -76.98545,
                39.827016
              ],
              [
                -76.985421,
                39.827016
              ],
              [
                -76.985421,
                39.827058
              ]
            ]
          ],
          [
            [
              [
                -76.986922,
                39.826491
              ],
              [
                -76.986827,
                39.826491
              ],
              [
                -76.986827,
                39.826411
              ],
              [
                -76.986911,
                39.826411
              ],
              [
                -76.986911,
                39.826412
              ],
              [
                -76.986922,
                39.826412
              ],
              [
                -76.986922,
                39.826491
              ]
            ]
          ],
          [
            [
              [
                -76.987116,
                39.827125
              ],
              [
                -76.987116,
                39.82712
              ],
              [
                -76.987126,
                39.82712
              ],
              [
                -76.987126,
                39.827112
              ],
              [
                -76.987127,
                39.827112
              ],
              [
                -76.987127,
                39.827104
              ],
              [
                -76.987108,
                39.827104
              ],
              [
                -76.987108,
                39.827102
              ],
              [
                -76.986857,
                39.827102
              ],
              [
                -76.986857,
                39.827124
              ],
              [
                -76.987,
                39.827124
              ],
              [
                -76.987,
                39.827125
              ],
              [
                -76.987116,
                39.827125
              ]
            ]
          ],
          [
            [
              [
                -76.986786,
                39.827023
              ],
              [
                -76.98682,
                39.827023
              ],
              [
                -76.98682,
                39.82703
              ],
              [
                -76.986856,
                39.82703
              ],
              [
                -76.986856,
                39.827091
              ],
              [
                -76.987108,
                39.827091
              ],
              [
                -76.987108,
                39.82709
              ],
              [
                -76.987127,
                39.82709
              ],
              [
                -76.987127,
                39.827008
              ],
              [
                -76.987126,
                39.827008
              ],
              [
                -76.987126,
                39.826994
              ],
              [
                -76.987127,
                39.826994
              ],
              [
                -76.987127,
                39.82689
              ],
              [
                -76.987126,
                39.82689
              ],
              [
                -76.987126,
                39.826877
              ],
              [
                -76.987127,
                39.826877
              ],
              [
                -76.987127,
                39.826853
              ],
              [
                -76.987071,
                39.826853
              ],
              [
                -76.987071,
                39.826849
              ],
              [
                -76.987036,
                39.826849
              ],
              [
                -76.987036,
                39.826837
              ],
              [
                -76.986824,
                39.826837
              ],
              [
                -76.986824,
                39.826842
              ],
              [
                -76.986786,
                39.826842
              ],
              [
                -76.986786,
                39.827023
              ]
            ]
          ],
          [
            [
              [
                -76.987127,
                39.826778
              ],
              [
                -76.987127,
                39.826773
              ],
              [
                -76.987126,
                39.826773
              ],
              [
                -76.987126,
                39.826759
              ],
              [
                -76.987127,
                39.826759
              ],
              [
                -76.987127,
                39.826656
              ],
              [
                -76.987126,
                39.826656
              ],
              [
                -76.987126,
                39.826642
              ],
              [
                -76.987127,
                39.826642
              ],
              [
                -76.987127,
                39.826538
              ],
              [
                -76.987126,
                39.826538
              ],
              [
                -76.987126,
                39.826524
              ],
              [
                -76.987127,
                39.826524
              ],
              [
                -76.987127,
                39.82646
              ],
              [
                -76.9871,
                39.82646
              ],
              [
                -76.9871,
                39.826437
              ],
              [
                -76.987127,
                39.826437
              ],
              [
                -76.987127,
                39.826421
              ],
              [
                -76.987126,
                39.826421
              ],
              [
                -76.987126,
                39.826412
              ],
              [
                -76.987116,
                39.826412
              ],
              [
                -76.987116,
                39.826411
              ],
              [
                -76.987099,
                39.826411
              ],
              [
                -76.987099,
                39.826427
              ],
              [
                -76.987081,
                39.826427
              ],
              [
                -76.987081,
                39.826411
              ],
              [
                -76.98706,
                39.826411
              ],
              [
                -76.98706,
                39.826412
              ],
              [
                -76.98705,
                39.826412
              ],
              [
                -76.98705,
                39.826517
              ],
              [
                -76.986829,
                39.826517
              ],
              [
                -76.986829,
                39.826543
              ],
              [
                -76.986786,
                39.826543
              ],
              [
                -76.986786,
                39.826595
              ],
              [
                -76.986814,
                39.826595
              ],
              [
                -76.986814,
                39.826663
              ],
              [
                -76.986786,
                39.826663
              ],
              [
                -76.986786,
                39.826686
              ],
              [
                -76.986814,
                39.826686
              ],
              [
                -76.986814,
                39.826754
              ],
              [
                -76.986786,
                39.826754
              ],
              [
                -76.986786,
                39.826803
              ],
              [
                -76.987086,
                39.826803
              ],
              [
                -76.987086,
                39.826778
              ],
              [
                -76.987127,
                39.826778
              ]
            ]
          ],
          [
            [
              [
                -76.985707,
                39.82683
              ],
              [
                -76.985707,
                39.826842
              ],
              [
                -76.985605,
                39.826842
              ],
              [
                -76.985605,
                39.826841
              ],
              [
                -76.985544,
                39.826841
              ],
              [
                -76.985544,
                39.826865
              ],
              [
                -76.985481,
                39.826865
              ],
              [
                -76.985481,
                39.82683
              ],
              [
                -76.985707,
                39.82683
              ]
            ]
          ],
          [
            [
              [
                -76.986058,
                39.82683
              ],
              [
                -76.986058,
                39.826864
              ],
              [
                -76.986107,
                39.826864
              ],
              [
                -76.986107,
                39.826842
              ],
              [
                -76.986157,
                39.826842
              ],
              [
                -76.986157,
                39.82683
              ],
              [
                -76.986058,
                39.82683
              ]
            ]
          ],
          [
            [
              [
                -76.985957,
                39.826801
              ],
              [
                -76.985957,
                39.82676
              ],
              [
                -76.985983,
                39.82676
              ],
              [
                -76.985983,
                39.826761
              ],
              [
                -76.986008,
                39.826761
              ],
              [
                -76.986008,
                39.826801
              ],
              [
                -76.985957,
                39.826801
              ]
            ]
          ],
          [
            [
              [
                -76.98556,
                39.826522
              ],
              [
                -76.98556,
                39.826516
              ],
              [
                -76.985574,
                39.826516
              ],
              [
                -76.985574,
                39.826469
              ],
              [
                -76.985555,
                39.826469
              ],
              [
                -76.985555,
                39.826456
              ],
              [
                -76.985502,
                39.826456
              ],
              [
                -76.985502,
                39.826469
              ],
              [
                -76.985525,
                39.826469
              ],
              [
                -76.985525,
                39.826522
              ],
              [
                -76.98556,
                39.826522
              ]
            ]
          ],
          [
            [
              [
                -76.986618,
                39.826514
              ],
              [
                -76.986618,
                39.826476
              ],
              [
                -76.986589,
                39.826476
              ],
              [
                -76.986589,
                39.826456
              ],
              [
                -76.986482,
                39.826456
              ],
              [
                -76.986482,
                39.826482
              ],
              [
                -76.986463,
                39.826482
              ],
              [
                -76.986463,
                39.826514
              ],
              [
                -76.986618,
                39.826514
              ]
            ]
          ],
          [
            [
              [
                -76.986157,
                39.826842
              ],
              [
                -76.986107,
                39.826842
              ],
              [
                -76.986107,
                39.82695
              ],
              [
                -76.986084,
                39.82695
              ],
              [
                -76.986084,
                39.826864
              ],
              [
                -76.986058,
                39.826864
              ],
              [
                -76.986058,
                39.826855
              ],
              [
                -76.986037,
                39.826855
              ],
              [
                -76.986037,
                39.827102
              ],
              [
                -76.986058,
                39.827102
              ],
              [
                -76.986058,
                39.827079
              ],
              [
                -76.986131,
                39.827079
              ],
              [
                -76.986131,
                39.826928
              ],
              [
                -76.986157,
                39.826928
              ],
              [
                -76.986157,
                39.826842
              ]
            ]
          ],
          [
            [
              [
                -76.986252,
                39.82675
              ],
              [
                -76.986227,
                39.82675
              ],
              [
                -76.986227,
                39.826548
              ],
              [
                -76.986252,
                39.826548
              ],
              [
                -76.986252,
                39.826556
              ],
              [
                -76.986273,
                39.826556
              ],
              [
                -76.986273,
                39.826642
              ],
              [
                -76.986252,
                39.826642
              ],
              [
                -76.986252,
                39.826663
              ],
              [
                -76.986273,
                39.826663
              ],
              [
                -76.986273,
                39.826728
              ],
              [
                -76.986252,
                39.826728
              ],
              [
                -76.986252,
                39.82675
              ]
            ]
          ],
          [
            [
              [
                -76.987127,
                39.826421
              ],
              [
                -76.987126,
                39.826421
              ],
              [
                -76.987126,
                39.826412
              ],
              [
                -76.987116,
                39.826412
              ],
              [
                -76.987116,
                39.826411
              ],
              [
                -76.98706,
                39.826411
              ],
              [
                -76.98706,
                39.826412
              ],
              [
                -76.987043,
                39.826412
              ],
              [
                -76.987043,
                39.826411
              ],
              [
                -76.986928,
                39.826411
              ],
              [
                -76.986928,
                39.826412
              ],
              [
                -76.986911,
                39.826412
              ],
              [
                -76.986911,
                39.826411
              ],
              [
                -76.986795,
                39.826411
              ],
              [
                -76.986795,
                39.826412
              ],
              [
                -76.986785,
                39.826412
              ],
              [
                -76.986785,
                39.826421
              ],
              [
                -76.986784,
                39.826421
              ],
              [
                -76.986784,
                39.826453
              ],
              [
                -76.986786,
                39.826453
              ],
              [
                -76.986786,
                39.827124
              ],
              [
                -76.987,
                39.827124
              ],
              [
                -76.987,
                39.827125
              ],
              [
                -76.987116,
                39.827125
              ],
              [
                -76.987116,
                39.82712
              ],
              [
                -76.987126,
                39.82712
              ],
              [
                -76.987126,
                39.827112
              ],
              [
                -76.987127,
                39.827112
              ],
              [
                -76.987127,
                39.827008
              ],
              [
                -76.987126,
                39.827008
              ],
              [
                -76.987126,
                39.826994
              ],
              [
                -76.987127,
                39.826994
              ],
              [
                -76.987127,
                39.82689
              ],
              [
                -76.987126,
                39.82689
              ],
              [
                -76.987126,
                39.826877
              ],
              [
                -76.987127,
                39.826877
              ],
              [
                -76.987127,
                39.826773
              ],
              [
                -76.987126,
                39.826773
              ],
              [
                -76.987126,
                39.826759
              ],
              [
                -76.987127,
                39.826759
              ],
              [
                -76.987127,
                39.826656
              ],
              [
                -76.987126,
                39.826656
              ],
              [
                -76.987126,
                39.826642
              ],
              [
                -76.987127,
                39.826642
              ],
              [
                -76.987127,
                39.826538
              ],
              [
                -76.987126,
                39.826538
              ],
              [
                -76.987126,
                39.826524
              ],
              [
                -76.987127,
                39.826524
              ],
              [
                -76.987127,
                39.826421
              ]
            ]
          ]
        ]
      },
      "properties": {
        "fill": "#D9E2F6",
        "stroke-width": "0.5",
        "stroke": "#96A3BD",
        "opacity": "0.75"
      }
    },
    {
      "type": "Feature",
      "geometry": {
        "type": "MultiLineString",
        "coordinates": []
      },
      "properties": {
        "stroke-width": "0.5"
      }
    },
    {
      "type": "Feature",
      "geometry": {
        "type": "Point",
        "coordinates": [
          -76.986986,
          39.826396
        ]
      },
      "properties": {
        "type": "P",
        "sub_category": "EntryExit",
        "poi_name": "GARDEN CENTER ENTRANCE",
        "profile": "BASIC INFO",
        "icon_id": "entrance_exit",
        "orientation": 0
      }
    },
    {
      "type": "Feature",
      "geometry": {
        "type": "Point",
        "coordinates": [
          -76.986986,
          39.826427
        ]
      },
      "properties": {
        "type": "P",
        "sub_category": "EntryExit",
        "poi_name": "GARDEN CENTER EXIT",
        "profile": "BASIC INFO",
        "icon_id": "entrance_exit",
        "orientation": 0
      }
    },
    {
      "type": "Feature",
      "geometry": {
        "type": "Point",
        "coordinates": [
          -76.986414,
          39.826381
        ]
      },
      "properties": {
        "type": "P",
        "sub_category": "EntryExit",
        "poi_name": "MAIN ENTRANCE",
        "profile": "BASIC INFO",
        "icon_id": "entrance_exit",
        "orientation": 0
      }
    },
    {
      "type": "Feature",
      "geometry": {
        "type": "Point",
        "coordinates": [
          -76.986025,
          39.826437
        ]
      },
      "properties": {
        "type": "P",
        "sub_category": "Restrooms",
        "poi_name": "MEN/WOMEN’S RESTROOMS",
        "profile": "BASIC INFO",
        "icon_id": "restrooms",
        "orientation": 0
      }
    },
    {
      "type": "Feature",
      "geometry": {
        "type": "Point",
        "coordinates": [
          -76.985988,
          39.826434
        ]
      },
      "properties": {
        "type": "P",
        "sub_category": "Restrooms",
        "poi_name": "UNISEX",
        "profile": "BASIC INFO",
        "icon_id": "restrooms",
        "orientation": 0
      }
    },
    {
      "type": "Feature",
      "geometry": {
        "type": "Point",
        "coordinates": [
          -76.985462,
          39.826441
        ]
      },
      "properties": {
        "type": "P",
        "sub_category": "EntryExit",
        "poi_name": "PRO ENTRANCE",
        "profile": "BASIC INFO",
        "icon_id": "entrance_exit",
        "orientation": 0
      }
    },
    {
      "type": "Feature",
      "geometry": {
        "type": "Point",
        "coordinates": [
          -76.985462,
          39.826477
        ]
      },
      "properties": {
        "type": "P",
        "sub_category": "EntryExit",
        "poi_name": "PRO EXIT",
        "profile": "BASIC INFO",
        "icon_id": "entrance_exit",
        "orientation": 0
      }
    },
    {
      "type": "Feature",
      "geometry": {
        "type": "Point",
        "coordinates": [
          -76.985462,
          39.826513
        ]
      },
      "properties": {
        "type": "P",
        "sub_category": "Checkouts",
        "poi_name": "PRO CHECKOUT",
        "profile": "BASIC INFO",
        "icon_id": "checkouts",
        "orientation": 0
      }
    },
    {
      "type": "Feature",
      "geometry": {
        "type": "Point",
        "coordinates": [
          -76.986389,
          39.826934
        ]
      },
      "properties": {
        "type": "P",
        "sub_category": "ServiceDesks",
        "poi_name": "APPLIANCE DESK",
        "profile": "STORE SERVICES",
        "icon_id": "appliance_desk",
        "orientation": 0
      }
    },
    {
      "type": "Feature",
      "geometry": {
        "type": "Point",
        "coordinates": [
          -76.986213,
          39.82703
        ]
      },
      "properties": {
        "type": "P",
        "sub_category": "ServiceDesks",
        "poi_name": "KITCHEN DESIGN DESK",
        "profile": "STORE SERVICES",
        "icon_id": "kitchen_design_desk",
        "orientation": 0
      }
    },
    {
      "type": "Feature",
      "geometry": {
        "type": "Point",
        "coordinates": [
          -76.985401,
          39.826503
        ]
      },
      "properties": {
        "type": "P",
        "sub_category": "ServiceDesks",
        "poi_name": "PRO SERVICE DESK",
        "profile": "BASIC INFO",
        "icon_id": "pro_service_desk",
        "orientation": 0
      }
    },
    {
      "type": "Feature",
      "geometry": {
        "type": "Point",
        "coordinates": [
          -76.985778,
          39.826842
        ]
      },
      "properties": {
        "type": "P",
        "sub_category": "ServiceDesks",
        "poi_name": "MILLWORK DESK",
        "profile": "STORE SERVICES",
        "icon_id": "millwork_desk",
        "orientation": 0
      }
    },
    {
      "type": "Feature",
      "geometry": {
        "type": "Point",
        "coordinates": [
          -76.986181,
          39.826767
        ]
      },
      "properties": {
        "type": "P",
        "sub_category": "ServiceDesks",
        "poi_name": "HOME DECOR DESK",
        "profile": "STORE SERVICES",
        "icon_id": "home_décor_desk",
        "orientation": 0
      }
    },
    {
      "type": "Feature",
      "geometry": {
        "type": "Point",
        "coordinates": [
          -76.985423,
          39.827075
        ]
      },
      "properties": {
        "type": "P",
        "sub_category": "Services",
        "poi_name": "WOOD CUTTING",
        "profile": "STORE SERVICES",
        "icon_id": "wood_cutting",
        "orientation": 0
      }
    },
    {
      "type": "Feature",
      "geometry": {
        "type": "Point",
        "coordinates": [
          -76.985867,
          39.826783
        ]
      },
      "properties": {
        "type": "P",
        "sub_category": "Services",
        "poi_name": "WIRE CUTTING",
        "profile": "STORE SERVICES",
        "icon_id": "wire_cutting",
        "orientation": 0
      }
    },
    {
      "type": "Feature",
      "geometry": {
        "type": "Point",
        "coordinates": [
          -76.985795,
          39.826567
        ]
      },
      "properties": {
        "type": "P",
        "sub_category": "Services",
        "poi_name": "KEY CUTTING",
        "profile": "STORE SERVICES",
        "icon_id": "key_copying",
        "orientation": 0
      }
    },
    {
      "type": "Feature",
      "geometry": {
        "type": "Point",
        "coordinates": [
          -76.985752,
          39.826609
        ]
      },
      "properties": {
        "type": "P",
        "sub_category": "Services",
        "poi_name": "GLASS CUTTING",
        "profile": "STORE SERVICES",
        "icon_id": "glass_cutting",
        "orientation": 0
      }
    },
    {
      "type": "Feature",
      "geometry": {
        "type": "Point",
        "coordinates": [
          -76.985786,
          39.826641
        ]
      },
      "properties": {
        "type": "P",
        "sub_category": "Services",
        "poi_name": "CHAIN AND ROPE CUTTING",
        "profile": "STORE SERVICES",
        "icon_id": "chain_rope_cutting",
        "orientation": 0
      }
    },
    {
      "type": "Feature",
      "geometry": {
        "type": "Point",
        "coordinates": [
          -76.986178,
          39.826696
        ]
      },
      "properties": {
        "type": "P",
        "sub_category": "Services",
        "poi_name": "BLIND CUTTING",
        "profile": "STORE SERVICES",
        "icon_id": "blind_cutting",
        "orientation": 0
      }
    },
    {
      "type": "Feature",
      "geometry": {
        "type": "Point",
        "coordinates": [
          -76.985999,
          39.827103
        ]
      },
      "properties": {
        "type": "P",
        "sub_category": "Services",
        "poi_name": "CARPET CUTTING",
        "profile": "STORE SERVICES",
        "icon_id": "carpet_cutting",
        "orientation": 0
      }
    },
    {
      "type": "Feature",
      "geometry": {
        "type": "Point",
        "coordinates": [
          -76.986151,
          39.826459
        ]
      },
      "properties": {
        "type": "P",
        "sub_category": "EntryExit",
        "poi_name": "MAIN EXIT",
        "profile": "BASIC INFO",
        "icon_id": "entrance_exit",
        "orientation": 0
      }
    },
    {
      "type": "Feature",
      "geometry": {
        "type": "Point",
        "coordinates": [
          -76.986399,
          39.826501
        ]
      },
      "properties": {
        "type": "P",
        "sub_category": "ServiceDesks",
        "poi_name": "CUSTOMER SERVICE",
        "profile": "BASIC INFO",
        "icon_id": "customer_service_desk",
        "orientation": 0
      }
    },
    {
      "type": "Feature",
      "geometry": {
        "type": "Point",
        "coordinates": [
          -76.986399,
          39.826512
        ]
      },
      "properties": {
        "type": "P",
        "sub_category": "Services",
        "poi_name": "RETURNS",
        "profile": "BASIC INFO",
        "icon_id": "returns",
        "orientation": 0
      }
    },
    {
      "type": "Feature",
      "geometry": {
        "type": "Point",
        "coordinates": [
          -76.986302,
          39.826464
        ]
      },
      "properties": {
        "type": "P",
        "sub_category": "Services",
        "poi_name": "PRODUCT PICK-UP",
        "profile": "BASIC INFO",
        "icon_id": "store_pick_up",
        "orientation": 0
      }
    },
    {
      "type": "Feature",
      "geometry": {
        "type": "Point",
        "coordinates": [
          -76.98633,
          39.826464
        ]
      },
      "properties": {
        "type": "P",
        "sub_category": "Services",
        "poi_name": "PICKUP LOCKER",
        "profile": "BASIC INFO",
        "icon_id": "pickup_lockers",
        "orientation": 0
      }
    },
    {
      "type": "Feature",
      "geometry": {
        "type": "Point",
        "coordinates": [
          -76.986216,
          39.826538
        ]
      },
      "properties": {
        "type": "P",
        "sub_category": "Checkouts",
        "poi_name": "MAIN CHECKOUT",
        "profile": "BASIC INFO",
        "icon_id": "checkouts",
        "orientation": 0
      }
    },
    {
      "type": "Feature",
      "geometry": {
        "type": "Point",
        "coordinates": [
          -76.986145,
          39.826538
        ]
      },
      "properties": {
        "type": "P",
        "sub_category": "Checkouts",
        "poi_name": "MAIN SELF-CHECKOUT",
        "profile": "BASIC INFO",
        "icon_id": "checkouts",
        "orientation": 0
      }
    },
    {
      "type": "Feature",
      "geometry": {
        "type": "Point",
        "coordinates": [
          -76.986986,
          39.826492
        ]
      },
      "properties": {
        "type": "P",
        "sub_category": "Checkouts",
        "poi_name": "GARDEN CENTER CHECKOUT",
        "profile": "BASIC INFO",
        "icon_id": "checkouts",
        "orientation": 0
      }
    },
    {
      "type": "Feature",
      "geometry": {
        "type": "Point",
        "coordinates": [
          -76.985937,
          39.826874
        ]
      },
      "properties": {
        "type": "P",
        "sub_category": "ServiceDesks",
        "poi_name": "FLOORING DESK",
        "profile": "STORE SERVICES",
        "icon_id": "flooring_desk",
        "orientation": 0
      }
    },
    {
      "type": "Feature",
      "geometry": {
        "type": "Point",
        "coordinates": [
          -76.986296,
          39.827184
        ]
      },
      "properties": {
        "type": "P",
        "sub_category": "ServiceDesks",
        "poi_name": "RECEIVING DESK",
        "profile": "BASIC INFO",
        "icon_id": "receiving_desk",
        "orientation": 0
      }
    },
    {
      "type": "Feature",
      "geometry": {
        "type": "Point",
        "coordinates": [
          -76.985544,
          39.826982
        ]
      },
      "properties": {
        "name": "LUMBER",
        "orientation": 0
      }
    },
    {
      "type": "Feature",
      "geometry": {
        "type": "Point",
        "coordinates": [
          -76.985513,
          39.826679
        ]
      },
      "properties": {
        "name": "LUMBER",
        "orientation": 0
      }
    },
    {
      "type": "Feature",
      "geometry": {
        "type": "Point",
        "coordinates": [
          -76.985436,
          39.826929
        ]
      },
      "properties": {
        "name": "LUMBER",
        "orientation": 0
      }
    },
    {
      "type": "Feature",
      "geometry": {
        "type": "Point",
        "coordinates": [
          -76.985401,
          39.827091
        ]
      },
      "properties": {
        "name": "LUMBER",
        "orientation": 0
      }
    },
    {
      "type": "Feature",
      "geometry": {
        "type": "Point",
        "coordinates": [
          -76.985424,
          39.826669
        ]
      },
      "properties": {
        "name": "LUMBER",
        "orientation": 0
      }
    },
    {
      "type": "Feature",
      "geometry": {
        "type": "Point",
        "coordinates": [
          -76.985527,
          39.826902
        ]
      },
      "properties": {
        "name": "BUILDING MATERIALS",
        "orientation": 0
      }
    },
    {
      "type": "Feature",
      "geometry": {
        "type": "Point",
        "coordinates": [
          -76.985578,
          39.826674
        ]
      },
      "properties": {
        "name": "BUILDING MATERIALS",
        "orientation": 0
      }
    },
    {
      "type": "Feature",
      "geometry": {
        "type": "Point",
        "coordinates": [
          -76.985401,
          39.8268
        ]
      },
      "properties": {
        "name": "BUILDING MATERIALS",
        "orientation": 0
      }
    },
    {
      "type": "Feature",
      "geometry": {
        "type": "Point",
        "coordinates": [
          -76.985704,
          39.826977
        ]
      },
      "properties": {
        "name": "MILLWORK",
        "orientation": 0
      }
    },
    {
      "type": "Feature",
      "geometry": {
        "type": "Point",
        "coordinates": [
          -76.986023,
          39.826678
        ]
      },
      "properties": {
        "name": "LIGHTING",
        "orientation": 0
      }
    },
    {
      "type": "Feature",
      "geometry": {
        "type": "Point",
        "coordinates": [
          -76.985883,
          39.826675
        ]
      },
      "properties": {
        "name": "ROUGH ELECTRICAL",
        "orientation": 0
      }
    },
    {
      "type": "Feature",
      "geometry": {
        "type": "Point",
        "coordinates": [
          -76.986591,
          39.826913
        ]
      },
      "properties": {
        "name": "FASHION PLUMBING",
        "orientation": 0
      }
    },
    {
      "type": "Feature",
      "geometry": {
        "type": "Point",
        "coordinates": [
          -76.986769,
          39.826918
        ]
      },
      "properties": {
        "name": "FASHION PLUMBING",
        "orientation": 0
      }
    },
    {
      "type": "Feature",
      "geometry": {
        "type": "Point",
        "coordinates": [
          -76.986769,
          39.827035
        ]
      },
      "properties": {
        "name": "ROUGH PLUMBING",
        "orientation": 0
      }
    },
    {
      "type": "Feature",
      "geometry": {
        "type": "Point",
        "coordinates": [
          -76.986718,
          39.827106
        ]
      },
      "properties": {
        "name": "ROUGH PLUMBING",
        "orientation": 0
      }
    },
    {
      "type": "Feature",
      "geometry": {
        "type": "Point",
        "coordinates": [
          -76.986531,
          39.827064
        ]
      },
      "properties": {
        "name": "ROUGH PLUMBING",
        "orientation": 0
      }
    },
    {
      "type": "Feature",
      "geometry": {
        "type": "Point",
        "coordinates": [
          -76.986822,
          39.827113
        ]
      },
      "properties": {
        "name": "ROUGH PLUMBING",
        "orientation": 0
      }
    },
    {
      "type": "Feature",
      "geometry": {
        "type": "Point",
        "coordinates": [
          -76.986282,
          39.826977
        ]
      },
      "properties": {
        "name": "APPLIANCES",
        "orientation": 0
      }
    },
    {
      "type": "Feature",
      "geometry": {
        "type": "Point",
        "coordinates": [
          -76.986096,
          39.826907
        ]
      },
      "properties": {
        "name": "APPLIANCES",
        "orientation": 0
      }
    },
    {
      "type": "Feature",
      "geometry": {
        "type": "Point",
        "coordinates": [
          -76.985755,
          39.826671
        ]
      },
      "properties": {
        "name": "HARDWARE",
        "orientation": 0
      }
    },
    {
      "type": "Feature",
      "geometry": {
        "type": "Point",
        "coordinates": [
          -76.985919,
          39.826771
        ]
      },
      "properties": {
        "name": "HARDWARE",
        "orientation": 0
      }
    },
    {
      "type": "Feature",
      "geometry": {
        "type": "Point",
        "coordinates": [
          -76.986341,
          39.826671
        ]
      },
      "properties": {
        "name": "PAINT",
        "orientation": 0
      }
    },
    {
      "type": "Feature",
      "geometry": {
        "type": "Point",
        "coordinates": [
          -76.985634,
          39.826764
        ]
      },
      "properties": {
        "name": "TOOLS",
        "orientation": 0
      }
    },
    {
      "type": "Feature",
      "geometry": {
        "type": "Point",
        "coordinates": [
          -76.985674,
          39.826578
        ]
      },
      "properties": {
        "name": "TOOLS",
        "orientation": 0
      }
    },
    {
      "type": "Feature",
      "geometry": {
        "type": "Point",
        "coordinates": [
          -76.985793,
          39.826489
        ]
      },
      "properties": {
        "name": "TOOLS",
        "orientation": 0
      }
    },
    {
      "type": "Feature",
      "geometry": {
        "type": "Point",
        "coordinates": [
          -76.986609,
          39.826714
        ]
      },
      "properties": {
        "name": "OUTDOOR POWER EQUIPMENT",
        "orientation": 0
      }
    },
    {
      "type": "Feature",
      "geometry": {
        "type": "Point",
        "coordinates": [
          -76.986083,
          39.82709
        ]
      },
      "properties": {
        "name": "FLOORING",
        "orientation": 0
      }
    },
    {
      "type": "Feature",
      "geometry": {
        "type": "Point",
        "coordinates": [
          -76.985944,
          39.826977
        ]
      },
      "properties": {
        "name": "FLOORING",
        "orientation": 0
      }
    },
    {
      "type": "Feature",
      "geometry": {
        "type": "Point",
        "coordinates": [
          -76.986181,
          39.827014
        ]
      },
      "properties": {
        "name": "CABINETS",
        "orientation": 0
      }
    },
    {
      "type": "Feature",
      "geometry": {
        "type": "Point",
        "coordinates": [
          -76.98642,
          39.826674
        ]
      },
      "properties": {
        "name": "CLEANING",
        "orientation": 0
      }
    },
    {
      "type": "Feature",
      "geometry": {
        "type": "Point",
        "coordinates": [
          -76.986273,
          39.826786
        ]
      },
      "properties": {
        "name": "CLEANING",
        "orientation": 0
      }
    },
    {
      "type": "Feature",
      "geometry": {
        "type": "Point",
        "coordinates": [
          -76.986727,
          39.826771
        ]
      },
      "properties": {
        "name": "CLEANING",
        "orientation": 0
      }
    },
    {
      "type": "Feature",
      "geometry": {
        "type": "Point",
        "coordinates": [
          -76.986575,
          39.826771
        ]
      },
      "properties": {
        "name": "CLEANING",
        "orientation": 0
      }
    },
    {
      "type": "Feature",
      "geometry": {
        "type": "Point",
        "coordinates": [
          -76.985858,
          39.826991
        ]
      },
      "properties": {
        "name": "HOME DECOR",
        "orientation": 0
      }
    },
    {
      "type": "Feature",
      "geometry": {
        "type": "Point",
        "coordinates": [
          -76.985793,
          39.827033
        ]
      },
      "properties": {
        "name": "HOME DECOR",
        "orientation": 0
      }
    },
    {
      "type": "Feature",
      "geometry": {
        "type": "Point",
        "coordinates": [
          -76.986193,
          39.826674
        ]
      },
      "properties": {
        "name": "HOME DECOR",
        "orientation": 0
      }
    },
    {
      "type": "Feature",
      "geometry": {
        "type": "Point",
        "coordinates": [
          -76.986686,
          39.826485
        ]
      },
      "properties": {
        "name": "INSIDE LAWN AND GARDEN",
        "orientation": 0
      }
    },
    {
      "type": "Feature",
      "geometry": {
        "type": "Point",
        "coordinates": [
          -76.986621,
          39.8268
        ]
      },
      "properties": {
        "name": "INSIDE LAWN AND GARDEN",
        "orientation": 0
      }
    },
    {
      "type": "Feature",
      "geometry": {
        "type": "Point",
        "coordinates": [
          -76.986588,
          39.826752
        ]
      },
      "properties": {
        "name": "INSIDE LAWN AND GARDEN",
        "orientation": 0
      }
    },
    {
      "type": "Feature",
      "geometry": {
        "type": "Point",
        "coordinates": [
          -76.986621,
          39.826658
        ]
      },
      "properties": {
        "name": "INSIDE LAWN AND GARDEN",
        "orientation": 0
      }
    },
    {
      "type": "Feature",
      "geometry": {
        "type": "Point",
        "coordinates": [
          -76.986821,
          39.827057
        ]
      },
      "properties": {
        "name": "INSIDE LAWN AND GARDEN",
        "orientation": 0
      }
    },
    {
      "type": "Feature",
      "geometry": {
        "type": "Point",
        "coordinates": [
          -76.9868,
          39.826629
        ]
      },
      "properties": {
        "name": "INSIDE LAWN AND GARDEN",
        "orientation": 0
      }
    },
    {
      "type": "Feature",
      "geometry": {
        "type": "Point",
        "coordinates": [
          -76.9868,
          39.82672
        ]
      },
      "properties": {
        "name": "INSIDE LAWN AND GARDEN",
        "orientation": 0
      }
    },
    {
      "type": "Feature",
      "geometry": {
        "type": "Point",
        "coordinates": [
          -76.985436,
          39.827037
        ]
      },
      "properties": {
        "name": "OUTSIDE LAWN AND GARDEN",
        "orientation": 0
      }
    },
    {
      "type": "Feature",
      "geometry": {
        "type": "Point",
        "coordinates": [
          -76.986874,
          39.826451
        ]
      },
      "properties": {
        "name": "OUTSIDE LAWN AND GARDEN",
        "orientation": 0
      }
    },
    {
      "type": "Feature",
      "geometry": {
        "type": "Point",
        "coordinates": [
          -76.986992,
          39.827113
        ]
      },
      "properties": {
        "name": "OUTSIDE LAWN AND GARDEN",
        "orientation": 0
      }
    },
    {
      "type": "Feature",
      "geometry": {
        "type": "Point",
        "coordinates": [
          -76.986957,
          39.826964
        ]
      },
      "properties": {
        "name": "OUTSIDE LAWN AND GARDEN",
        "orientation": 0
      }
    },
    {
      "type": "Feature",
      "geometry": {
        "type": "Point",
        "coordinates": [
          -76.986957,
          39.826607
        ]
      },
      "properties": {
        "name": "OUTSIDE LAWN AND GARDEN",
        "orientation": 0
      }
    },
    {
      "type": "Feature",
      "geometry": {
        "type": "Point",
        "coordinates": [
          -76.986097,
          39.826972
        ]
      },
      "properties": {
        "name": "STORAGE",
        "orientation": 0
      }
    },
    {
      "type": "Feature",
      "geometry": {
        "type": "Point",
        "coordinates": [
          -76.98625,
          39.826649
        ]
      },
      "properties": {
        "name": "STORAGE",
        "orientation": 0
      }
    },
    {
      "type": "Feature",
      "geometry": {
        "type": "Point",
        "coordinates": [
          -76.986956,
          39.826768
        ]
      },
      "properties": {
        "name": "GARDEN CENTER",
        "orientation": 0
      }
    }
  ]
}