{
  "type": "FeatureCollection",
  "features": [
    {
      "type": "Feature",
      "geometry": {
        "type": "MultiPolygon",
        "coordinates": [
          [
            [
              [
                -76.986999,
                39.826787
              ],
              [
                -76.986936,
                39.826787
              ],
              [
                -76.986936,
                39.826553
              ],
              [
                -76.986999,
                39.826553
              ],
              [
                -76.986999,
                39.826787
              ]
            ]
          ],
          [
            [
              [
                -76.986878,
                39.826825
              ],
              [
                -76.986937,
                39.826825
              ],
              [
                -76.986937,
                39.826951
              ],
              [
                -76.986972,
                39.826951
              ],
              [
                -76.986972,
                39.826828
              ],
              [
                -76.986999,
                39.826828
              ],
              [
                -76.986999,
                39.827071
              ],
              [
                -76.986975,
                39.827071
              ],
              [
                -76.986975,
                39.827081
              ],
              [
                -76.98696,
                39.827081
              ],
              [
                -76.98696,
                39.827096
              ],
              [
                -76.986875,
                39.827096
              ],
              [
                -76.986875,
                39.827066
              ],
              [
                -76.986937,
                39.827066
              ],
              [
                -76.986937,
                39.827043
              ],
              [
                -76.986878,
                39.827043
              ],
              [
                -76.986878,
                39.826999
              ],
              [
                -76.986903,
                39.826999
              ],
              [
                -76.986903,
                39.826847
              ],
              [
                -76.986878,
                39.826847
              ],
              [
                -76.986878,
                39.826825
              ]
            ]
          ],
          [
            [
              [
                -76.98709,
                39.826544
              ],
              [
                -76.98709,
                39.826558
              ],
              [
                -76.987057,
                39.826558
              ],
              [
                -76.987057,
                39.826776
              ],
              [
                -76.987029,
                39.826776
              ],
              [
                -76.987029,
                39.826619
              ],
              [
                -76.987018,
                39.826619
              ],
              [
                -76.987018,
                39.826558
              ],
              [
                -76.98703,
                39.826558
              ],
              [
                -76.98703,
                39.826544
              ],
              [
                -76.98709,
                39.826544
              ]
            ]
          ],
          [
            [
              [
                -76.987029,
                39.826826
              ],
              [
                -76.987057,
                39.826826
              ],
              [
                -76.987057,
                39.827033
              ],
              [
                -76.98709,
                39.827033
              ],
              [
                -76.98709,
                39.827081
              ],
              [
                -76.987125,
                39.827081
              ],
              [
                -76.987125,
                39.827096
              ],
              [
                -76.987051,
                39.827096
              ],
              [
                -76.987051,
                39.827071
              ],
              [
                -76.987029,
                39.827071
              ],
              [
                -76.987029,
                39.826826
              ]
            ]
          ],
          [
            [
              [
                -76.986835,
                39.826551
              ],
              [
                -76.986936,
                39.826551
              ],
              [
                -76.986936,
                39.826544
              ],
              [
                -76.986999,
                39.826544
              ],
              [
                -76.986999,
                39.826553
              ],
              [
                -76.986936,
                39.826553
              ],
              [
                -76.986936,
                39.826777
              ],
              [
                -76.986889,
                39.826777
              ],
              [
                -76.986889,
                39.826787
              ],
              [
                -76.986863,
                39.826787
              ],
              [
                -76.986863,
                39.82678
              ],
              [
                -76.98681,
                39.82678
              ],
              [
                -76.98681,
                39.826605
              ],
              [
                -76.986835,
                39.826605
              ],
              [
                -76.986835,
                39.826551
              ]
            ]
          ],
          [
            [
              [
                -76.986478,
                39.827096
              ],
              [
                -76.986442,
                39.827096
              ],
              [
                -76.986442,
                39.827071
              ],
              [
                -76.986478,
                39.827071
              ],
              [
                -76.986478,
                39.827096
              ]
            ]
          ],
          [
            [
              [
                -76.986972,
                39.826828
              ],
              [
                -76.986972,
                39.826951
              ],
              [
                -76.986937,
                39.826951
              ],
              [
                -76.986937,
                39.826828
              ],
              [
                -76.986972,
                39.826828
              ]
            ]
          ],
          [
            [
              [
                -76.987125,
                39.827081
              ],
              [
                -76.987125,
                39.826499
              ],
              [
                -76.98709,
                39.826499
              ],
              [
                -76.98709,
                39.826558
              ],
              [
                -76.987057,
                39.826558
              ],
              [
                -76.987057,
                39.826776
              ],
              [
                -76.987029,
                39.826776
              ],
              [
                -76.987029,
                39.826786
              ],
              [
                -76.98709,
                39.826786
              ],
              [
                -76.98709,
                39.826826
              ],
              [
                -76.987057,
                39.826826
              ],
              [
                -76.987057,
                39.827033
              ],
              [
                -76.98709,
                39.827033
              ],
              [
                -76.98709,
                39.827081
              ],
              [
                -76.987125,
                39.827081
              ]
            ]
          ],
          [
            [
              [
                -76.986656,
                39.826825
              ],
              [
                -76.986681,
                39.826825
              ],
              [
                -76.986681,
                39.826815
              ],
              [
                -76.986778,
                39.826815
              ],
              [
                -76.986778,
                39.826825
              ],
              [
                -76.986878,
                39.826825
              ],
              [
                -76.986878,
                39.826847
              ],
              [
                -76.986903,
                39.826847
              ],
              [
                -76.986903,
                39.826999
              ],
              [
                -76.986878,
                39.826999
              ],
              [
                -76.986878,
                39.827043
              ],
              [
                -76.986937,
                39.827043
              ],
              [
                -76.986937,
                39.827066
              ],
              [
                -76.986875,
                39.827066
              ],
              [
                -76.986875,
                39.827096
              ],
              [
                -76.986671,
                39.827096
              ],
              [
                -76.986671,
                39.827081
              ],
              [
                -76.986656,
                39.827081
              ],
              [
                -76.986656,
                39.827067
              ],
              [
                -76.986681,
                39.827067
              ],
              [
                -76.986681,
                39.827043
              ],
              [
                -76.986656,
                39.827043
              ],
              [
                -76.986656,
                39.826825
              ]
            ]
          ],
          [
            [
              [
                -76.986372,
                39.826551
              ],
              [
                -76.986445,
                39.826551
              ],
              [
                -76.986445,
                39.826555
              ],
              [
                -76.986541,
                39.826555
              ],
              [
                -76.986541,
                39.826551
              ],
              [
                -76.986565,
                39.826551
              ],
              [
                -76.986565,
                39.82678
              ],
              [
                -76.986541,
                39.82678
              ],
              [
                -76.986541,
                39.826747
              ],
              [
                -76.986493,
                39.826747
              ],
              [
                -76.986493,
                39.826779
              ],
              [
                -76.986445,
                39.826779
              ],
              [
                -76.986445,
                39.826787
              ],
              [
                -76.986396,
                39.826787
              ],
              [
                -76.986396,
                39.826738
              ],
              [
                -76.986372,
                39.826738
              ],
              [
                -76.986372,
                39.826551
              ]
            ]
          ],
          [
            [
              [
                -76.986565,
                39.826551
              ],
              [
                -76.986589,
                39.826551
              ],
              [
                -76.986589,
                39.826593
              ],
              [
                -76.986612,
                39.826593
              ],
              [
                -76.986612,
                39.826551
              ],
              [
                -76.986657,
                39.826551
              ],
              [
                -76.986657,
                39.82678
              ],
              [
                -76.986565,
                39.82678
              ],
              [
                -76.986565,
                39.826551
              ]
            ]
          ],
          [
            [
              [
                -76.985711,
                39.826818
              ],
              [
                -76.985737,
                39.826818
              ],
              [
                -76.985737,
                39.826917
              ],
              [
                -76.985711,
                39.826917
              ],
              [
                -76.985711,
                39.826818
              ]
            ]
          ],
          [
            [
              [
                -76.985764,
                39.826805
              ],
              [
                -76.986046,
                39.826805
              ],
              [
                -76.986046,
                39.826925
              ],
              [
                -76.986037,
                39.826925
              ],
              [
                -76.986037,
                39.826981
              ],
              [
                -76.985764,
                39.826981
              ],
              [
                -76.985764,
                39.826805
              ]
            ]
          ],
          [
            [
              [
                -76.986218,
                39.826815
              ],
              [
                -76.986286,
                39.826815
              ],
              [
                -76.986286,
                39.826885
              ],
              [
                -76.986218,
                39.826885
              ],
              [
                -76.986218,
                39.826815
              ]
            ]
          ],
          [
            [
              [
                -76.985737,
                39.826917
              ],
              [
                -76.985711,
                39.826917
              ],
              [
                -76.985711,
                39.827071
              ],
              [
                -76.985737,
                39.827071
              ],
              [
                -76.985737,
                39.826917
              ]
            ]
          ],
          [
            [
              [
                -76.98586,
                39.827075
              ],
              [
                -76.98586,
                39.827096
              ],
              [
                -76.985711,
                39.827096
              ],
              [
                -76.985711,
                39.827083
              ],
              [
                -76.98573,
                39.827083
              ],
              [
                -76.98573,
                39.827075
              ],
              [
                -76.98586,
                39.827075
              ]
            ]
          ],
          [
            [
              [
                -76.985764,
                39.827064
              ],
              [
                -76.985897,
                39.827064
              ],
              [
                -76.985897,
                39.827096
              ],
              [
                -76.986061,
                39.827096
              ],
              [
                -76.986061,
                39.827071
              ],
              [
                -76.986038,
                39.827071
              ],
              [
                -76.986038,
                39.827029
              ],
              [
                -76.986037,
                39.827029
              ],
              [
                -76.986037,
                39.826981
              ],
              [
                -76.985764,
                39.826981
              ],
              [
                -76.985764,
                39.827064
              ]
            ]
          ],
          [
            [
              [
                -76.986046,
                39.826815
              ],
              [
                -76.986218,
                39.826815
              ],
              [
                -76.986218,
                39.826885
              ],
              [
                -76.986198,
                39.826885
              ],
              [
                -76.986198,
                39.826958
              ],
              [
                -76.986161,
                39.826958
              ],
              [
                -76.986161,
                39.827071
              ],
              [
                -76.986181,
                39.827071
              ],
              [
                -76.986181,
                39.827056
              ],
              [
                -76.986233,
                39.827056
              ],
              [
                -76.986233,
                39.827071
              ],
              [
                -76.986251,
                39.827071
              ],
              [
                -76.986251,
                39.827096
              ],
              [
                -76.986061,
                39.827096
              ],
              [
                -76.986061,
                39.827071
              ],
              [
                -76.986046,
                39.827071
              ],
              [
                -76.986046,
                39.826925
              ],
              [
                -76.986046,
                39.826815
              ]
            ]
          ],
          [
            [
              [
                -76.986361,
                39.826825
              ],
              [
                -76.986336,
                39.826825
              ],
              [
                -76.986336,
                39.826815
              ],
              [
                -76.986286,
                39.826815
              ],
              [
                -76.986286,
                39.826824
              ],
              [
                -76.986311,
                39.826824
              ],
              [
                -76.986311,
                39.827001
              ],
              [
                -76.986336,
                39.827001
              ],
              [
                -76.986336,
                39.82695
              ],
              [
                -76.986361,
                39.82695
              ],
              [
                -76.986361,
                39.826825
              ]
            ]
          ],
          [
            [
              [
                -76.986589,
                39.826593
              ],
              [
                -76.986612,
                39.826593
              ],
              [
                -76.986612,
                39.826551
              ],
              [
                -76.986589,
                39.826551
              ],
              [
                -76.986589,
                39.826593
              ]
            ]
          ],
          [
            [
              [
                -76.986657,
                39.826551
              ],
              [
                -76.986786,
                39.826551
              ],
              [
                -76.986786,
                39.826634
              ],
              [
                -76.98681,
                39.826634
              ],
              [
                -76.98681,
                39.82678
              ],
              [
                -76.986657,
                39.82678
              ],
              [
                -76.986657,
                39.826551
              ]
            ]
          ],
          [
            [
              [
                -76.986108,
                39.826551
              ],
              [
                -76.986131,
                39.826551
              ],
              [
                -76.986131,
                39.826544
              ],
              [
                -76.986223,
                39.826544
              ],
              [
                -76.986223,
                39.826551
              ],
              [
                -76.986244,
                39.826551
              ],
              [
                -76.986244,
                39.826717
              ],
              [
                -76.986264,
                39.826717
              ],
              [
                -76.986264,
                39.826779
              ],
              [
                -76.986108,
                39.826779
              ],
              [
                -76.986108,
                39.826551
              ]
            ]
          ],
          [
            [
              [
                -76.98647,
                39.826518
              ],
              [
                -76.986781,
                39.826518
              ],
              [
                -76.986781,
                39.826512
              ],
              [
                -76.986831,
                39.826512
              ],
              [
                -76.986831,
                39.826518
              ],
              [
                -76.986922,
                39.826518
              ],
              [
                -76.986922,
                39.826512
              ],
              [
                -76.986908,
                39.826512
              ],
              [
                -76.986908,
                39.826467
              ],
              [
                -76.9869,
                39.826467
              ],
              [
                -76.9869,
                39.826455
              ],
              [
                -76.986822,
                39.826455
              ],
              [
                -76.986822,
                39.82647
              ],
              [
                -76.986807,
                39.82647
              ],
              [
                -76.986807,
                39.826455
              ],
              [
                -76.98647,
                39.826455
              ],
              [
                -76.98647,
                39.826518
              ]
            ]
          ],
          [
            [
              [
                -76.986786,
                39.826634
              ],
              [
                -76.98681,
                39.826634
              ],
              [
                -76.98681,
                39.826605
              ],
              [
                -76.986835,
                39.826605
              ],
              [
                -76.986835,
                39.826551
              ],
              [
                -76.986786,
                39.826551
              ],
              [
                -76.986786,
                39.826634
              ]
            ]
          ],
          [
            [
              [
                -76.986058,
                39.826679
              ],
              [
                -76.986058,
                39.826719
              ],
              [
                -76.986021,
                39.826719
              ],
              [
                -76.986021,
                39.826738
              ],
              [
                -76.985839,
                39.826738
              ],
              [
                -76.985839,
                39.826756
              ],
              [
                -76.985813,
                39.826756
              ],
              [
                -76.985813,
                39.826738
              ],
              [
                -76.985761,
                39.826738
              ],
              [
                -76.985761,
                39.826719
              ],
              [
                -76.985735,
                39.826719
              ],
              [
                -76.985735,
                39.826682
              ],
              [
                -76.985761,
                39.826682
              ],
              [
                -76.985761,
                39.826663
              ],
              [
                -76.985917,
                39.826663
              ],
              [
                -76.985917,
                39.826719
              ],
              [
                -76.98593,
                39.826719
              ],
              [
                -76.98593,
                39.826679
              ],
              [
                -76.986058,
                39.826679
              ]
            ]
          ],
          [
            [
              [
                -76.986451,
                39.82688
              ],
              [
                -76.986475,
                39.82688
              ],
              [
                -76.986475,
                39.826815
              ],
              [
                -76.98663,
                39.826815
              ],
              [
                -76.98663,
                39.826825
              ],
              [
                -76.986656,
                39.826825
              ],
              [
                -76.986656,
                39.827043
              ],
              [
                -76.98663,
                39.827043
              ],
              [
                -76.986631,
                39.827067
              ],
              [
                -76.986636,
                39.827067
              ],
              [
                -76.986656,
                39.827067
              ],
              [
                -76.986656,
                39.827096
              ],
              [
                -76.986388,
                39.827096
              ],
              [
                -76.986388,
                39.827074
              ],
              [
                -76.986431,
                39.827074
              ],
              [
                -76.986431,
                39.827043
              ],
              [
                -76.986451,
                39.827043
              ],
              [
                -76.986451,
                39.82688
              ]
            ]
          ],
          [
            [
              [
                -76.986218,
                39.826885
              ],
              [
                -76.986198,
                39.826885
              ],
              [
                -76.986198,
                39.826958
              ],
              [
                -76.986161,
                39.826958
              ],
              [
                -76.986161,
                39.827071
              ],
              [
                -76.986181,
                39.827071
              ],
              [
                -76.986181,
                39.827056
              ],
              [
                -76.986233,
                39.827056
              ],
              [
                -76.986233,
                39.827071
              ],
              [
                -76.986251,
                39.827071
              ],
              [
                -76.986251,
                39.827096
              ],
              [
                -76.986388,
                39.827096
              ],
              [
                -76.986388,
                39.827074
              ],
              [
                -76.986385,
                39.827074
              ],
              [
                -76.986385,
                39.827053
              ],
              [
                -76.986361,
                39.827053
              ],
              [
                -76.986361,
                39.82695
              ],
              [
                -76.986336,
                39.82695
              ],
              [
                -76.986336,
                39.827001
              ],
              [
                -76.986311,
                39.827001
              ],
              [
                -76.986311,
                39.826824
              ],
              [
                -76.986286,
                39.826824
              ],
              [
                -76.986286,
                39.826885
              ],
              [
                -76.986218,
                39.826885
              ]
            ]
          ],
          [
            [
              [
                -76.986039,
                39.826756
              ],
              [
                -76.985735,
                39.826756
              ],
              [
                -76.985735,
                39.826775
              ],
              [
                -76.986039,
                39.826775
              ],
              [
                -76.986039,
                39.826756
              ]
            ]
          ],
          [
            [
              [
                -76.986084,
                39.826551
              ],
              [
                -76.986108,
                39.826551
              ],
              [
                -76.986108,
                39.826779
              ],
              [
                -76.986084,
                39.826779
              ],
              [
                -76.986084,
                39.826551
              ]
            ]
          ],
          [
            [
              [
                -76.986264,
                39.826551
              ],
              [
                -76.986244,
                39.826551
              ],
              [
                -76.986244,
                39.826613
              ],
              [
                -76.986264,
                39.826613
              ],
              [
                -76.986264,
                39.826551
              ]
            ]
          ],
          [
            [
              [
                -76.986288,
                39.826551
              ],
              [
                -76.986372,
                39.826551
              ],
              [
                -76.986372,
                39.826738
              ],
              [
                -76.986396,
                39.826738
              ],
              [
                -76.986396,
                39.826787
              ],
              [
                -76.986264,
                39.826787
              ],
              [
                -76.986264,
                39.826738
              ],
              [
                -76.986288,
                39.826738
              ],
              [
                -76.986288,
                39.826551
              ]
            ]
          ],
          [
            [
              [
                -76.986475,
                39.826836
              ],
              [
                -76.986451,
                39.826836
              ],
              [
                -76.986451,
                39.82688
              ],
              [
                -76.986475,
                39.82688
              ],
              [
                -76.986475,
                39.826836
              ]
            ]
          ],
          [
            [
              [
                -76.986577,
                39.826903
              ],
              [
                -76.986577,
                39.827033
              ],
              [
                -76.986549,
                39.827033
              ],
              [
                -76.986549,
                39.827068
              ],
              [
                -76.986577,
                39.827068
              ],
              [
                -76.986577,
                39.827033
              ],
              [
                -76.986605,
                39.827033
              ],
              [
                -76.986605,
                39.826903
              ],
              [
                -76.986577,
                39.826903
              ]
            ]
          ],
          [
            [
              [
                -76.986631,
                39.827067
              ],
              [
                -76.986681,
                39.827067
              ],
              [
                -76.986681,
                39.827043
              ],
              [
                -76.986631,
                39.827043
              ],
              [
                -76.986631,
                39.827067
              ]
            ]
          ],
          [
            [
              [
                -76.985711,
                39.826504
              ],
              [
                -76.985742,
                39.826504
              ],
              [
                -76.985742,
                39.826513
              ],
              [
                -76.985865,
                39.826513
              ],
              [
                -76.985865,
                39.826474
              ],
              [
                -76.985835,
                39.826474
              ],
              [
                -76.985835,
                39.826455
              ],
              [
                -76.985711,
                39.826455
              ],
              [
                -76.985711,
                39.826504
              ]
            ]
          ],
          [
            [
              [
                -76.985927,
                39.826474
              ],
              [
                -76.986031,
                39.826474
              ],
              [
                -76.986031,
                39.826455
              ],
              [
                -76.985927,
                39.826455
              ],
              [
                -76.985927,
                39.826474
              ]
            ]
          ],
          [
            [
              [
                -76.985711,
                39.826538
              ],
              [
                -76.985742,
                39.826538
              ],
              [
                -76.985742,
                39.826533
              ],
              [
                -76.986058,
                39.826533
              ],
              [
                -76.986058,
                39.826679
              ],
              [
                -76.98593,
                39.826679
              ],
              [
                -76.98593,
                39.826607
              ],
              [
                -76.985917,
                39.826607
              ],
              [
                -76.985917,
                39.826663
              ],
              [
                -76.985761,
                39.826663
              ],
              [
                -76.985761,
                39.826682
              ],
              [
                -76.985735,
                39.826682
              ],
              [
                -76.985735,
                39.826719
              ],
              [
                -76.985761,
                39.826719
              ],
              [
                -76.985761,
                39.826738
              ],
              [
                -76.986021,
                39.826738
              ],
              [
                -76.986021,
                39.826756
              ],
              [
                -76.985735,
                39.826756
              ],
              [
                -76.985735,
                39.826775
              ],
              [
                -76.986039,
                39.826775
              ],
              [
                -76.986039,
                39.826794
              ],
              [
                -76.985742,
                39.826794
              ],
              [
                -76.985742,
                39.826784
              ],
              [
                -76.985711,
                39.826784
              ],
              [
                -76.985711,
                39.826538
              ]
            ]
          ],
          [
            [
              [
                -76.985708,
                39.826538
              ],
              [
                -76.985681,
                39.826538
              ],
              [
                -76.985681,
                39.826784
              ],
              [
                -76.985708,
                39.826784
              ],
              [
                -76.985708,
                39.826538
              ]
            ]
          ],
          [
            [
              [
                -76.985708,
                39.827096
              ],
              [
                -76.985708,
                39.827083
              ],
              [
                -76.985689,
                39.827083
              ],
              [
                -76.985689,
                39.827082
              ],
              [
                -76.985685,
                39.827082
              ],
              [
                -76.985685,
                39.827077
              ],
              [
                -76.985381,
                39.827077
              ],
              [
                -76.985381,
                39.827082
              ],
              [
                -76.985369,
                39.827082
              ],
              [
                -76.985369,
                39.827083
              ],
              [
                -76.98535,
                39.827083
              ],
              [
                -76.98535,
                39.827096
              ],
              [
                -76.985708,
                39.827096
              ]
            ]
          ],
          [
            [
              [
                -76.985708,
                39.827072
              ],
              [
                -76.985697,
                39.827072
              ],
              [
                -76.985697,
                39.827067
              ],
              [
                -76.985369,
                39.827067
              ],
              [
                -76.985369,
                39.827071
              ],
              [
                -76.98535,
                39.827071
              ],
              [
                -76.98535,
                39.826788
              ],
              [
                -76.985377,
                39.826788
              ],
              [
                -76.985377,
                39.826864
              ],
              [
                -76.985693,
                39.826864
              ],
              [
                -76.985693,
                39.826818
              ],
              [
                -76.985708,
                39.826818
              ],
              [
                -76.985708,
                39.827072
              ]
            ]
          ],
          [
            [
              [
                -76.985708,
                39.826784
              ],
              [
                -76.985677,
                39.826784
              ],
              [
                -76.985677,
                39.826791
              ],
              [
                -76.985668,
                39.826791
              ],
              [
                -76.985668,
                39.826832
              ],
              [
                -76.985405,
                39.826832
              ],
              [
                -76.985405,
                39.826764
              ],
              [
                -76.985405,
                39.826755
              ],
              [
                -76.98535,
                39.826755
              ],
              [
                -76.98535,
                39.826414
              ],
              [
                -76.985377,
                39.826414
              ],
              [
                -76.985377,
                39.826429
              ],
              [
                -76.985394,
                39.826429
              ],
              [
                -76.985394,
                39.826414
              ],
              [
                -76.98545,
                39.826414
              ],
              [
                -76.98545,
                39.826513
              ],
              [
                -76.985646,
                39.826513
              ],
              [
                -76.985646,
                39.826521
              ],
              [
                -76.985666,
                39.826521
              ],
              [
                -76.985666,
                39.826538
              ],
              [
                -76.985708,
                39.826538
              ],
              [
                -76.985708,
                39.826784
              ]
            ]
          ],
          [
            [
              [
                -76.985668,
                39.826414
              ],
              [
                -76.985576,
                39.826414
              ],
              [
                -76.985576,
                39.826488
              ],
              [
                -76.985668,
                39.826488
              ],
              [
                -76.985668,
                39.826414
              ]
            ]
          ],
          [
            [
              [
                -76.986922,
                39.826518
              ],
              [
                -76.986955,
                39.826518
              ],
              [
                -76.986955,
                39.826467
              ],
              [
                -76.986955,
                39.826455
              ],
              [
                -76.9869,
                39.826455
              ],
              [
                -76.9869,
                39.826467
              ],
              [
                -76.986908,
                39.826467
              ],
              [
                -76.986908,
                39.826512
              ],
              [
                -76.986922,
                39.826512
              ],
              [
                -76.986922,
                39.826518
              ]
            ]
          ],
          [
            [
              [
                -76.985865,
                39.826513
              ],
              [
                -76.985865,
                39.826474
              ],
              [
                -76.985835,
                39.826474
              ],
              [
                -76.985835,
                39.82647
              ],
              [
                -76.98585,
                39.82647
              ],
              [
                -76.98585,
                39.826474
              ],
              [
                -76.985875,
                39.826474
              ],
              [
                -76.985875,
                39.826455
              ],
              [
                -76.985927,
                39.826455
              ],
              [
                -76.985927,
                39.826474
              ],
              [
                -76.986031,
                39.826474
              ],
              [
                -76.986031,
                39.82648
              ],
              [
                -76.986051,
                39.82648
              ],
              [
                -76.986051,
                39.826513
              ],
              [
                -76.985865,
                39.826513
              ]
            ]
          ],
          [
            [
              [
                -76.986058,
                39.826719
              ],
              [
                -76.986058,
                39.826751
              ],
              [
                -76.986052,
                39.826751
              ],
              [
                -76.986052,
                39.826794
              ],
              [
                -76.986039,
                39.826794
              ],
              [
                -76.986039,
                39.826756
              ],
              [
                -76.986021,
                39.826756
              ],
              [
                -76.986021,
                39.826719
              ],
              [
                -76.986058,
                39.826719
              ]
            ]
          ],
          [
            [
              [
                -76.986863,
                39.826787
              ],
              [
                -76.986863,
                39.82678
              ],
              [
                -76.986541,
                39.82678
              ],
              [
                -76.986541,
                39.826747
              ],
              [
                -76.986493,
                39.826747
              ],
              [
                -76.986493,
                39.826779
              ],
              [
                -76.986445,
                39.826779
              ],
              [
                -76.986445,
                39.826787
              ],
              [
                -76.986863,
                39.826787
              ]
            ]
          ],
          [
            [
              [
                -76.986475,
                39.826815
              ],
              [
                -76.986475,
                39.826836
              ],
              [
                -76.986431,
                39.826836
              ],
              [
                -76.986431,
                39.826846
              ],
              [
                -76.986385,
                39.826846
              ],
              [
                -76.986385,
                39.826825
              ],
              [
                -76.986336,
                39.826825
              ],
              [
                -76.986336,
                39.826815
              ],
              [
                -76.986475,
                39.826815
              ]
            ]
          ],
          [
            [
              [
                -76.986288,
                39.826551
              ],
              [
                -76.986264,
                39.826551
              ],
              [
                -76.986264,
                39.826613
              ],
              [
                -76.986244,
                39.826613
              ],
              [
                -76.986244,
                39.826717
              ],
              [
                -76.986264,
                39.826717
              ],
              [
                -76.986264,
                39.826738
              ],
              [
                -76.986288,
                39.826738
              ],
              [
                -76.986288,
                39.826551
              ]
            ]
          ],
          [
            [
              [
                -76.986451,
                39.826836
              ],
              [
                -76.986431,
                39.826836
              ],
              [
                -76.986431,
                39.826846
              ],
              [
                -76.986385,
                39.826846
              ],
              [
                -76.986385,
                39.826825
              ],
              [
                -76.986361,
                39.826825
              ],
              [
                -76.986361,
                39.827053
              ],
              [
                -76.986385,
                39.827053
              ],
              [
                -76.986385,
                39.827074
              ],
              [
                -76.986431,
                39.827074
              ],
              [
                -76.986431,
                39.827043
              ],
              [
                -76.986451,
                39.827043
              ],
              [
                -76.986451,
                39.826836
              ]
            ]
          ],
          [
            [
              [
                -76.985708,
                39.827096
              ],
              [
                -76.98535,
                39.827096
              ],
              [
                -76.98535,
                39.826414
              ],
              [
                -76.985708,
                39.826414
              ],
              [
                -76.985708,
                39.827096
              ]
            ]
          ]
        ]
      },
      "properties": {
        "fill": "#D9E2F6",
        "stroke-width": "0.5",
        "stroke": "#96A3BD",
        "opacity": "0.75"
      }
    },
    {
      "type": "Feature",
      "geometry": {
        "type": "MultiLineString",
        "coordinates": []
      },
      "properties": {
        "stroke-width": "0.5"
      }
    },
    {
      "type": "Feature",
      "geometry": {
        "type": "Point",
        "coordinates": [
          -76.986096,
          39.826379
        ]
      },
      "properties": {
        "type": "P",
        "sub_category": "EntryExit",
        "poi_name": "MAIN ENTRANCE",
        "profile": "BASIC INFO",
        "icon_id": "entrance_exit",
        "orientation": 0
      }
    },
    {
      "type": "Feature",
      "geometry": {
        "type": "Point",
        "coordinates": [
          -76.986356,
          39.826453
        ]
      },
      "properties": {
        "type": "P",
        "sub_category": "EntryExit",
        "poi_name": "MAIN EXIT",
        "profile": "BASIC INFO",
        "icon_id": "entrance_exit",
        "orientation": 0
      }
    },
    {
      "type": "Feature",
      "geometry": {
        "type": "Point",
        "coordinates": [
          -76.987017,
          39.826441
        ]
      },
      "properties": {
        "type": "P",
        "sub_category": "EntryExit",
        "poi_name": "PRO ENTRANCE",
        "profile": "BASIC INFO",
        "icon_id": "entrance_exit",
        "orientation": 0
      }
    },
    {
      "type": "Feature",
      "geometry": {
        "type": "Point",
        "coordinates": [
          -76.987017,
          39.826475
        ]
      },
      "properties": {
        "type": "P",
        "sub_category": "EntryExit",
        "poi_name": "PRO EXIT",
        "profile": "BASIC INFO",
        "icon_id": "entrance_exit",
        "orientation": 0
      }
    },
    {
      "type": "Feature",
      "geometry": {
        "type": "Point",
        "coordinates": [
          -76.985512,
          39.826365
        ]
      },
      "properties": {
        "type": "P",
        "sub_category": "EntryExit",
        "poi_name": "GARDEN CENTER ENTRANCE",
        "profile": "BASIC INFO",
        "icon_id": "entrance_exit",
        "orientation": 0
      }
    },
    {
      "type": "Feature",
      "geometry": {
        "type": "Point",
        "coordinates": [
          -76.985512,
          39.826429
        ]
      },
      "properties": {
        "type": "P",
        "sub_category": "EntryExit",
        "poi_name": "GARDEN CENTER EXIT",
        "profile": "BASIC INFO",
        "icon_id": "entrance_exit",
        "orientation": 0
      }
    },
    {
      "type": "Feature",
      "geometry": {
        "type": "Point",
        "coordinates": [
          -76.98648,
          39.826436
        ]
      },
      "properties": {
        "type": "P",
        "sub_category": "Restrooms",
        "poi_name": "MEN/WOMEN’S RESTROOMS",
        "profile": "BASIC INFO",
        "icon_id": "restrooms",
        "orientation": 0
      }
    },
    {
      "type": "Feature",
      "geometry": {
        "type": "Point",
        "coordinates": [
          -76.986511,
          39.82643
        ]
      },
      "properties": {
        "type": "P",
        "sub_category": "Restrooms",
        "poi_name": "UNISEX",
        "profile": "BASIC INFO",
        "icon_id": "restrooms",
        "orientation": 0
      }
    },
    {
      "type": "Feature",
      "geometry": {
        "type": "Point",
        "coordinates": [
          -76.987017,
          39.826515
        ]
      },
      "properties": {
        "type": "P",
        "sub_category": "Checkouts",
        "poi_name": "PRO CHECKOUT",
        "profile": "BASIC INFO",
        "icon_id": "checkouts",
        "orientation": 0
      }
    },
    {
      "type": "Feature",
      "geometry": {
        "type": "Point",
        "coordinates": [
          -76.985512,
          39.8265
        ]
      },
      "properties": {
        "type": "P",
        "sub_category": "Checkouts",
        "poi_name": "GARDEN CENTER CHECKOUT",
        "profile": "BASIC INFO",
        "icon_id": "checkouts",
        "orientation": 0
      }
    },
    {
      "type": "Feature",
      "geometry": {
        "type": "Point",
        "coordinates": [
          -76.987074,
          39.826503
        ]
      },
      "properties": {
        "type": "P",
        "sub_category": "ServiceDesks",
        "poi_name": "PRO SERVICE DESK",
        "profile": "BASIC INFO",
        "icon_id": "pro_service_desk",
        "orientation": 0
      }
    },
    {
      "type": "Feature",
      "geometry": {
        "type": "Point",
        "coordinates": [
          -76.986108,
          39.826895
        ]
      },
      "properties": {
        "type": "P",
        "sub_category": "ServiceDesks",
        "poi_name": "APPLIANCE DESK",
        "profile": "STORE SERVICES",
        "icon_id": "appliance_desk",
        "orientation": 0
      }
    },
    {
      "type": "Feature",
      "geometry": {
        "type": "Point",
        "coordinates": [
          -76.986548,
          39.826838
        ]
      },
      "properties": {
        "type": "P",
        "sub_category": "ServiceDesks",
        "poi_name": "FLOORING DESK",
        "profile": "STORE SERVICES",
        "icon_id": "flooring_desk",
        "orientation": 0
      }
    },
    {
      "type": "Feature",
      "geometry": {
        "type": "Point",
        "coordinates": [
          -76.98633,
          39.826755
        ]
      },
      "properties": {
        "type": "P",
        "sub_category": "ServiceDesks",
        "poi_name": "HOME DECOR DESK",
        "profile": "STORE SERVICES",
        "icon_id": "home_décor_desk",
        "orientation": 0
      }
    },
    {
      "type": "Feature",
      "geometry": {
        "type": "Point",
        "coordinates": [
          -76.986275,
          39.82701
        ]
      },
      "properties": {
        "type": "P",
        "sub_category": "ServiceDesks",
        "poi_name": "KITCHEN DESIGN DESK",
        "profile": "STORE SERVICES",
        "icon_id": "kitchen_design_desk",
        "orientation": 0
      }
    },
    {
      "type": "Feature",
      "geometry": {
        "type": "Point",
        "coordinates": [
          -76.986754,
          39.826846
        ]
      },
      "properties": {
        "type": "P",
        "sub_category": "ServiceDesks",
        "poi_name": "MILLWORK DESK",
        "profile": "STORE SERVICES",
        "icon_id": "millwork_desk",
        "orientation": 0
      }
    },
    {
      "type": "Feature",
      "geometry": {
        "type": "Point",
        "coordinates": [
          -76.986703,
          39.826634
        ]
      },
      "properties": {
        "type": "P",
        "sub_category": "Services",
        "poi_name": "CHAIN AND ROPE CUTTING",
        "profile": "STORE SERVICES",
        "icon_id": "chain_rope_cutting",
        "orientation": 0
      }
    },
    {
      "type": "Feature",
      "geometry": {
        "type": "Point",
        "coordinates": [
          -76.986693,
          39.826562
        ]
      },
      "properties": {
        "type": "P",
        "sub_category": "Services",
        "poi_name": "KEY CUTTING",
        "profile": "STORE SERVICES",
        "icon_id": "key_copying",
        "orientation": 0
      }
    },
    {
      "type": "Feature",
      "geometry": {
        "type": "Point",
        "coordinates": [
          -76.98674,
          39.826604
        ]
      },
      "properties": {
        "type": "P",
        "sub_category": "Services",
        "poi_name": "GLASS CUTTING",
        "profile": "STORE SERVICES",
        "icon_id": "glass_cutting",
        "orientation": 0
      }
    },
    {
      "type": "Feature",
      "geometry": {
        "type": "Point",
        "coordinates": [
          -76.986626,
          39.82677
        ]
      },
      "properties": {
        "type": "P",
        "sub_category": "Services",
        "poi_name": "WIRE CUTTING",
        "profile": "STORE SERVICES",
        "icon_id": "wire_cutting",
        "orientation": 0
      }
    },
    {
      "type": "Feature",
      "geometry": {
        "type": "Point",
        "coordinates": [
          -76.987055,
          39.827042
        ]
      },
      "properties": {
        "type": "P",
        "sub_category": "Services",
        "poi_name": "WOOD CUTTING",
        "profile": "STORE SERVICES",
        "icon_id": "wood_cutting",
        "orientation": 0
      }
    },
    {
      "type": "Feature",
      "geometry": {
        "type": "Point",
        "coordinates": [
          -76.986335,
          39.826686
        ]
      },
      "properties": {
        "type": "P",
        "sub_category": "Services",
        "poi_name": "BLIND CUTTING",
        "profile": "STORE SERVICES",
        "icon_id": "blind_cutting",
        "orientation": 0
      }
    },
    {
      "type": "Feature",
      "geometry": {
        "type": "Point",
        "coordinates": [
          -76.986594,
          39.827076
        ]
      },
      "properties": {
        "type": "P",
        "sub_category": "Services",
        "poi_name": "CARPET CUTTING",
        "profile": "STORE SERVICES",
        "icon_id": "carpet_cutting",
        "orientation": 0
      }
    },
    {
      "type": "Feature",
      "geometry": {
        "type": "Point",
        "coordinates": [
          -76.986285,
          39.826531
        ]
      },
      "properties": {
        "type": "P",
        "sub_category": "Checkouts",
        "poi_name": "MAIN CHECKOUT",
        "profile": "BASIC INFO",
        "icon_id": "checkouts",
        "orientation": 0
      }
    },
    {
      "type": "Feature",
      "geometry": {
        "type": "Point",
        "coordinates": [
          -76.986355,
          39.826534
        ]
      },
      "properties": {
        "type": "P",
        "sub_category": "Checkouts",
        "poi_name": "MAIN SELF-CHECKOUT",
        "profile": "BASIC INFO",
        "icon_id": "checkouts",
        "orientation": 0
      }
    },
    {
      "type": "Feature",
      "geometry": {
        "type": "Point",
        "coordinates": [
          -76.986113,
          39.82648
        ]
      },
      "properties": {
        "type": "P",
        "sub_category": "Services",
        "poi_name": "RETURNS",
        "profile": "BASIC INFO",
        "icon_id": "returns",
        "orientation": 0
      }
    },
    {
      "type": "Feature",
      "geometry": {
        "type": "Point",
        "coordinates": [
          -76.986208,
          39.826464
        ]
      },
      "properties": {
        "type": "P",
        "sub_category": "Services",
        "poi_name": "PRODUCT PICK-UP",
        "profile": "BASIC INFO",
        "icon_id": "store_pick_up",
        "orientation": 0
      }
    },
    {
      "type": "Feature",
      "geometry": {
        "type": "Point",
        "coordinates": [
          -76.986113,
          39.826502
        ]
      },
      "properties": {
        "type": "P",
        "sub_category": "ServiceDesks",
        "poi_name": "CUSTOMER SERVICE",
        "profile": "BASIC INFO",
        "icon_id": "customer_service_desk",
        "orientation": 0
      }
    },
    {
      "type": "Feature",
      "geometry": {
        "type": "Point",
        "coordinates": [
          -76.986179,
          39.826464
        ]
      },
      "properties": {
        "type": "P",
        "sub_category": "Services",
        "poi_name": "PICKUP LOCKER",
        "profile": "BASIC INFO",
        "icon_id": "pickup_lockers",
        "orientation": 0
      }
    },
    {
      "type": "Feature",
      "geometry": {
        "type": "Point",
        "coordinates": [
          -76.986199,
          39.827169
        ]
      },
      "properties": {
        "type": "P",
        "sub_category": "ServiceDesks",
        "poi_name": "RECEIVING DESK",
        "profile": "BASIC INFO",
        "icon_id": "receiving_desk",
        "orientation": 0
      }
    },
    {
      "type": "Feature",
      "geometry": {
        "type": "Point",
        "coordinates": [
          -76.986968,
          39.82667
        ]
      },
      "properties": {
        "name": "LUMBER",
        "orientation": 0
      }
    },
    {
      "type": "Feature",
      "geometry": {
        "type": "Point",
        "coordinates": [
          -76.986937,
          39.826961
        ]
      },
      "properties": {
        "name": "LUMBER",
        "orientation": 0
      }
    },
    {
      "type": "Feature",
      "geometry": {
        "type": "Point",
        "coordinates": [
          -76.987054,
          39.82666
        ]
      },
      "properties": {
        "name": "LUMBER",
        "orientation": 0
      }
    },
    {
      "type": "Feature",
      "geometry": {
        "type": "Point",
        "coordinates": [
          -76.987077,
          39.826961
        ]
      },
      "properties": {
        "name": "LUMBER",
        "orientation": 0
      }
    },
    {
      "type": "Feature",
      "geometry": {
        "type": "Point",
        "coordinates": [
          -76.986905,
          39.826665
        ]
      },
      "properties": {
        "name": "BUILDING MATERIALS",
        "orientation": 0
      }
    },
    {
      "type": "Feature",
      "geometry": {
        "type": "Point",
        "coordinates": [
          -76.98646,
          39.827084
        ]
      },
      "properties": {
        "name": "BUILDING MATERIALS",
        "orientation": 0
      }
    },
    {
      "type": "Feature",
      "geometry": {
        "type": "Point",
        "coordinates": [
          -76.986954,
          39.826889
        ]
      },
      "properties": {
        "name": "BUILDING MATERIALS",
        "orientation": 0
      }
    },
    {
      "type": "Feature",
      "geometry": {
        "type": "Point",
        "coordinates": [
          -76.987077,
          39.82679
        ]
      },
      "properties": {
        "name": "BUILDING MATERIALS",
        "orientation": 0
      }
    },
    {
      "type": "Feature",
      "geometry": {
        "type": "Point",
        "coordinates": [
          -76.986796,
          39.826956
        ]
      },
      "properties": {
        "name": "MILLWORK",
        "orientation": 0
      }
    },
    {
      "type": "Feature",
      "geometry": {
        "type": "Point",
        "coordinates": [
          -76.986469,
          39.826669
        ]
      },
      "properties": {
        "name": "LIGHTING",
        "orientation": 0
      }
    },
    {
      "type": "Feature",
      "geometry": {
        "type": "Point",
        "coordinates": [
          -76.986611,
          39.826666
        ]
      },
      "properties": {
        "name": "ROUGH ELECTRICAL",
        "orientation": 0
      }
    },
    {
      "type": "Feature",
      "geometry": {
        "type": "Point",
        "coordinates": [
          -76.985724,
          39.826868
        ]
      },
      "properties": {
        "name": "FASHION PLUMBING",
        "orientation": 0
      }
    },
    {
      "type": "Feature",
      "geometry": {
        "type": "Point",
        "coordinates": [
          -76.985905,
          39.826893
        ]
      },
      "properties": {
        "name": "FASHION PLUMBING",
        "orientation": 0
      }
    },
    {
      "type": "Feature",
      "geometry": {
        "type": "Point",
        "coordinates": [
          -76.986252,
          39.82685
        ]
      },
      "properties": {
        "name": "FASHION PLUMBING",
        "orientation": 0
      }
    },
    {
      "type": "Feature",
      "geometry": {
        "type": "Point",
        "coordinates": [
          -76.985724,
          39.826994
        ]
      },
      "properties": {
        "name": "ROUGH PLUMBING",
        "orientation": 0
      }
    },
    {
      "type": "Feature",
      "geometry": {
        "type": "Point",
        "coordinates": [
          -76.985786,
          39.827085
        ]
      },
      "properties": {
        "name": "ROUGH PLUMBING",
        "orientation": 0
      }
    },
    {
      "type": "Feature",
      "geometry": {
        "type": "Point",
        "coordinates": [
          -76.985912,
          39.827038
        ]
      },
      "properties": {
        "name": "ROUGH PLUMBING",
        "orientation": 0
      }
    },
    {
      "type": "Feature",
      "geometry": {
        "type": "Point",
        "coordinates": [
          -76.986149,
          39.826956
        ]
      },
      "properties": {
        "name": "APPLIANCES",
        "orientation": 0
      }
    },
    {
      "type": "Feature",
      "geometry": {
        "type": "Point",
        "coordinates": [
          -76.986324,
          39.826908
        ]
      },
      "properties": {
        "name": "APPLIANCES",
        "orientation": 0
      }
    },
    {
      "type": "Feature",
      "geometry": {
        "type": "Point",
        "coordinates": [
          -76.9866,
          39.826572
        ]
      },
      "properties": {
        "name": "HARDWARE",
        "orientation": 0
      }
    },
    {
      "type": "Feature",
      "geometry": {
        "type": "Point",
        "coordinates": [
          -76.986733,
          39.826666
        ]
      },
      "properties": {
        "name": "HARDWARE",
        "orientation": 0
      }
    },
    {
      "type": "Feature",
      "geometry": {
        "type": "Point",
        "coordinates": [
          -76.986186,
          39.826661
        ]
      },
      "properties": {
        "name": "PAINT",
        "orientation": 0
      }
    },
    {
      "type": "Feature",
      "geometry": {
        "type": "Point",
        "coordinates": [
          -76.986696,
          39.826487
        ]
      },
      "properties": {
        "name": "TOOLS",
        "orientation": 0
      }
    },
    {
      "type": "Feature",
      "geometry": {
        "type": "Point",
        "coordinates": [
          -76.986811,
          39.826593
        ]
      },
      "properties": {
        "name": "TOOLS",
        "orientation": 0
      }
    },
    {
      "type": "Feature",
      "geometry": {
        "type": "Point",
        "coordinates": [
          -76.985897,
          39.82671
        ]
      },
      "properties": {
        "name": "OUTDOOR POWER EQUIPMENT",
        "orientation": 0
      }
    },
    {
      "type": "Feature",
      "geometry": {
        "type": "Point",
        "coordinates": [
          -76.986522,
          39.826956
        ]
      },
      "properties": {
        "name": "FLOORING",
        "orientation": 0
      }
    },
    {
      "type": "Feature",
      "geometry": {
        "type": "Point",
        "coordinates": [
          -76.986275,
          39.82696
        ]
      },
      "properties": {
        "name": "CABINETS",
        "orientation": 0
      }
    },
    {
      "type": "Feature",
      "geometry": {
        "type": "Point",
        "coordinates": [
          -76.985887,
          39.826766
        ]
      },
      "properties": {
        "name": "CLEANING",
        "orientation": 0
      }
    },
    {
      "type": "Feature",
      "geometry": {
        "type": "Point",
        "coordinates": [
          -76.986096,
          39.826665
        ]
      },
      "properties": {
        "name": "CLEANING",
        "orientation": 0
      }
    },
    {
      "type": "Feature",
      "geometry": {
        "type": "Point",
        "coordinates": [
          -76.986254,
          39.826582
        ]
      },
      "properties": {
        "name": "HOME DECOR",
        "orientation": 0
      }
    },
    {
      "type": "Feature",
      "geometry": {
        "type": "Point",
        "coordinates": [
          -76.98633,
          39.826669
        ]
      },
      "properties": {
        "name": "HOME DECOR",
        "orientation": 0
      }
    },
    {
      "type": "Feature",
      "geometry": {
        "type": "Point",
        "coordinates": [
          -76.986463,
          39.826858
        ]
      },
      "properties": {
        "name": "HOME DECOR",
        "orientation": 0
      }
    },
    {
      "type": "Feature",
      "geometry": {
        "type": "Point",
        "coordinates": [
          -76.986577,
          39.826985
        ]
      },
      "properties": {
        "name": "HOME DECOR",
        "orientation": 0
      }
    },
    {
      "type": "Feature",
      "geometry": {
        "type": "Point",
        "coordinates": [
          -76.986656,
          39.827055
        ]
      },
      "properties": {
        "name": "HOME DECOR",
        "orientation": 0
      }
    },
    {
      "type": "Feature",
      "geometry": {
        "type": "Point",
        "coordinates": [
          -76.985788,
          39.826484
        ]
      },
      "properties": {
        "name": "INSIDE LAWN AND GARDEN",
        "orientation": 0
      }
    },
    {
      "type": "Feature",
      "geometry": {
        "type": "Point",
        "coordinates": [
          -76.985979,
          39.826464
        ]
      },
      "properties": {
        "name": "INSIDE LAWN AND GARDEN",
        "orientation": 0
      }
    },
    {
      "type": "Feature",
      "geometry": {
        "type": "Point",
        "coordinates": [
          -76.985885,
          39.826663
        ]
      },
      "properties": {
        "name": "INSIDE LAWN AND GARDEN",
        "orientation": 0
      }
    },
    {
      "type": "Feature",
      "geometry": {
        "type": "Point",
        "coordinates": [
          -76.985694,
          39.826661
        ]
      },
      "properties": {
        "name": "INSIDE LAWN AND GARDEN",
        "orientation": 0
      }
    },
    {
      "type": "Feature",
      "geometry": {
        "type": "Point",
        "coordinates": [
          -76.985529,
          39.827086
        ]
      },
      "properties": {
        "name": "OUTSIDE LAWN AND GARDEN",
        "orientation": 0
      }
    },
    {
      "type": "Feature",
      "geometry": {
        "type": "Point",
        "coordinates": [
          -76.985529,
          39.82693
        ]
      },
      "properties": {
        "name": "OUTSIDE LAWN AND GARDEN",
        "orientation": 0
      }
    },
    {
      "type": "Feature",
      "geometry": {
        "type": "Point",
        "coordinates": [
          -76.985529,
          39.826623
        ]
      },
      "properties": {
        "name": "OUTSIDE LAWN AND GARDEN",
        "orientation": 0
      }
    },
    {
      "type": "Feature",
      "geometry": {
        "type": "Point",
        "coordinates": [
          -76.985621,
          39.826451
        ]
      },
      "properties": {
        "name": "OUTSIDE LAWN AND GARDEN",
        "orientation": 0
      }
    },
    {
      "type": "Feature",
      "geometry": {
        "type": "Point",
        "coordinates": [
          -76.986266,
          39.826644
        ]
      },
      "properties": {
        "name": "STORAGE",
        "orientation": 0
      }
    },
    {
      "type": "Feature",
      "geometry": {
        "type": "Point",
        "coordinates": [
          -76.986406,
          39.82695
        ]
      },
      "properties": {
        "name": "STORAGE",
        "orientation": 0
      }
    },
    {
      "type": "Feature",
      "geometry": {
        "type": "Point",
        "coordinates": [
          -76.985529,
          39.826755
        ]
      },
      "properties": {
        "name": "GARDEN CENTER",
        "orientation": 0
      }
    }
  ]
}