{
  "type": "FeatureCollection",
  "features": [
    {
      "type": "Feature",
      "geometry": {
        "type": "MultiPolygon",
        "coordinates": [
          [
            [
              [
                -76.985721,
                39.826984
              ],
              [
                -76.985688,
                39.826984
              ],
              [
                -76.985688,
                39.82689
              ],
              [
                -76.985721,
                39.82689
              ],
              [
                -76.985721,
                39.826984
              ]
            ]
          ],
          [
            [
              [
                -76.986875,
                39.82697
              ],
              [
                -76.986845,
                39.82697
              ],
              [
                -76.986845,
                39.826823
              ],
              [
                -76.986875,
                39.826823
              ],
              [
                -76.986875,
                39.82697
              ]
            ]
          ],
          [
            [
              [
                -76.986026,
                39.827046
              ],
              [
                -76.985783,
                39.827046
              ],
              [
                -76.985783,
                39.827104
              ],
              [
                -76.985759,
                39.827104
              ],
              [
                -76.985759,
                39.826949
              ],
              [
                -76.985783,
                39.826949
              ],
              [
                -76.985783,
                39.827027
              ],
              [
                -76.986026,
                39.827027
              ],
              [
                -76.986026,
                39.827046
              ]
            ]
          ],
          [
            [
              [
                -76.985804,
                39.826432
              ],
              [
                -76.985804,
                39.826414
              ],
              [
                -76.985887,
                39.826414
              ],
              [
                -76.985887,
                39.826443
              ],
              [
                -76.985795,
                39.826443
              ],
              [
                -76.985795,
                39.826472
              ],
              [
                -76.985759,
                39.826472
              ],
              [
                -76.985759,
                39.826432
              ],
              [
                -76.985804,
                39.826432
              ]
            ]
          ],
          [
            [
              [
                -76.987065,
                39.826796
              ],
              [
                -76.987065,
                39.826574
              ],
              [
                -76.987078,
                39.826574
              ],
              [
                -76.987078,
                39.826511
              ],
              [
                -76.987065,
                39.826511
              ],
              [
                -76.987065,
                39.826496
              ],
              [
                -76.986997,
                39.826496
              ],
              [
                -76.986997,
                39.826796
              ],
              [
                -76.987065,
                39.826796
              ]
            ]
          ],
          [
            [
              [
                -76.986031,
                39.827078
              ],
              [
                -76.985816,
                39.827078
              ],
              [
                -76.985816,
                39.827059
              ],
              [
                -76.986031,
                39.827059
              ],
              [
                -76.986031,
                39.827078
              ]
            ]
          ],
          [
            [
              [
                -76.986347,
                39.826787
              ],
              [
                -76.986347,
                39.826511
              ],
              [
                -76.986259,
                39.826511
              ],
              [
                -76.986259,
                39.826681
              ],
              [
                -76.986284,
                39.826681
              ],
              [
                -76.986284,
                39.826766
              ],
              [
                -76.986259,
                39.826766
              ],
              [
                -76.986259,
                39.826788
              ],
              [
                -76.986306,
                39.826788
              ],
              [
                -76.986306,
                39.826787
              ],
              [
                -76.986347,
                39.826787
              ]
            ]
          ],
          [
            [
              [
                -76.986968,
                39.827078
              ],
              [
                -76.987025,
                39.827078
              ],
              [
                -76.987025,
                39.827063
              ],
              [
                -76.98704,
                39.827063
              ],
              [
                -76.98704,
                39.827053
              ],
              [
                -76.987065,
                39.827053
              ],
              [
                -76.987065,
                39.826823
              ],
              [
                -76.987002,
                39.826823
              ],
              [
                -76.987002,
                39.826835
              ],
              [
                -76.986969,
                39.826835
              ],
              [
                -76.986969,
                39.826879
              ],
              [
                -76.987002,
                39.826879
              ],
              [
                -76.987002,
                39.826842
              ],
              [
                -76.987035,
                39.826842
              ],
              [
                -76.987035,
                39.827044
              ],
              [
                -76.987002,
                39.827044
              ],
              [
                -76.987002,
                39.827055
              ],
              [
                -76.986968,
                39.827055
              ],
              [
                -76.986968,
                39.827078
              ]
            ]
          ],
          [
            [
              [
                -76.987125,
                39.827047
              ],
              [
                -76.987096,
                39.827047
              ],
              [
                -76.987096,
                39.826615
              ],
              [
                -76.9871,
                39.826615
              ],
              [
                -76.9871,
                39.826449
              ],
              [
                -76.987125,
                39.826449
              ],
              [
                -76.987125,
                39.827047
              ]
            ]
          ],
          [
            [
              [
                -76.986259,
                39.826787
              ],
              [
                -76.986259,
                39.826766
              ],
              [
                -76.986284,
                39.826766
              ],
              [
                -76.986284,
                39.826681
              ],
              [
                -76.986259,
                39.826681
              ],
              [
                -76.986259,
                39.826511
              ],
              [
                -76.986211,
                39.826511
              ],
              [
                -76.986211,
                39.826515
              ],
              [
                -76.986119,
                39.826515
              ],
              [
                -76.986119,
                39.826511
              ],
              [
                -76.986096,
                39.826511
              ],
              [
                -76.986096,
                39.826787
              ],
              [
                -76.986259,
                39.826787
              ]
            ]
          ],
          [
            [
              [
                -76.986025,
                39.82681
              ],
              [
                -76.986025,
                39.826727
              ],
              [
                -76.985787,
                39.826727
              ],
              [
                -76.985787,
                39.826718
              ],
              [
                -76.985759,
                39.826718
              ],
              [
                -76.985759,
                39.826802
              ],
              [
                -76.98579,
                39.826802
              ],
              [
                -76.98579,
                39.82681
              ],
              [
                -76.986025,
                39.82681
              ]
            ]
          ],
          [
            [
              [
                -76.986039,
                39.827046
              ],
              [
                -76.986039,
                39.826965
              ],
              [
                -76.986026,
                39.826965
              ],
              [
                -76.986026,
                39.826924
              ],
              [
                -76.986039,
                39.826924
              ],
              [
                -76.986039,
                39.82682
              ],
              [
                -76.98579,
                39.82682
              ],
              [
                -76.98579,
                39.826837
              ],
              [
                -76.985759,
                39.826837
              ],
              [
                -76.985759,
                39.826949
              ],
              [
                -76.985783,
                39.826949
              ],
              [
                -76.985783,
                39.827027
              ],
              [
                -76.986026,
                39.827027
              ],
              [
                -76.986026,
                39.827046
              ],
              [
                -76.986039,
                39.827046
              ]
            ]
          ],
          [
            [
              [
                -76.986969,
                39.827035
              ],
              [
                -76.987002,
                39.827035
              ],
              [
                -76.987002,
                39.827055
              ],
              [
                -76.986875,
                39.827055
              ],
              [
                -76.986875,
                39.827035
              ],
              [
                -76.986904,
                39.827035
              ],
              [
                -76.986904,
                39.826835
              ],
              [
                -76.986969,
                39.826835
              ],
              [
                -76.986969,
                39.827035
              ]
            ]
          ],
          [
            [
              [
                -76.986649,
                39.827078
              ],
              [
                -76.986649,
                39.827036
              ],
              [
                -76.986635,
                39.827036
              ],
              [
                -76.986635,
                39.826834
              ],
              [
                -76.986764,
                39.826834
              ],
              [
                -76.986764,
                39.826823
              ],
              [
                -76.986845,
                39.826824
              ],
              [
                -76.986845,
                39.82697
              ],
              [
                -76.986875,
                39.82697
              ],
              [
                -76.986875,
                39.826835
              ],
              [
                -76.986904,
                39.826835
              ],
              [
                -76.986904,
                39.827035
              ],
              [
                -76.986875,
                39.827035
              ],
              [
                -76.986875,
                39.827055
              ],
              [
                -76.987002,
                39.827055
              ],
              [
                -76.987002,
                39.827035
              ],
              [
                -76.986969,
                39.827035
              ],
              [
                -76.986969,
                39.826879
              ],
              [
                -76.987002,
                39.826879
              ],
              [
                -76.987002,
                39.826842
              ],
              [
                -76.987035,
                39.826842
              ],
              [
                -76.987035,
                39.827044
              ],
              [
                -76.987002,
                39.827044
              ],
              [
                -76.987002,
                39.827055
              ],
              [
                -76.986968,
                39.827055
              ],
              [
                -76.986968,
                39.827078
              ],
              [
                -76.986649,
                39.827078
              ]
            ]
          ],
          [
            [
              [
                -76.985805,
                39.826904
              ],
              [
                -76.985998,
                39.826904
              ],
              [
                -76.985998,
                39.826924
              ],
              [
                -76.985805,
                39.826924
              ],
              [
                -76.985805,
                39.826904
              ]
            ]
          ],
          [
            [
              [
                -76.986367,
                39.826787
              ],
              [
                -76.986347,
                39.826787
              ],
              [
                -76.986347,
                39.826511
              ],
              [
                -76.986367,
                39.826511
              ],
              [
                -76.986367,
                39.826787
              ]
            ]
          ],
          [
            [
              [
                -76.986997,
                39.826796
              ],
              [
                -76.986997,
                39.826496
              ],
              [
                -76.986922,
                39.826496
              ],
              [
                -76.986922,
                39.826515
              ],
              [
                -76.986843,
                39.826515
              ],
              [
                -76.986843,
                39.82678
              ],
              [
                -76.986924,
                39.82678
              ],
              [
                -76.986924,
                39.826796
              ],
              [
                -76.986997,
                39.826796
              ]
            ]
          ],
          [
            [
              [
                -76.986281,
                39.827063
              ],
              [
                -76.986297,
                39.827063
              ],
              [
                -76.986297,
                39.827078
              ],
              [
                -76.986354,
                39.827078
              ],
              [
                -76.986354,
                39.827053
              ],
              [
                -76.986381,
                39.827053
              ],
              [
                -76.986381,
                39.826846
              ],
              [
                -76.98636,
                39.826846
              ],
              [
                -76.98636,
                39.826905
              ],
              [
                -76.986312,
                39.826905
              ],
              [
                -76.986312,
                39.826921
              ],
              [
                -76.986333,
                39.826921
              ],
              [
                -76.986333,
                39.82703
              ],
              [
                -76.986209,
                39.82703
              ],
              [
                -76.986209,
                39.827015
              ],
              [
                -76.986209,
                39.826901
              ],
              [
                -76.986245,
                39.826901
              ],
              [
                -76.986245,
                39.826823
              ],
              [
                -76.986064,
                39.826823
              ],
              [
                -76.986064,
                39.827059
              ],
              [
                -76.986031,
                39.827059
              ],
              [
                -76.986031,
                39.827078
              ],
              [
                -76.986281,
                39.827078
              ],
              [
                -76.986281,
                39.827063
              ]
            ]
          ],
          [
            [
              [
                -76.986843,
                39.82678
              ],
              [
                -76.986818,
                39.82678
              ],
              [
                -76.986818,
                39.826652
              ],
              [
                -76.986843,
                39.826652
              ],
              [
                -76.986843,
                39.82678
              ]
            ]
          ],
          [
            [
              [
                -76.986794,
                39.826787
              ],
              [
                -76.986794,
                39.826511
              ],
              [
                -76.986687,
                39.826511
              ],
              [
                -76.986687,
                39.826701
              ],
              [
                -76.986711,
                39.826701
              ],
              [
                -76.986711,
                39.826787
              ],
              [
                -76.986794,
                39.826787
              ]
            ]
          ],
          [
            [
              [
                -76.986595,
                39.826787
              ],
              [
                -76.986595,
                39.826712
              ],
              [
                -76.986574,
                39.826712
              ],
              [
                -76.986574,
                39.826511
              ],
              [
                -76.986553,
                39.826511
              ],
              [
                -76.986553,
                39.826504
              ],
              [
                -76.986472,
                39.826504
              ],
              [
                -76.986472,
                39.826511
              ],
              [
                -76.986451,
                39.826511
              ],
              [
                -76.986451,
                39.826743
              ],
              [
                -76.986472,
                39.826743
              ],
              [
                -76.986472,
                39.826787
              ],
              [
                -76.986595,
                39.826787
              ]
            ]
          ],
          [
            [
              [
                -76.986843,
                39.826515
              ],
              [
                -76.986818,
                39.826515
              ],
              [
                -76.986818,
                39.826511
              ],
              [
                -76.986794,
                39.826511
              ],
              [
                -76.986794,
                39.826787
              ],
              [
                -76.986818,
                39.826787
              ],
              [
                -76.986818,
                39.826652
              ],
              [
                -76.986843,
                39.826652
              ],
              [
                -76.986843,
                39.826515
              ]
            ]
          ],
          [
            [
              [
                -76.986354,
                39.827078
              ],
              [
                -76.986354,
                39.827053
              ],
              [
                -76.986381,
                39.827053
              ],
              [
                -76.986381,
                39.826846
              ],
              [
                -76.98636,
                39.826846
              ],
              [
                -76.98636,
                39.826823
              ],
              [
                -76.986607,
                39.826823
              ],
              [
                -76.986607,
                39.826834
              ],
              [
                -76.986635,
                39.826834
              ],
              [
                -76.986635,
                39.827036
              ],
              [
                -76.986649,
                39.827036
              ],
              [
                -76.986649,
                39.827078
              ],
              [
                -76.986538,
                39.827078
              ],
              [
                -76.986538,
                39.827063
              ],
              [
                -76.986526,
                39.827063
              ],
              [
                -76.986526,
                39.827078
              ],
              [
                -76.986354,
                39.827078
              ]
            ]
          ],
          [
            [
              [
                -76.985759,
                39.826718
              ],
              [
                -76.985787,
                39.826718
              ],
              [
                -76.985787,
                39.82671
              ],
              [
                -76.985815,
                39.82671
              ],
              [
                -76.985815,
                39.826692
              ],
              [
                -76.986025,
                39.826692
              ],
              [
                -76.986025,
                39.826669
              ],
              [
                -76.986047,
                39.826669
              ],
              [
                -76.986047,
                39.826623
              ],
              [
                -76.98596,
                39.826623
              ],
              [
                -76.98596,
                39.826636
              ],
              [
                -76.985947,
                39.826636
              ],
              [
                -76.985947,
                39.826616
              ],
              [
                -76.985815,
                39.826616
              ],
              [
                -76.985815,
                39.826672
              ],
              [
                -76.985787,
                39.826672
              ],
              [
                -76.985787,
                39.826649
              ],
              [
                -76.985759,
                39.826649
              ],
              [
                -76.985759,
                39.826718
              ]
            ]
          ],
          [
            [
              [
                -76.986855,
                39.826414
              ],
              [
                -76.986855,
                39.826473
              ],
              [
                -76.986842,
                39.826473
              ],
              [
                -76.986842,
                39.826479
              ],
              [
                -76.98648,
                39.826479
              ],
              [
                -76.98648,
                39.826474
              ],
              [
                -76.986463,
                39.826474
              ],
              [
                -76.986463,
                39.826435
              ],
              [
                -76.986495,
                39.826435
              ],
              [
                -76.986495,
                39.826414
              ],
              [
                -76.986686,
                39.826414
              ],
              [
                -76.986686,
                39.826429
              ],
              [
                -76.986697,
                39.826429
              ],
              [
                -76.986697,
                39.826414
              ],
              [
                -76.986855,
                39.826414
              ]
            ]
          ],
          [
            [
              [
                -76.986024,
                39.826727
              ],
              [
                -76.986024,
                39.82671
              ],
              [
                -76.986025,
                39.82671
              ],
              [
                -76.986025,
                39.826692
              ],
              [
                -76.985815,
                39.826692
              ],
              [
                -76.985815,
                39.82671
              ],
              [
                -76.985787,
                39.82671
              ],
              [
                -76.985787,
                39.826727
              ],
              [
                -76.986024,
                39.826727
              ]
            ]
          ],
          [
            [
              [
                -76.986096,
                39.826787
              ],
              [
                -76.986073,
                39.826787
              ],
              [
                -76.986073,
                39.826511
              ],
              [
                -76.986096,
                39.826511
              ],
              [
                -76.986096,
                39.826787
              ]
            ]
          ],
          [
            [
              [
                -76.986333,
                39.82703
              ],
              [
                -76.986333,
                39.826921
              ],
              [
                -76.986312,
                39.826921
              ],
              [
                -76.986312,
                39.826905
              ],
              [
                -76.98636,
                39.826905
              ],
              [
                -76.98636,
                39.826823
              ],
              [
                -76.986245,
                39.826823
              ],
              [
                -76.986245,
                39.826901
              ],
              [
                -76.986209,
                39.826901
              ],
              [
                -76.986209,
                39.827015
              ],
              [
                -76.986209,
                39.82703
              ],
              [
                -76.986333,
                39.82703
              ]
            ]
          ],
          [
            [
              [
                -76.985759,
                39.826649
              ],
              [
                -76.985759,
                39.826501
              ],
              [
                -76.98579,
                39.826501
              ],
              [
                -76.98579,
                39.826492
              ],
              [
                -76.98596,
                39.826492
              ],
              [
                -76.986047,
                39.826492
              ],
              [
                -76.986047,
                39.826623
              ],
              [
                -76.98596,
                39.826623
              ],
              [
                -76.98596,
                39.826636
              ],
              [
                -76.985947,
                39.826636
              ],
              [
                -76.985947,
                39.826616
              ],
              [
                -76.985815,
                39.826616
              ],
              [
                -76.985815,
                39.826672
              ],
              [
                -76.985787,
                39.826672
              ],
              [
                -76.985787,
                39.826649
              ],
              [
                -76.985759,
                39.826649
              ]
            ]
          ],
          [
            [
              [
                -76.986472,
                39.826796
              ],
              [
                -76.986472,
                39.826743
              ],
              [
                -76.986451,
                39.826743
              ],
              [
                -76.986451,
                39.826511
              ],
              [
                -76.986367,
                39.826511
              ],
              [
                -76.986367,
                39.826787
              ],
              [
                -76.986388,
                39.826787
              ],
              [
                -76.986388,
                39.826796
              ],
              [
                -76.986472,
                39.826796
              ]
            ]
          ],
          [
            [
              [
                -76.985667,
                39.826787
              ],
              [
                -76.985756,
                39.826787
              ],
              [
                -76.985756,
                39.826501
              ],
              [
                -76.985725,
                39.826501
              ],
              [
                -76.985725,
                39.826493
              ],
              [
                -76.985659,
                39.826493
              ],
              [
                -76.985659,
                39.826501
              ],
              [
                -76.985628,
                39.826501
              ],
              [
                -76.985628,
                39.826787
              ],
              [
                -76.985641,
                39.826787
              ],
              [
                -76.985641,
                39.826772
              ],
              [
                -76.985667,
                39.826772
              ],
              [
                -76.985667,
                39.826787
              ]
            ]
          ],
          [
            [
              [
                -76.985756,
                39.826465
              ],
              [
                -76.985756,
                39.826414
              ],
              [
                -76.985628,
                39.826414
              ],
              [
                -76.985628,
                39.826465
              ],
              [
                -76.985661,
                39.826465
              ],
              [
                -76.985661,
                39.826473
              ],
              [
                -76.985725,
                39.826473
              ],
              [
                -76.985725,
                39.826465
              ],
              [
                -76.985756,
                39.826465
              ]
            ]
          ],
          [
            [
              [
                -76.985349,
                39.826412
              ],
              [
                -76.985388,
                39.826412
              ],
              [
                -76.985388,
                39.826427
              ],
              [
                -76.985429,
                39.826427
              ],
              [
                -76.985429,
                39.826412
              ],
              [
                -76.98544,
                39.826412
              ],
              [
                -76.98544,
                39.82649
              ],
              [
                -76.985491,
                39.82649
              ],
              [
                -76.985491,
                39.826501
              ],
              [
                -76.985625,
                39.826501
              ],
              [
                -76.985625,
                39.82679
              ],
              [
                -76.985639,
                39.82679
              ],
              [
                -76.985639,
                39.826805
              ],
              [
                -76.985641,
                39.826805
              ],
              [
                -76.985641,
                39.826809
              ],
              [
                -76.985349,
                39.826809
              ],
              [
                -76.985349,
                39.826412
              ]
            ]
          ],
          [
            [
              [
                -76.985756,
                39.82679
              ],
              [
                -76.985756,
                39.826802
              ],
              [
                -76.985724,
                39.826802
              ],
              [
                -76.985724,
                39.826809
              ],
              [
                -76.985667,
                39.826809
              ],
              [
                -76.985667,
                39.826805
              ],
              [
                -76.985669,
                39.826805
              ],
              [
                -76.985669,
                39.82679
              ],
              [
                -76.985756,
                39.82679
              ]
            ]
          ],
          [
            [
              [
                -76.985756,
                39.826837
              ],
              [
                -76.985756,
                39.827081
              ],
              [
                -76.985349,
                39.827081
              ],
              [
                -76.985349,
                39.827059
              ],
              [
                -76.985368,
                39.827059
              ],
              [
                -76.985368,
                39.827057
              ],
              [
                -76.985387,
                39.827057
              ],
              [
                -76.985387,
                39.826829
              ],
              [
                -76.985724,
                39.826829
              ],
              [
                -76.985724,
                39.826837
              ],
              [
                -76.985756,
                39.826837
              ]
            ]
          ],
          [
            [
              [
                -76.985349,
                39.827049
              ],
              [
                -76.985374,
                39.827049
              ],
              [
                -76.985374,
                39.826829
              ],
              [
                -76.985349,
                39.826829
              ],
              [
                -76.985349,
                39.827049
              ]
            ]
          ],
          [
            [
              [
                -76.986278,
                39.826479
              ],
              [
                -76.986161,
                39.826479
              ],
              [
                -76.986161,
                39.826461
              ],
              [
                -76.986278,
                39.826461
              ],
              [
                -76.986278,
                39.826479
              ]
            ]
          ],
          [
            [
              [
                -76.985625,
                39.826412
              ],
              [
                -76.985349,
                39.826412
              ],
              [
                -76.985349,
                39.827081
              ],
              [
                -76.985756,
                39.827081
              ],
              [
                -76.985756,
                39.82679
              ],
              [
                -76.985625,
                39.82679
              ],
              [
                -76.985625,
                39.826412
              ]
            ]
          ],
          [
            [
              [
                -76.986711,
                39.826785
              ],
              [
                -76.986711,
                39.826701
              ],
              [
                -76.986687,
                39.826701
              ],
              [
                -76.986687,
                39.826533
              ],
              [
                -76.98664,
                39.826533
              ],
              [
                -76.98664,
                39.826511
              ],
              [
                -76.986574,
                39.826511
              ],
              [
                -76.986574,
                39.826712
              ],
              [
                -76.986595,
                39.826712
              ],
              [
                -76.986595,
                39.826789
              ],
              [
                -76.98664,
                39.826789
              ],
              [
                -76.98664,
                39.826785
              ],
              [
                -76.986711,
                39.826785
              ]
            ]
          ]
        ]
      },
      "properties": {
        "fill": "#D9E2F6",
        "stroke-width": "0.5",
        "stroke": "#96A3BD",
        "opacity": "0.75"
      }
    },
    {
      "type": "Feature",
      "geometry": {
        "type": "MultiLineString",
        "coordinates": []
      },
      "properties": {
        "stroke-width": "0.5"
      }
    },
    {
      "type": "Feature",
      "geometry": {
        "type": "Point",
        "coordinates": [
          -76.986104,
          39.826456
        ]
      },
      "properties": {
        "type": "P",
        "sub_category": "ServiceDesks",
        "poi_name": "CUSTOMER SERVICE",
        "profile": "BASIC INFO",
        "icon_id": "customer_service_desk",
        "orientation": 0
      }
    },
    {
      "type": "Feature",
      "geometry": {
        "type": "Point",
        "coordinates": [
          -76.986283,
          39.826491
        ]
      },
      "properties": {
        "type": "P",
        "sub_category": "Checkouts",
        "poi_name": "MAIN CHECKOUT",
        "profile": "BASIC INFO",
        "icon_id": "checkouts",
        "orientation": 0
      }
    },
    {
      "type": "Feature",
      "geometry": {
        "type": "Point",
        "coordinates": [
          -76.986347,
          39.826491
        ]
      },
      "properties": {
        "type": "P",
        "sub_category": "Checkouts",
        "poi_name": "MAIN SELF-CHECKOUT",
        "profile": "BASIC INFO",
        "icon_id": "checkouts",
        "orientation": 0
      }
    },
    {
      "type": "Feature",
      "geometry": {
        "type": "Point",
        "coordinates": [
          -76.986104,
          39.826467
        ]
      },
      "properties": {
        "type": "P",
        "sub_category": "Services",
        "poi_name": "RETURNS",
        "profile": "BASIC INFO",
        "icon_id": "returns",
        "orientation": 0
      }
    },
    {
      "type": "Feature",
      "geometry": {
        "type": "Point",
        "coordinates": [
          -76.986204,
          39.826421
        ]
      },
      "properties": {
        "type": "P",
        "sub_category": "Services",
        "poi_name": "PRODUCT PICK-UP",
        "profile": "BASIC INFO",
        "icon_id": "store_pick_up",
        "orientation": 0
      }
    },
    {
      "type": "Feature",
      "geometry": {
        "type": "Point",
        "coordinates": [
          -76.98617,
          39.826421
        ]
      },
      "properties": {
        "type": "P",
        "sub_category": "Services",
        "poi_name": "PICKUP LOCKER",
        "profile": "BASIC INFO",
        "icon_id": "pickup_lockers",
        "orientation": 0
      }
    },
    {
      "type": "Feature",
      "geometry": {
        "type": "Point",
        "coordinates": [
          -76.986064,
          39.8264
        ]
      },
      "properties": {
        "type": "P",
        "sub_category": "EntryExit",
        "poi_name": "MAIN ENTRANCE",
        "profile": "BASIC INFO",
        "icon_id": "entrance_exit",
        "orientation": 0
      }
    },
    {
      "type": "Feature",
      "geometry": {
        "type": "Point",
        "coordinates": [
          -76.986327,
          39.826426
        ]
      },
      "properties": {
        "type": "P",
        "sub_category": "EntryExit",
        "poi_name": "MAIN EXIT",
        "profile": "BASIC INFO",
        "icon_id": "entrance_exit",
        "orientation": 0
      }
    },
    {
      "type": "Feature",
      "geometry": {
        "type": "Point",
        "coordinates": [
          -76.987019,
          39.8264
        ]
      },
      "properties": {
        "type": "P",
        "sub_category": "EntryExit",
        "poi_name": "PRO ENTRANCE",
        "profile": "BASIC INFO",
        "icon_id": "entrance_exit",
        "orientation": 0
      }
    },
    {
      "type": "Feature",
      "geometry": {
        "type": "Point",
        "coordinates": [
          -76.987019,
          39.826426
        ]
      },
      "properties": {
        "type": "P",
        "sub_category": "EntryExit",
        "poi_name": "PRO EXIT",
        "profile": "BASIC INFO",
        "icon_id": "entrance_exit",
        "orientation": 0
      }
    },
    {
      "type": "Feature",
      "geometry": {
        "type": "Point",
        "coordinates": [
          -76.985503,
          39.826393
        ]
      },
      "properties": {
        "type": "P",
        "sub_category": "EntryExit",
        "poi_name": "GARDEN CENTER ENTRANCE",
        "profile": "BASIC INFO",
        "icon_id": "entrance_exit",
        "orientation": 0
      }
    },
    {
      "type": "Feature",
      "geometry": {
        "type": "Point",
        "coordinates": [
          -76.986291,
          39.827108
        ]
      },
      "properties": {
        "type": "P",
        "sub_category": "Restrooms",
        "poi_name": "MEN/WOMEN’S RESTROOMS",
        "profile": "BASIC INFO",
        "icon_id": "restrooms",
        "orientation": 0
      }
    },
    {
      "type": "Feature",
      "geometry": {
        "type": "Point",
        "coordinates": [
          -76.986959,
          39.826477
        ]
      },
      "properties": {
        "type": "P",
        "sub_category": "ServiceDesks",
        "poi_name": "PRO SERVICE DESK",
        "profile": "BASIC INFO",
        "icon_id": "pro_service_desk",
        "orientation": 0
      }
    },
    {
      "type": "Feature",
      "geometry": {
        "type": "Point",
        "coordinates": [
          -76.98651,
          39.826856
        ]
      },
      "properties": {
        "type": "P",
        "sub_category": "ServiceDesks",
        "poi_name": "FLOORING DESK",
        "profile": "STORE SERVICES",
        "icon_id": "flooring_desk",
        "orientation": 0
      }
    },
    {
      "type": "Feature",
      "geometry": {
        "type": "Point",
        "coordinates": [
          -76.986409,
          39.826753
        ]
      },
      "properties": {
        "type": "P",
        "sub_category": "ServiceDesks",
        "poi_name": "HOME DECOR DESK",
        "profile": "STORE SERVICES",
        "icon_id": "home_décor_desk",
        "orientation": 0
      }
    },
    {
      "type": "Feature",
      "geometry": {
        "type": "Point",
        "coordinates": [
          -76.986296,
          39.826976
        ]
      },
      "properties": {
        "type": "P",
        "sub_category": "ServiceDesks",
        "poi_name": "KITCHEN DESIGN DESK",
        "profile": "STORE SERVICES",
        "icon_id": "kitchen_design_desk",
        "orientation": 0
      }
    },
    {
      "type": "Feature",
      "geometry": {
        "type": "Point",
        "coordinates": [
          -76.987019,
          39.826477
        ]
      },
      "properties": {
        "type": "P",
        "sub_category": "Checkouts",
        "poi_name": "PRO CHECKOUT",
        "profile": "BASIC INFO",
        "icon_id": "checkouts",
        "orientation": 0
      }
    },
    {
      "type": "Feature",
      "geometry": {
        "type": "Point",
        "coordinates": [
          -76.985503,
          39.826477
        ]
      },
      "properties": {
        "type": "P",
        "sub_category": "Checkouts",
        "poi_name": "GARDEN CENTER CHECKOUT",
        "profile": "BASIC INFO",
        "icon_id": "checkouts",
        "orientation": 0
      }
    },
    {
      "type": "Feature",
      "geometry": {
        "type": "Point",
        "coordinates": [
          -76.986145,
          39.826911
        ]
      },
      "properties": {
        "type": "P",
        "sub_category": "ServiceDesks",
        "poi_name": "APPLIANCE DESK",
        "profile": "STORE SERVICES",
        "icon_id": "appliance_desk",
        "orientation": 0
      }
    },
    {
      "type": "Feature",
      "geometry": {
        "type": "Point",
        "coordinates": [
          -76.987038,
          39.826834
        ]
      },
      "properties": {
        "type": "P",
        "sub_category": "Services",
        "poi_name": "WOOD CUTTING",
        "profile": "STORE SERVICES",
        "icon_id": "wood_cutting",
        "orientation": 0
      }
    },
    {
      "type": "Feature",
      "geometry": {
        "type": "Point",
        "coordinates": [
          -76.986298,
          39.826777
        ]
      },
      "properties": {
        "type": "P",
        "sub_category": "Services",
        "poi_name": "WIRE CUTTING",
        "profile": "STORE SERVICES",
        "icon_id": "wire_cutting",
        "orientation": 0
      }
    },
    {
      "type": "Feature",
      "geometry": {
        "type": "Point",
        "coordinates": [
          -76.986404,
          39.826712
        ]
      },
      "properties": {
        "type": "P",
        "sub_category": "Services",
        "poi_name": "BLIND CUTTING",
        "profile": "STORE SERVICES",
        "icon_id": "blind_cutting",
        "orientation": 0
      }
    },
    {
      "type": "Feature",
      "geometry": {
        "type": "Point",
        "coordinates": [
          -76.986839,
          39.826769
        ]
      },
      "properties": {
        "type": "P",
        "sub_category": "Services",
        "poi_name": "GLASS CUTTING",
        "profile": "STORE SERVICES",
        "icon_id": "glass_cutting",
        "orientation": 0
      }
    },
    {
      "type": "Feature",
      "geometry": {
        "type": "Point",
        "coordinates": [
          -76.986757,
          39.826523
        ]
      },
      "properties": {
        "type": "P",
        "sub_category": "Services",
        "poi_name": "KEY CUTTING",
        "profile": "STORE SERVICES",
        "icon_id": "key_copying",
        "orientation": 0
      }
    },
    {
      "type": "Feature",
      "geometry": {
        "type": "Point",
        "coordinates": [
          -76.986789,
          39.826733
        ]
      },
      "properties": {
        "type": "P",
        "sub_category": "Services",
        "poi_name": "CHAIN AND ROPE CUTTING",
        "profile": "STORE SERVICES",
        "icon_id": "chain_rope_cutting",
        "orientation": 0
      }
    },
    {
      "type": "Feature",
      "geometry": {
        "type": "Point",
        "coordinates": [
          -76.985503,
          39.826414
        ]
      },
      "properties": {
        "type": "P",
        "sub_category": "EntryExit",
        "poi_name": "GARDEN CENTER EXIT",
        "profile": "BASIC INFO",
        "icon_id": "entrance_exit",
        "orientation": 0
      }
    },
    {
      "type": "Feature",
      "geometry": {
        "type": "Point",
        "coordinates": [
          -76.986497,
          39.827058
        ]
      },
      "properties": {
        "type": "P",
        "sub_category": "Services",
        "poi_name": "CARPET CUTTING",
        "profile": "STORE SERVICES",
        "icon_id": "carpet_cutting",
        "orientation": 0
      }
    },
    {
      "type": "Feature",
      "geometry": {
        "type": "Point",
        "coordinates": [
          -76.986587,
          39.827058
        ]
      },
      "properties": {
        "type": "P",
        "sub_category": "Services",
        "poi_name": "CARPET CUTTING",
        "profile": "STORE SERVICES",
        "icon_id": "carpet_cutting",
        "orientation": 0
      }
    },
    {
      "type": "Feature",
      "geometry": {
        "type": "Point",
        "coordinates": [
          -76.986791,
          39.82682
        ]
      },
      "properties": {
        "type": "P",
        "sub_category": "ServiceDesks",
        "poi_name": "MILLWORK DESK",
        "profile": "STORE SERVICES",
        "icon_id": "millwork_desk",
        "orientation": 0
      }
    },
    {
      "type": "Feature",
      "geometry": {
        "type": "Point",
        "coordinates": [
          -76.98613,
          39.827161
        ]
      },
      "properties": {
        "type": "P",
        "sub_category": "ServiceDesks",
        "poi_name": "RECEIVING DESK",
        "profile": "BASIC INFO",
        "icon_id": "receiving_desk",
        "orientation": 0
      }
    },
    {
      "type": "Feature",
      "geometry": {
        "type": "Point",
        "coordinates": [
          -76.985704,
          39.826937
        ]
      },
      "properties": {
        "name": "INSIDE LAWN AND GARDEN",
        "orientation": 0
      }
    },
    {
      "type": "Feature",
      "geometry": {
        "type": "Point",
        "coordinates": [
          -76.98686,
          39.826897
        ]
      },
      "properties": {
        "name": "BUILDING MATERIALS",
        "orientation": 0
      }
    },
    {
      "type": "Feature",
      "geometry": {
        "type": "Point",
        "coordinates": [
          -76.985892,
          39.827027
        ]
      },
      "properties": {
        "name": "CABINETS",
        "orientation": 0
      }
    },
    {
      "type": "Feature",
      "geometry": {
        "type": "Point",
        "coordinates": [
          -76.985823,
          39.826443
        ]
      },
      "properties": {
        "name": "INSIDE LAWN AND GARDEN",
        "orientation": 0
      }
    },
    {
      "type": "Feature",
      "geometry": {
        "type": "Point",
        "coordinates": [
          -76.987037,
          39.826646
        ]
      },
      "properties": {
        "name": "LUMBER",
        "orientation": 0
      }
    },
    {
      "type": "Feature",
      "geometry": {
        "type": "Point",
        "coordinates": [
          -76.985924,
          39.827069
        ]
      },
      "properties": {
        "name": "CABINETS",
        "orientation": 0
      }
    },
    {
      "type": "Feature",
      "geometry": {
        "type": "Point",
        "coordinates": [
          -76.986303,
          39.82665
        ]
      },
      "properties": {
        "name": "ROUGH ELECTRICAL",
        "orientation": 0
      }
    },
    {
      "type": "Feature",
      "geometry": {
        "type": "Point",
        "coordinates": [
          -76.987016,
          39.826951
        ]
      },
      "properties": {
        "name": "LUMBER",
        "orientation": 0
      }
    },
    {
      "type": "Feature",
      "geometry": {
        "type": "Point",
        "coordinates": [
          -76.98711,
          39.826748
        ]
      },
      "properties": {
        "name": "LUMBER",
        "orientation": 0
      }
    },
    {
      "type": "Feature",
      "geometry": {
        "type": "Point",
        "coordinates": [
          -76.98619,
          39.826649
        ]
      },
      "properties": {
        "name": "LIGHTING",
        "orientation": 0
      }
    },
    {
      "type": "Feature",
      "geometry": {
        "type": "Point",
        "coordinates": [
          -76.985892,
          39.826764
        ]
      },
      "properties": {
        "name": "ROUGH PLUMBING",
        "orientation": 0
      }
    },
    {
      "type": "Feature",
      "geometry": {
        "type": "Point",
        "coordinates": [
          -76.985899,
          39.826933
        ]
      },
      "properties": {
        "name": "FASHION PLUMBING",
        "orientation": 0
      }
    },
    {
      "type": "Feature",
      "geometry": {
        "type": "Point",
        "coordinates": [
          -76.986938,
          39.826945
        ]
      },
      "properties": {
        "name": "BUILDING MATERIALS",
        "orientation": 0
      }
    },
    {
      "type": "Feature",
      "geometry": {
        "type": "Point",
        "coordinates": [
          -76.986835,
          39.826951
        ]
      },
      "properties": {
        "name": "MILLWORK",
        "orientation": 0
      }
    },
    {
      "type": "Feature",
      "geometry": {
        "type": "Point",
        "coordinates": [
          -76.985901,
          39.826914
        ]
      },
      "properties": {
        "name": "ROUGH PLUMBING",
        "orientation": 0
      }
    },
    {
      "type": "Feature",
      "geometry": {
        "type": "Point",
        "coordinates": [
          -76.986357,
          39.826649
        ]
      },
      "properties": {
        "name": "ROUGH PLUMBING",
        "orientation": 0
      }
    },
    {
      "type": "Feature",
      "geometry": {
        "type": "Point",
        "coordinates": [
          -76.98692,
          39.826646
        ]
      },
      "properties": {
        "name": "BUILDING MATERIALS",
        "orientation": 0
      }
    },
    {
      "type": "Feature",
      "geometry": {
        "type": "Point",
        "coordinates": [
          -76.986206,
          39.826951
        ]
      },
      "properties": {
        "name": "APPLIANCES",
        "orientation": 0
      }
    },
    {
      "type": "Feature",
      "geometry": {
        "type": "Point",
        "coordinates": [
          -76.98683,
          39.826716
        ]
      },
      "properties": {
        "name": "HARDWARE",
        "orientation": 0
      }
    },
    {
      "type": "Feature",
      "geometry": {
        "type": "Point",
        "coordinates": [
          -76.98674,
          39.826649
        ]
      },
      "properties": {
        "name": "HARDWARE",
        "orientation": 0
      }
    },
    {
      "type": "Feature",
      "geometry": {
        "type": "Point",
        "coordinates": [
          -76.986523,
          39.826645
        ]
      },
      "properties": {
        "name": "PAINT",
        "orientation": 0
      }
    },
    {
      "type": "Feature",
      "geometry": {
        "type": "Point",
        "coordinates": [
          -76.986818,
          39.826649
        ]
      },
      "properties": {
        "name": "TOOLS",
        "orientation": 0
      }
    },
    {
      "type": "Feature",
      "geometry": {
        "type": "Point",
        "coordinates": [
          -76.986502,
          39.826951
        ]
      },
      "properties": {
        "name": "FLOORING",
        "orientation": 0
      }
    },
    {
      "type": "Feature",
      "geometry": {
        "type": "Point",
        "coordinates": [
          -76.985903,
          39.826667
        ]
      },
      "properties": {
        "name": "OUTDOOR POWER EQUIPMENT",
        "orientation": 0
      }
    },
    {
      "type": "Feature",
      "geometry": {
        "type": "Point",
        "coordinates": [
          -76.986659,
          39.826447
        ]
      },
      "properties": {
        "name": "TOOLS",
        "orientation": 0
      }
    },
    {
      "type": "Feature",
      "geometry": {
        "type": "Point",
        "coordinates": [
          -76.985906,
          39.82671
        ]
      },
      "properties": {
        "name": "CLEANING",
        "orientation": 0
      }
    },
    {
      "type": "Feature",
      "geometry": {
        "type": "Point",
        "coordinates": [
          -76.986084,
          39.826649
        ]
      },
      "properties": {
        "name": "CLEANING",
        "orientation": 0
      }
    },
    {
      "type": "Feature",
      "geometry": {
        "type": "Point",
        "coordinates": [
          -76.986285,
          39.826927
        ]
      },
      "properties": {
        "name": "CABINETS",
        "orientation": 0
      }
    },
    {
      "type": "Feature",
      "geometry": {
        "type": "Point",
        "coordinates": [
          -76.985903,
          39.826582
        ]
      },
      "properties": {
        "name": "INSIDE LAWN AND GARDEN",
        "orientation": 0
      }
    },
    {
      "type": "Feature",
      "geometry": {
        "type": "Point",
        "coordinates": [
          -76.98642,
          39.826654
        ]
      },
      "properties": {
        "name": "HOME DECOR",
        "orientation": 0
      }
    },
    {
      "type": "Feature",
      "geometry": {
        "type": "Point",
        "coordinates": [
          -76.985692,
          39.82664
        ]
      },
      "properties": {
        "name": "INSIDE LAWN AND GARDEN",
        "orientation": 0
      }
    },
    {
      "type": "Feature",
      "geometry": {
        "type": "Point",
        "coordinates": [
          -76.985692,
          39.826443
        ]
      },
      "properties": {
        "name": "INSIDE LAWN AND GARDEN",
        "orientation": 0
      }
    },
    {
      "type": "Feature",
      "geometry": {
        "type": "Point",
        "coordinates": [
          -76.985495,
          39.82661
        ]
      },
      "properties": {
        "name": "OUTSIDE LAWN AND GARDEN",
        "orientation": 0
      }
    },
    {
      "type": "Feature",
      "geometry": {
        "type": "Point",
        "coordinates": [
          -76.985711,
          39.8268
        ]
      },
      "properties": {
        "name": "OUTSIDE LAWN AND GARDEN",
        "orientation": 0
      }
    },
    {
      "type": "Feature",
      "geometry": {
        "type": "Point",
        "coordinates": [
          -76.985552,
          39.826955
        ]
      },
      "properties": {
        "name": "OUTSIDE LAWN AND GARDEN",
        "orientation": 0
      }
    },
    {
      "type": "Feature",
      "geometry": {
        "type": "Point",
        "coordinates": [
          -76.985362,
          39.826939
        ]
      },
      "properties": {
        "name": "OUTSIDE LAWN AND GARDEN",
        "orientation": 0
      }
    },
    {
      "type": "Feature",
      "geometry": {
        "type": "Point",
        "coordinates": [
          -76.985552,
          39.826746
        ]
      },
      "properties": {
        "name": "GARDEN CENTER",
        "orientation": 0
      }
    },
    {
      "type": "Feature",
      "geometry": {
        "type": "Point",
        "coordinates": [
          -76.986642,
          39.82665
        ]
      },
      "properties": {
        "name": "STORAGE",
        "orientation": 0
      }
    }
  ]
}