{
  "type": "FeatureCollection",
  "features": [
    {
      "type": "Feature",
      "geometry": {
        "type": "MultiPolygon",
        "coordinates": [
          [
            [
              [
                -72.71622894698592,
                41.814247887188216
              ],
              [
                -72.71626120895775,
                41.814247887188216
              ],
              [
                -72.71626120895775,
                41.81430095328799
              ],
              [
                -72.71622894698592,
                41.81430095328799
              ],
              [
                -72.71622894698592,
                41.814247887188216
              ]
            ]
          ],
          [
            [
              [
                -72.71637993301408,
                41.814237874716554
              ],
              [
                -72.71634509008452,
                41.814237874716554
              ],
              [
                -72.71630379476056,
                41.814237874716554
              ],
              [
                -72.71630379476056,
                41.81432798696145
              ],
              [
                -72.71626120895775,
                41.81432798696145
              ],
              [
                -72.71626120895775,
                41.81451321768708
              ],
              [
                -72.71627669470422,
                41.81451321768708
              ],
              [
                -72.71627669470422,
                41.814543255102045
              ],
              [
                -72.71619539453522,
                41.814543255102045
              ],
              [
                -72.71619539453522,
                41.814579300000005
              ],
              [
                -72.71632057098591,
                41.814579300000005
              ],
              [
                -72.71632057098591,
                41.81456127755102
              ],
              [
                -72.71633863769014,
                41.81456127755102
              ],
              [
                -72.71633863769014,
                41.81454926258504
              ],
              [
                -72.71637993301408,
                41.81454926258504
              ],
              [
                -72.71637993301408,
                41.814237874716554
              ]
            ]
          ],
          [
            [
              [
                -72.7164509093521,
                41.81424888843538
              ],
              [
                -72.71641735690142,
                41.81424888843538
              ],
              [
                -72.71641735690142,
                41.81450620895692
              ],
              [
                -72.7164509093521,
                41.81450620895692
              ],
              [
                -72.7164509093521,
                41.81424888843538
              ]
            ]
          ],
          [
            [
              [
                -72.71637993301408,
                41.81390646190477
              ],
              [
                -72.7163025042817,
                41.81390646190477
              ],
              [
                -72.7163025042817,
                41.814202831065764
              ],
              [
                -72.71637993301408,
                41.814202831065764
              ],
              [
                -72.71637993301408,
                41.81390646190477
              ]
            ]
          ],
          [
            [
              [
                -72.71653350000001,
                41.814579300000005
              ],
              [
                -72.71642122833802,
                41.814579300000005
              ],
              [
                -72.71642122833802,
                41.81454926258504
              ],
              [
                -72.71641735690142,
                41.81454926258504
              ],
              [
                -72.71641735690142,
                41.814538248866214
              ],
              [
                -72.71653350000001,
                41.814538248866214
              ],
              [
                -72.71653350000001,
                41.814579300000005
              ]
            ]
          ],
          [
            [
              [
                -72.71626120895775,
                41.81432798696145
              ],
              [
                -72.71630379476056,
                41.81432798696145
              ],
              [
                -72.71630379476056,
                41.814247887188216
              ],
              [
                -72.71626120895775,
                41.814247887188216
              ],
              [
                -72.71626120895775,
                41.81432798696145
              ]
            ]
          ],
          [
            [
              [
                -72.71616829447888,
                41.814434119161
              ],
              [
                -72.71619797549295,
                41.814434119161
              ],
              [
                -72.71619797549295,
                41.81424988968255
              ],
              [
                -72.71616829447888,
                41.81424988968255
              ],
              [
                -72.71616829447888,
                41.814434119161
              ]
            ]
          ],
          [
            [
              [
                -72.71621475171831,
                41.8139144718821
              ],
              [
                -72.71621475171831,
                41.813994571655336
              ],
              [
                -72.71618248974647,
                41.813994571655336
              ],
              [
                -72.71618248974647,
                41.81408668639457
              ],
              [
                -72.71618119926761,
                41.81408668639457
              ],
              [
                -72.71618119926761,
                41.81419381984128
              ],
              [
                -72.71621475171831,
                41.81419381984128
              ],
              [
                -72.71621475171831,
                41.814202831065764
              ],
              [
                -72.7163025042817,
                41.814202831065764
              ],
              [
                -72.7163025042817,
                41.81390646190477
              ],
              [
                -72.7162779851831,
                41.81390646190477
              ],
              [
                -72.7162779851831,
                41.8139144718821
              ],
              [
                -72.71621475171831,
                41.8139144718821
              ]
            ]
          ],
          [
            [
              [
                -72.71653350000001,
                41.8138503920635
              ],
              [
                -72.7164909141972,
                41.8138503920635
              ],
              [
                -72.7164909141972,
                41.81390646190477
              ],
              [
                -72.71641735690142,
                41.81390646190477
              ],
              [
                -72.71641735690142,
                41.813923483106585
              ],
              [
                -72.71640445211268,
                41.813923483106585
              ],
              [
                -72.71640445211268,
                41.813998576644
              ],
              [
                -72.71641735690142,
                41.813998576644
              ],
              [
                -72.71641735690142,
                41.81418881360545
              ],
              [
                -72.71646639509858,
                41.81418881360545
              ],
              [
                -72.71646639509858,
                41.81424888843538
              ],
              [
                -72.7164509093521,
                41.81424888843538
              ],
              [
                -72.7164509093521,
                41.81450620895692
              ],
              [
                -72.71641735690142,
                41.81450620895692
              ],
              [
                -72.71641735690142,
                41.814538248866214
              ],
              [
                -72.71653350000001,
                41.814538248866214
              ],
              [
                -72.71653350000001,
                41.8138503920635
              ]
            ]
          ],
          [
            [
              [
                -72.71619539453522,
                41.814578298752835
              ],
              [
                -72.71619539453522,
                41.814579300000005
              ],
              [
                -72.71597988456338,
                41.814579300000005
              ],
              [
                -72.71597988456338,
                41.8145532675737
              ],
              [
                -72.71595923690143,
                41.8145532675737
              ],
              [
                -72.71595923690143,
                41.81425089092971
              ],
              [
                -72.71599020839437,
                41.81424988968255
              ],
              [
                -72.71599020839437,
                41.814237874716554
              ],
              [
                -72.71610764197183,
                41.814237874716554
              ],
              [
                -72.71610764197183,
                41.81424988968255
              ],
              [
                -72.71616829447888,
                41.81424988968255
              ],
              [
                -72.71616829447888,
                41.814434119161
              ],
              [
                -72.71619797549295,
                41.814434119161
              ],
              [
                -72.71619797549295,
                41.81435602188209
              ],
              [
                -72.71619797549295,
                41.814302955782324
              ],
              [
                -72.71619797549295,
                41.81424988968255
              ],
              [
                -72.71622894698592,
                41.81424988968255
              ],
              [
                -72.71622894698592,
                41.81430095328799
              ],
              [
                -72.71626120895775,
                41.81430095328799
              ],
              [
                -72.71626120895775,
                41.814460151587305
              ],
              [
                -72.71626120895775,
                41.81451321768708
              ],
              [
                -72.71627669470422,
                41.81451321768708
              ],
              [
                -72.71627669470422,
                41.814543255102045
              ],
              [
                -72.71619539453522,
                41.814543255102045
              ],
              [
                -72.71619539453522,
                41.814578298752835
              ]
            ]
          ],
          [
            [
              [
                -72.71589084152113,
                41.81391547312926
              ],
              [
                -72.71589084152113,
                41.81419281859411
              ],
              [
                -72.71586116050705,
                41.81419281859411
              ],
              [
                -72.71586116050705,
                41.81419381984128
              ],
              [
                -72.71580179847888,
                41.81419381984128
              ],
              [
                -72.71580179847888,
                41.814191817346945
              ],
              [
                -72.71574372692959,
                41.814191817346945
              ],
              [
                -72.71574372692959,
                41.81417479614513
              ],
              [
                -72.71568436490142,
                41.81417479614513
              ],
              [
                -72.71568436490142,
                41.81419381984128
              ],
              [
                -72.71565468388734,
                41.81419381984128
              ],
              [
                -72.71565468388734,
                41.8140916926304
              ],
              [
                -72.71568436490142,
                41.8140916926304
              ],
              [
                -72.71568436490142,
                41.81406666145126
              ],
              [
                -72.71565468388734,
                41.81406666145126
              ],
              [
                -72.71565468388734,
                41.81391547312926
              ],
              [
                -72.71568436490142,
                41.81391547312926
              ],
              [
                -72.71568436490142,
                41.81392047936509
              ],
              [
                -72.7157140459155,
                41.81392047936509
              ],
              [
                -72.71580179847888,
                41.81392047936509
              ],
              [
                -72.71580179847888,
                41.81391547312926
              ],
              [
                -72.71589084152113,
                41.81391547312926
              ]
            ]
          ],
          [
            [
              [
                -72.71600440366198,
                41.81419381984128
              ],
              [
                -72.71593600828169,
                41.81419381984128
              ],
              [
                -72.71592310349297,
                41.81419381984128
              ],
              [
                -72.71592310349297,
                41.81419281859411
              ],
              [
                -72.71589084152113,
                41.81419281859411
              ],
              [
                -72.71589084152113,
                41.81391547312926
              ],
              [
                -72.71600440366198,
                41.81391547312926
              ],
              [
                -72.71600440366198,
                41.81419381984128
              ]
            ]
          ],
          [
            [
              [
                -72.71595923690143,
                41.81425089092971
              ],
              [
                -72.71595923690143,
                41.814543255102045
              ],
              [
                -72.71595923690143,
                41.8145532675737
              ],
              [
                -72.71597988456338,
                41.8145532675737
              ],
              [
                -72.71597988456338,
                41.814579300000005
              ],
              [
                -72.71594762259156,
                41.814579300000005
              ],
              [
                -72.71594762259156,
                41.81456127755102
              ],
              [
                -72.71592955588731,
                41.81456127755102
              ],
              [
                -72.71592955588731,
                41.814579300000005
              ],
              [
                -72.71573211261972,
                41.814579300000005
              ],
              [
                -72.71573211261972,
                41.8145532675737
              ],
              [
                -72.71563661718311,
                41.8145532675737
              ],
              [
                -72.71563661718311,
                41.81453124013606
              ],
              [
                -72.7156895268169,
                41.81453124013606
              ],
              [
                -72.7156895268169,
                41.8145242314059
              ],
              [
                -72.71571533639437,
                41.8145242314059
              ],
              [
                -72.71571533639437,
                41.81424688594105
              ],
              [
                -72.71573985549296,
                41.81424688594105
              ],
              [
                -72.71573985549296,
                41.814237874716554
              ],
              [
                -72.71592826540845,
                41.814237874716554
              ],
              [
                -72.71592826540845,
                41.81425089092971
              ],
              [
                -72.71595923690143,
                41.81425089092971
              ]
            ]
          ],
          [
            [
              [
                -72.71618119926761,
                41.81419381984128
              ],
              [
                -72.71608699430986,
                41.81419381984128
              ],
              [
                -72.71608699430986,
                41.81419281859411
              ],
              [
                -72.71606118473241,
                41.81419281859411
              ],
              [
                -72.71606118473241,
                41.81419381984128
              ],
              [
                -72.71603666563381,
                41.81419381984128
              ],
              [
                -72.71603666563381,
                41.81419281859411
              ],
              [
                -72.71600440366198,
                41.81419281859411
              ],
              [
                -72.71600440366198,
                41.81391547312926
              ],
              [
                -72.71614506585915,
                41.81391547312926
              ],
              [
                -72.71614506585915,
                41.8139144718821
              ],
              [
                -72.71618248974647,
                41.8139144718821
              ],
              [
                -72.71618248974647,
                41.81408668639457
              ],
              [
                -72.71618119926761,
                41.81408668639457
              ],
              [
                -72.71618119926761,
                41.81419381984128
              ]
            ]
          ],
          [
            [
              [
                -72.7152223734648,
                41.81423987721089
              ],
              [
                -72.7152223734648,
                41.81425089092971
              ],
              [
                -72.71524947352114,
                41.81425089092971
              ],
              [
                -72.71524947352114,
                41.81452823639456
              ],
              [
                -72.71523527825353,
                41.81452823639456
              ],
              [
                -72.71523527825353,
                41.814547260090706
              ],
              [
                -72.71519785436621,
                41.814547260090706
              ],
              [
                -72.71519785436621,
                41.814579300000005
              ],
              [
                -72.71516559239437,
                41.814579300000005
              ],
              [
                -72.71516559239437,
                41.81456127755102
              ],
              [
                -72.71514752569016,
                41.81456127755102
              ],
              [
                -72.71514752569016,
                41.814579300000005
              ],
              [
                -72.71497976343663,
                41.814579300000005
              ],
              [
                -72.71497976343663,
                41.8145532675737
              ],
              [
                -72.71492943476058,
                41.8145532675737
              ],
              [
                -72.71492943476058,
                41.81452823639456
              ],
              [
                -72.71505590169015,
                41.81452823639456
              ],
              [
                -72.71505590169015,
                41.814522228911564
              ],
              [
                -72.71505332073241,
                41.814522228911564
              ],
              [
                -72.71505332073241,
                41.81423987721089
              ],
              [
                -72.7152223734648,
                41.81423987721089
              ]
            ]
          ],
          [
            [
              [
                -72.71549595498593,
                41.81391547312926
              ],
              [
                -72.71549595498593,
                41.8141177250567
              ],
              [
                -72.71547143588732,
                41.8141177250567
              ],
              [
                -72.71547143588732,
                41.81391547312926
              ],
              [
                -72.71549595498593,
                41.81391547312926
              ]
            ]
          ],
          [
            [
              [
                -72.71544175487324,
                41.81391547312926
              ],
              [
                -72.71544175487324,
                41.81419281859411
              ],
              [
                -72.71541723577465,
                41.81419281859411
              ],
              [
                -72.71541723577465,
                41.8141667861678
              ],
              [
                -72.71538755476057,
                41.8141667861678
              ],
              [
                -72.71538755476057,
                41.814191817346945
              ],
              [
                -72.71530496411268,
                41.814191817346945
              ],
              [
                -72.71530496411268,
                41.81419281859411
              ],
              [
                -72.71527786405635,
                41.81419281859411
              ],
              [
                -72.71527786405635,
                41.81391547312926
              ],
              [
                -72.71530496411268,
                41.81391547312926
              ],
              [
                -72.71530496411268,
                41.81391347063493
              ],
              [
                -72.71532948321128,
                41.81391347063493
              ],
              [
                -72.71532948321128,
                41.8139144718821
              ],
              [
                -72.71541723577465,
                41.8139144718821
              ],
              [
                -72.71541723577465,
                41.81391547312926
              ],
              [
                -72.71544175487324,
                41.81391547312926
              ]
            ]
          ],
          [
            [
              [
                -72.71565468388734,
                41.81391547312926
              ],
              [
                -72.71565468388734,
                41.81419381984128
              ],
              [
                -72.71552176456338,
                41.81419381984128
              ],
              [
                -72.71552176456338,
                41.81419281859411
              ],
              [
                -72.71547143588732,
                41.81419281859411
              ],
              [
                -72.71547143588732,
                41.8141177250567
              ],
              [
                -72.71549595498593,
                41.8141177250567
              ],
              [
                -72.71549595498593,
                41.81391547312926
              ],
              [
                -72.71552176456338,
                41.81391547312926
              ],
              [
                -72.71552176456338,
                41.81390646190477
              ],
              [
                -72.71562500287325,
                41.81390646190477
              ],
              [
                -72.71562500287325,
                41.81391547312926
              ],
              [
                -72.71565468388734,
                41.81391547312926
              ]
            ]
          ],
          [
            [
              [
                -72.71547143588732,
                41.81404163027212
              ],
              [
                -72.71544175487324,
                41.81404163027212
              ],
              [
                -72.71544175487324,
                41.81391547312926
              ],
              [
                -72.71547143588732,
                41.81391547312926
              ],
              [
                -72.71547143588732,
                41.81404163027212
              ]
            ]
          ],
          [
            [
              [
                -72.71621475171831,
                41.813994571655336
              ],
              [
                -72.71618248974647,
                41.813994571655336
              ],
              [
                -72.71618248974647,
                41.8139144718821
              ],
              [
                -72.71621475171831,
                41.8139144718821
              ],
              [
                -72.71621475171831,
                41.813994571655336
              ]
            ]
          ],
          [
            [
              [
                -72.71628572805633,
                41.81379832721089
              ],
              [
                -72.71628572805633,
                41.813813345918376
              ],
              [
                -72.71627024230986,
                41.813813345918376
              ],
              [
                -72.71627024230986,
                41.81386941575965
              ],
              [
                -72.71628959949295,
                41.81386941575965
              ],
              [
                -72.71628959949295,
                41.81387542324264
              ],
              [
                -72.71617474687324,
                41.81387542324264
              ],
              [
                -72.71617474687324,
                41.81386841451248
              ],
              [
                -72.7161140943662,
                41.81386841451248
              ],
              [
                -72.7161140943662,
                41.81387542324264
              ],
              [
                -72.7157630841127,
                41.81387542324264
              ],
              [
                -72.7157630841127,
                41.81381234467121
              ],
              [
                -72.71574114597183,
                41.81381234467121
              ],
              [
                -72.71574114597183,
                41.81379832721089
              ],
              [
                -72.71628572805633,
                41.81379832721089
              ]
            ]
          ],
          [
            [
              [
                -72.71519398292958,
                41.81414976496599
              ],
              [
                -72.71497331104227,
                41.81414976496599
              ],
              [
                -72.71497331104227,
                41.8141727936508
              ],
              [
                -72.71494233954931,
                41.8141727936508
              ],
              [
                -72.71494233954931,
                41.81414976496599
              ],
              [
                -72.71487910608452,
                41.81414976496599
              ],
              [
                -72.71487910608452,
                41.81412673628119
              ],
              [
                -72.71486362033805,
                41.81412673628119
              ],
              [
                -72.71486362033805,
                41.81405564773244
              ],
              [
                -72.71506880647888,
                41.81405564773244
              ],
              [
                -72.71506880647888,
                41.81412673628119
              ],
              [
                -72.71508429222536,
                41.81412673628119
              ],
              [
                -72.71508429222536,
                41.81403962777779
              ],
              [
                -72.7152223734648,
                41.81403962777779
              ],
              [
                -72.7152223734648,
                41.81412673628119
              ],
              [
                -72.71519398292958,
                41.81412673628119
              ],
              [
                -72.71519398292958,
                41.81414976496599
              ]
            ]
          ],
          [
            [
              [
                -72.71534625943663,
                41.81426490839003
              ],
              [
                -72.71534625943663,
                41.814237874716554
              ],
              [
                -72.7156224219155,
                41.814237874716554
              ],
              [
                -72.7156224219155,
                41.81430395702949
              ],
              [
                -72.71561209808452,
                41.81430395702949
              ],
              [
                -72.71560951712677,
                41.81430395702949
              ],
              [
                -72.71560951712677,
                41.81430595952382
              ],
              [
                -72.7155591884507,
                41.81430595952382
              ],
              [
                -72.7155591884507,
                41.814337999433114
              ],
              [
                -72.7155449931831,
                41.814337999433114
              ],
              [
                -72.7155449931831,
                41.814511215192745
              ],
              [
                -72.71557725515494,
                41.814511215192745
              ],
              [
                -72.71557725515494,
                41.814465157823136
              ],
              [
                -72.71561080760564,
                41.814465157823136
              ],
              [
                -72.71561080760564,
                41.81451922517007
              ],
              [
                -72.7156224219155,
                41.81451922517007
              ],
              [
                -72.7156224219155,
                41.81453124013606
              ],
              [
                -72.71563661718311,
                41.81453124013606
              ],
              [
                -72.71563661718311,
                41.814579300000005
              ],
              [
                -72.71555660749296,
                41.814579300000005
              ],
              [
                -72.71555660749296,
                41.81456127755102
              ],
              [
                -72.71553854078874,
                41.81456127755102
              ],
              [
                -72.71553854078874,
                41.814579300000005
              ],
              [
                -72.71532819273241,
                41.814579300000005
              ],
              [
                -72.71532819273241,
                41.81452823639456
              ],
              [
                -72.7153333546479,
                41.81452823639456
              ],
              [
                -72.7153333546479,
                41.81451722267575
              ],
              [
                -72.7153617451831,
                41.81451722267575
              ],
              [
                -72.7153617451831,
                41.81426490839003
              ],
              [
                -72.71534625943663,
                41.81426490839003
              ]
            ]
          ],
          [
            [
              [
                -72.71483393932397,
                41.81425289342405
              ],
              [
                -72.71486491081691,
                41.81425289342405
              ],
              [
                -72.71486491081691,
                41.81450921269842
              ],
              [
                -72.71483264884507,
                41.81450921269842
              ],
              [
                -72.71483264884507,
                41.81425289342405
              ],
              [
                -72.71483393932397,
                41.81425289342405
              ]
            ]
          ],
          [
            [
              [
                -72.71505332073241,
                41.81423987721089
              ],
              [
                -72.71505332073241,
                41.814522228911564
              ],
              [
                -72.71505590169015,
                41.814522228911564
              ],
              [
                -72.71505590169015,
                41.81452823639456
              ],
              [
                -72.71492943476058,
                41.81452823639456
              ],
              [
                -72.71492943476058,
                41.8145532675737
              ],
              [
                -72.71497976343663,
                41.8145532675737
              ],
              [
                -72.71497976343663,
                41.814579300000005
              ],
              [
                -72.71483135836621,
                41.814579300000005
              ],
              [
                -72.71483264884507,
                41.81454926258504
              ],
              [
                -72.71488168704226,
                41.81454926258504
              ],
              [
                -72.71488168704226,
                41.814258900907035
              ],
              [
                -72.71494233954931,
                41.814258900907035
              ],
              [
                -72.71494233954931,
                41.81423987721089
              ],
              [
                -72.71505332073241,
                41.81423987721089
              ]
            ]
          ],
          [
            [
              [
                -72.71527786405635,
                41.81391347063493
              ],
              [
                -72.71525334495774,
                41.81391347063493
              ],
              [
                -72.71525334495774,
                41.81419281859411
              ],
              [
                -72.71527786405635,
                41.81419281859411
              ],
              [
                -72.71527786405635,
                41.81391347063493
              ]
            ]
          ],
          [
            [
              [
                -72.71517720670424,
                41.81419582233561
              ],
              [
                -72.71489330135213,
                41.81419582233561
              ],
              [
                -72.71489330135213,
                41.81421484603175
              ],
              [
                -72.71487136321129,
                41.81421484603175
              ],
              [
                -72.71487136321129,
                41.814206836054424
              ],
              [
                -72.71486362033805,
                41.814206836054424
              ],
              [
                -72.71486362033805,
                41.81418480861679
              ],
              [
                -72.71487910608452,
                41.81418480861679
              ],
              [
                -72.71487910608452,
                41.81414976496599
              ],
              [
                -72.71491007757747,
                41.81414976496599
              ],
              [
                -72.71491007757747,
                41.8141727936508
              ],
              [
                -72.71517720670424,
                41.8141727936508
              ],
              [
                -72.71517720670424,
                41.81419582233561
              ]
            ]
          ],
          [
            [
              [
                -72.71571533639437,
                41.8145242314059
              ],
              [
                -72.7156895268169,
                41.8145242314059
              ],
              [
                -72.7156895268169,
                41.81453124013606
              ],
              [
                -72.7156224219155,
                41.81453124013606
              ],
              [
                -72.7156224219155,
                41.81451922517007
              ],
              [
                -72.71561080760564,
                41.81451922517007
              ],
              [
                -72.71561080760564,
                41.814465157823136
              ],
              [
                -72.71557725515494,
                41.814465157823136
              ],
              [
                -72.71557725515494,
                41.814511215192745
              ],
              [
                -72.7155449931831,
                41.814511215192745
              ],
              [
                -72.7155449931831,
                41.814337999433114
              ],
              [
                -72.7155591884507,
                41.814337999433114
              ],
              [
                -72.7155591884507,
                41.81430595952382
              ],
              [
                -72.71561080760564,
                41.81430595952382
              ],
              [
                -72.71561080760564,
                41.81430395702949
              ],
              [
                -72.7156224219155,
                41.81430395702949
              ],
              [
                -72.7156224219155,
                41.814237874716554
              ],
              [
                -72.7156895268169,
                41.814237874716554
              ],
              [
                -72.7156895268169,
                41.81424688594105
              ],
              [
                -72.71571533639437,
                41.81424688594105
              ],
              [
                -72.71571533639437,
                41.8145242314059
              ]
            ]
          ],
          [
            [
              [
                -72.71573211261972,
                41.814579300000005
              ],
              [
                -72.71563661718311,
                41.814579300000005
              ],
              [
                -72.71563661718311,
                41.8145532675737
              ],
              [
                -72.71573211261972,
                41.8145532675737
              ],
              [
                -72.71573211261972,
                41.814579300000005
              ]
            ]
          ],
          [
            [
              [
                -72.71506235408452,
                41.81379832721089
              ],
              [
                -72.71506235408452,
                41.813821355895705
              ],
              [
                -72.71502751115493,
                41.813821355895705
              ],
              [
                -72.71502751115493,
                41.81386641201815
              ],
              [
                -72.71487136321129,
                41.81386641201815
              ],
              [
                -72.71487136321129,
                41.81385740079366
              ],
              [
                -72.71483264884507,
                41.81385740079366
              ],
              [
                -72.71483264884507,
                41.81379832721089
              ],
              [
                -72.71485329650704,
                41.81379832721089
              ],
              [
                -72.71485329650704,
                41.813816349659874
              ],
              [
                -72.71487136321129,
                41.813816349659874
              ],
              [
                -72.71487136321129,
                41.81379832721089
              ],
              [
                -72.71506235408452,
                41.81379832721089
              ]
            ]
          ],
          [
            [
              [
                -72.71471005335214,
                41.81419482108844
              ],
              [
                -72.71466875802818,
                41.81419482108844
              ],
              [
                -72.71466875802818,
                41.814088688888894
              ],
              [
                -72.71465327228171,
                41.814088688888894
              ],
              [
                -72.71465327228171,
                41.814074671428585
              ],
              [
                -72.71468553425353,
                41.814074671428585
              ],
              [
                -72.71468553425353,
                41.814088688888894
              ],
              [
                -72.71471005335214,
                41.814088688888894
              ],
              [
                -72.71471005335214,
                41.81419482108844
              ]
            ]
          ],
          [
            [
              [
                -72.71482877740847,
                41.81406365770976
              ],
              [
                -72.71479135352115,
                41.81406365770976
              ],
              [
                -72.71479135352115,
                41.813900454421784
              ],
              [
                -72.71482877740847,
                41.813900454421784
              ],
              [
                -72.71482877740847,
                41.81406365770976
              ]
            ]
          ],
          [
            [
              [
                -72.71517720670424,
                41.81419582233561
              ],
              [
                -72.71517720670424,
                41.81421484603175
              ],
              [
                -72.71489330135213,
                41.81421484603175
              ],
              [
                -72.71489330135213,
                41.81420383231293
              ],
              [
                -72.71489330135213,
                41.81419582233561
              ],
              [
                -72.71517720670424,
                41.81419582233561
              ]
            ]
          ],
          [
            [
              [
                -72.71506880647888,
                41.81405564773244
              ],
              [
                -72.71486362033805,
                41.81405564773244
              ],
              [
                -72.71486362033805,
                41.81412673628119
              ],
              [
                -72.71487910608452,
                41.81412673628119
              ],
              [
                -72.71487910608452,
                41.81418480861679
              ],
              [
                -72.71486362033805,
                41.81418480861679
              ],
              [
                -72.71486362033805,
                41.814206836054424
              ],
              [
                -72.71483264884507,
                41.814206836054424
              ],
              [
                -72.71483264884507,
                41.813900454421784
              ],
              [
                -72.71487136321129,
                41.813900454421784
              ],
              [
                -72.71487136321129,
                41.813891443197285
              ],
              [
                -72.7152223734648,
                41.813891443197285
              ],
              [
                -72.7152223734648,
                41.81403962777779
              ],
              [
                -72.71508429222536,
                41.81403962777779
              ],
              [
                -72.71508429222536,
                41.81398556043085
              ],
              [
                -72.71506880647888,
                41.81398556043085
              ],
              [
                -72.71506880647888,
                41.81405564773244
              ]
            ]
          ],
          [
            [
              [
                -72.71519398292958,
                41.8141727936508
              ],
              [
                -72.71519398292958,
                41.81414976496599
              ],
              [
                -72.71497331104227,
                41.81414976496599
              ],
              [
                -72.71497331104227,
                41.8141727936508
              ],
              [
                -72.71519398292958,
                41.8141727936508
              ]
            ]
          ],
          [
            [
              [
                -72.71451261008451,
                41.8138273633787
              ],
              [
                -72.71478102969014,
                41.8138273633787
              ],
              [
                -72.71478102969014,
                41.81374826485262
              ],
              [
                -72.71451261008451,
                41.81374826485262
              ],
              [
                -72.71451261008451,
                41.8138273633787
              ]
            ]
          ],
          [
            [
              [
                -72.71482877740847,
                41.81427792460318
              ],
              [
                -72.71482877740847,
                41.81424988968255
              ],
              [
                -72.71478877256338,
                41.81424988968255
              ],
              [
                -72.71478877256338,
                41.81425389467121
              ],
              [
                -72.71424290000002,
                41.81425389467121
              ],
              [
                -72.71424290000002,
                41.81427792460318
              ],
              [
                -72.71482877740847,
                41.81427792460318
              ]
            ]
          ],
          [
            [
              [
                -72.71482877740847,
                41.814206836054424
              ],
              [
                -72.71482877740847,
                41.81406365770976
              ],
              [
                -72.71479135352115,
                41.81406365770976
              ],
              [
                -72.71479135352115,
                41.814074671428585
              ],
              [
                -72.7143112953803,
                41.814074671428585
              ],
              [
                -72.7143112953803,
                41.81422185476191
              ],
              [
                -72.71468553425353,
                41.81422185476191
              ],
              [
                -72.71468553425353,
                41.81419482108844
              ],
              [
                -72.71466875802818,
                41.81419482108844
              ],
              [
                -72.71466875802818,
                41.814088688888894
              ],
              [
                -72.71465327228171,
                41.814088688888894
              ],
              [
                -72.71465327228171,
                41.814074671428585
              ],
              [
                -72.71468553425353,
                41.814074671428585
              ],
              [
                -72.71468553425353,
                41.814088688888894
              ],
              [
                -72.71471005335214,
                41.814088688888894
              ],
              [
                -72.71471005335214,
                41.81419482108844
              ],
              [
                -72.71468553425353,
                41.81419482108844
              ],
              [
                -72.71468553425353,
                41.81422185476191
              ],
              [
                -72.71478877256338,
                41.81422185476191
              ],
              [
                -72.71478877256338,
                41.814206836054424
              ],
              [
                -72.71482877740847,
                41.814206836054424
              ]
            ]
          ],
          [
            [
              [
                -72.71428032388734,
                41.81406666145126
              ],
              [
                -72.71424290000002,
                41.81406666145126
              ],
              [
                -72.71424290000002,
                41.81422185476191
              ],
              [
                -72.71428032388734,
                41.81422185476191
              ],
              [
                -72.71428032388734,
                41.81406666145126
              ]
            ]
          ],
          [
            [
              [
                -72.71479135352115,
                41.81403562278913
              ],
              [
                -72.71479135352115,
                41.813900454421784
              ],
              [
                -72.7147784487324,
                41.813900454421784
              ],
              [
                -72.7147784487324,
                41.8138794282313
              ],
              [
                -72.71475392963383,
                41.8138794282313
              ],
              [
                -72.71475392963383,
                41.81385740079366
              ],
              [
                -72.71436033357747,
                41.81385740079366
              ],
              [
                -72.71436033357747,
                41.81374826485262
              ],
              [
                -72.71429580963382,
                41.81374826485262
              ],
              [
                -72.71429580963382,
                41.8137662873016
              ],
              [
                -72.71427516197186,
                41.8137662873016
              ],
              [
                -72.71427516197186,
                41.81374826485262
              ],
              [
                -72.71424290000002,
                41.81374826485262
              ],
              [
                -72.71424290000002,
                41.814009590362815
              ],
              [
                -72.71431000490142,
                41.814009590362815
              ],
              [
                -72.71431000490142,
                41.81403562278913
              ],
              [
                -72.71479135352115,
                41.81403562278913
              ]
            ]
          ],
          [
            [
              [
                -72.71520430676058,
                41.81379832721089
              ],
              [
                -72.71520430676058,
                41.81382836462586
              ],
              [
                -72.71520946867606,
                41.81382836462586
              ],
              [
                -72.71520946867606,
                41.81386641201815
              ],
              [
                -72.71502751115493,
                41.81386641201815
              ],
              [
                -72.71502751115493,
                41.813821355895705
              ],
              [
                -72.71506235408452,
                41.813821355895705
              ],
              [
                -72.71506235408452,
                41.81379832721089
              ],
              [
                -72.71520430676058,
                41.81379832721089
              ]
            ]
          ],
          [
            [
              [
                -72.71632702338027,
                41.81387542324264
              ],
              [
                -72.71632702338027,
                41.813813345918376
              ],
              [
                -72.71634896152112,
                41.813813345918376
              ],
              [
                -72.71634896152112,
                41.81379832721089
              ],
              [
                -72.71628572805633,
                41.81379832721089
              ],
              [
                -72.71628572805633,
                41.813813345918376
              ],
              [
                -72.71627024230986,
                41.813813345918376
              ],
              [
                -72.71627024230986,
                41.81386941575965
              ],
              [
                -72.71628959949295,
                41.81386941575965
              ],
              [
                -72.71628959949295,
                41.81387542324264
              ],
              [
                -72.71632702338027,
                41.81387542324264
              ]
            ]
          ],
          [
            [
              [
                -72.71621475171831,
                41.814202831065764
              ],
              [
                -72.71525334495774,
                41.814202831065764
              ],
              [
                -72.71525334495774,
                41.81419281859411
              ],
              [
                -72.71530496411268,
                41.81419281859411
              ],
              [
                -72.71530496411268,
                41.814191817346945
              ],
              [
                -72.71541723577465,
                41.814191817346945
              ],
              [
                -72.71541723577465,
                41.81419281859411
              ],
              [
                -72.71552176456338,
                41.81419281859411
              ],
              [
                -72.71552176456338,
                41.81419381984128
              ],
              [
                -72.71568436490142,
                41.81419381984128
              ],
              [
                -72.71568436490142,
                41.81417479614513
              ],
              [
                -72.71574372692959,
                41.81417479614513
              ],
              [
                -72.71574372692959,
                41.814191817346945
              ],
              [
                -72.71580179847888,
                41.814191817346945
              ],
              [
                -72.71580179847888,
                41.81419381984128
              ],
              [
                -72.71586116050705,
                41.81419381984128
              ],
              [
                -72.71586116050705,
                41.81419281859411
              ],
              [
                -72.71592310349297,
                41.81419281859411
              ],
              [
                -72.71592310349297,
                41.81419381984128
              ],
              [
                -72.71600440366198,
                41.81419381984128
              ],
              [
                -72.71600440366198,
                41.81419281859411
              ],
              [
                -72.71603666563381,
                41.81419281859411
              ],
              [
                -72.71603666563381,
                41.81419381984128
              ],
              [
                -72.71606118473241,
                41.81419381984128
              ],
              [
                -72.71606118473241,
                41.81419281859411
              ],
              [
                -72.71608699430986,
                41.81419281859411
              ],
              [
                -72.71608699430986,
                41.81419381984128
              ],
              [
                -72.71621475171831,
                41.81419381984128
              ],
              [
                -72.71621475171831,
                41.814202831065764
              ]
            ]
          ],
          [
            [
              [
                -72.7152223734648,
                41.81412673628119
              ],
              [
                -72.71519398292958,
                41.81412673628119
              ],
              [
                -72.71519398292958,
                41.8141727936508
              ],
              [
                -72.7152223734648,
                41.8141727936508
              ],
              [
                -72.7152223734648,
                41.81412673628119
              ]
            ]
          ],
          [
            [
              [
                -72.71532819273241,
                41.814579300000005
              ],
              [
                -72.71529722123944,
                41.814579300000005
              ],
              [
                -72.71519785436621,
                41.814579300000005
              ],
              [
                -72.71519785436621,
                41.814547260090706
              ],
              [
                -72.71523527825353,
                41.814547260090706
              ],
              [
                -72.71523527825353,
                41.81452823639456
              ],
              [
                -72.71524947352114,
                41.81452823639456
              ],
              [
                -72.71524947352114,
                41.81425089092971
              ],
              [
                -72.71527399261973,
                41.81425089092971
              ],
              [
                -72.71527399261973,
                41.814237874716554
              ],
              [
                -72.71534625943663,
                41.814237874716554
              ],
              [
                -72.71534625943663,
                41.81426490839003
              ],
              [
                -72.7153617451831,
                41.81426490839003
              ],
              [
                -72.7153617451831,
                41.81451722267575
              ],
              [
                -72.7153333546479,
                41.81451722267575
              ],
              [
                -72.7153333546479,
                41.81452823639456
              ],
              [
                -72.71532819273241,
                41.81452823639456
              ],
              [
                -72.71532819273241,
                41.814579300000005
              ]
            ]
          ],
          [
            [
              [
                -72.71547143588732,
                41.81404163027212
              ],
              [
                -72.71544175487324,
                41.81404163027212
              ],
              [
                -72.71544175487324,
                41.81419281859411
              ],
              [
                -72.71547143588732,
                41.81419281859411
              ],
              [
                -72.71547143588732,
                41.81404163027212
              ]
            ]
          ],
          [
            [
              [
                -72.71424290000002,
                41.81427792460318
              ],
              [
                -72.71482877740847,
                41.81427792460318
              ],
              [
                -72.71482877740847,
                41.81374826485262
              ],
              [
                -72.71424290000002,
                41.81374826485262
              ],
              [
                -72.71424290000002,
                41.81427792460318
              ]
            ]
          ]
        ]
      },
      "properties": {
        "fill": "#D9E2F6",
        "stroke-width": "0.5",
        "stroke": "#96A3BD",
        "opacity": "0.75",
        "store_id": "1665",
        "source": "https://www.lowes.com/omniselling/store/1665/map-view",
        "feature_type": "department",
        "original_geometry_type": "MultiPolygon"
      }
    },
    {
      "type": "Feature",
      "geometry": {
        "type": "MultiLineString",
        "coordinates": []
      },
      "properties": {
        "stroke-width": "0.5",
        "store_id": "1665",
        "source": "https://www.lowes.com/omniselling/store/1665/map-view",
        "feature_type": "department",
        "original_geometry_type": "MultiLineString"
      }
    },
    {
      "type": "Feature",
      "geometry": {
        "type": "Point",
        "coordinates": [
          -72.71624572321127,
          41.814274920861685
        ]
      },
      "properties": {
        "name": "LUMBER",
        "orientation": 0,
        "store_id": "1665",
        "source": "https://www.lowes.com/omniselling/store/1665/map-view",
        "feature_type": "department",
        "original_geometry_type": "Point"
      }
    },
    {
      "type": "Feature",
      "geometry": {
        "type": "Point",
        "coordinates": [
          -72.71628830901409,
          41.814409087981865
        ]
      },
      "properties": {
        "name": "LUMBER",
        "orientation": 0,
        "store_id": "1665",
        "source": "https://www.lowes.com/omniselling/store/1665/map-view",
        "feature_type": "department",
        "original_geometry_type": "Point"
      }
    },
    {
      "type": "Feature",
      "geometry": {
        "type": "Point",
        "coordinates": [
          -72.71643413312677,
          41.814378049319735
        ]
      },
      "properties": {
        "name": "LUMBER",
        "orientation": 0,
        "store_id": "1665",
        "source": "https://www.lowes.com/omniselling/store/1665/map-view",
        "feature_type": "department",
        "original_geometry_type": "Point"
      }
    },
    {
      "type": "Feature",
      "geometry": {
        "type": "Point",
        "coordinates": [
          -72.71634121864788,
          41.81405464648527
        ]
      },
      "properties": {
        "name": "LUMBER",
        "orientation": 0,
        "store_id": "1665",
        "source": "https://www.lowes.com/omniselling/store/1665/map-view",
        "feature_type": "department",
        "original_geometry_type": "Point"
      }
    },
    {
      "type": "Feature",
      "geometry": {
        "type": "Point",
        "coordinates": [
          -72.7164754284507,
          41.81455927505669
        ]
      },
      "properties": {
        "name": "LUMBER",
        "orientation": 0,
        "store_id": "1665",
        "source": "https://www.lowes.com/omniselling/store/1665/map-view",
        "feature_type": "department",
        "original_geometry_type": "Point"
      }
    },
    {
      "type": "Feature",
      "geometry": {
        "type": "Point",
        "coordinates": [
          -72.71628185661972,
          41.81428893832201
        ]
      },
      "properties": {
        "name": "BUILDING MATERIALS",
        "orientation": 0,
        "store_id": "1665",
        "source": "https://www.lowes.com/omniselling/store/1665/map-view",
        "feature_type": "department",
        "original_geometry_type": "Point"
      }
    },
    {
      "type": "Feature",
      "geometry": {
        "type": "Point",
        "coordinates": [
          -72.71618248974647,
          41.814342004421775
        ]
      },
      "properties": {
        "name": "BUILDING MATERIALS",
        "orientation": 0,
        "store_id": "1665",
        "source": "https://www.lowes.com/omniselling/store/1665/map-view",
        "feature_type": "department",
        "original_geometry_type": "Point"
      }
    },
    {
      "type": "Feature",
      "geometry": {
        "type": "Point",
        "coordinates": [
          -72.71624185177464,
          41.81405464648527
        ]
      },
      "properties": {
        "name": "BUILDING MATERIALS",
        "orientation": 0,
        "store_id": "1665",
        "source": "https://www.lowes.com/omniselling/store/1665/map-view",
        "feature_type": "department",
        "original_geometry_type": "Point"
      }
    },
    {
      "type": "Feature",
      "geometry": {
        "type": "Point",
        "coordinates": [
          -72.71646897605635,
          41.81419381984128
        ]
      },
      "properties": {
        "name": "BUILDING MATERIALS",
        "orientation": 0,
        "store_id": "1665",
        "source": "https://www.lowes.com/omniselling/store/1665/map-view",
        "feature_type": "department",
        "original_geometry_type": "Point"
      }
    },
    {
      "type": "Feature",
      "geometry": {
        "type": "Point",
        "coordinates": [
          -72.71611796580281,
          41.814409087981865
        ]
      },
      "properties": {
        "name": "MILLWORK",
        "orientation": 0,
        "store_id": "1665",
        "source": "https://www.lowes.com/omniselling/store/1665/map-view",
        "feature_type": "department",
        "original_geometry_type": "Point"
      }
    },
    {
      "type": "Feature",
      "geometry": {
        "type": "Point",
        "coordinates": [
          -72.71577340794367,
          41.81405464648527
        ]
      },
      "properties": {
        "name": "LIGHTING",
        "orientation": 0,
        "store_id": "1665",
        "source": "https://www.lowes.com/omniselling/store/1665/map-view",
        "feature_type": "department",
        "original_geometry_type": "Point"
      }
    },
    {
      "type": "Feature",
      "geometry": {
        "type": "Point",
        "coordinates": [
          -72.71594762259156,
          41.81405464648527
        ]
      },
      "properties": {
        "name": "ROUGH ELECTRICAL",
        "orientation": 0,
        "store_id": "1665",
        "source": "https://www.lowes.com/omniselling/store/1665/map-view",
        "feature_type": "department",
        "original_geometry_type": "Point"
      }
    },
    {
      "type": "Feature",
      "geometry": {
        "type": "Point",
        "coordinates": [
          -72.71580825087325,
          41.814409087981865
        ]
      },
      "properties": {
        "name": "FASHION PLUMBING",
        "orientation": 0,
        "store_id": "1665",
        "source": "https://www.lowes.com/omniselling/store/1665/map-view",
        "feature_type": "department",
        "original_geometry_type": "Point"
      }
    },
    {
      "type": "Feature",
      "geometry": {
        "type": "Point",
        "coordinates": [
          -72.71609344670422,
          41.81405464648527
        ]
      },
      "properties": {
        "name": "ROUGH PLUMBING",
        "orientation": 0,
        "store_id": "1665",
        "source": "https://www.lowes.com/omniselling/store/1665/map-view",
        "feature_type": "department",
        "original_geometry_type": "Point"
      }
    },
    {
      "type": "Feature",
      "geometry": {
        "type": "Point",
        "coordinates": [
          -72.71508945414087,
          41.814410089229035
        ]
      },
      "properties": {
        "name": "APPLIANCES",
        "orientation": 0,
        "store_id": "1665",
        "source": "https://www.lowes.com/omniselling/store/1665/map-view",
        "feature_type": "department",
        "original_geometry_type": "Point"
      }
    },
    {
      "type": "Feature",
      "geometry": {
        "type": "Point",
        "coordinates": [
          -72.71548434067606,
          41.81401659909298
        ]
      },
      "properties": {
        "name": "HARDWARE",
        "orientation": 0,
        "store_id": "1665",
        "source": "https://www.lowes.com/omniselling/store/1665/map-view",
        "feature_type": "department",
        "original_geometry_type": "Point"
      }
    },
    {
      "type": "Feature",
      "geometry": {
        "type": "Point",
        "coordinates": [
          -72.71536045470422,
          41.814053645238104
        ]
      },
      "properties": {
        "name": "HARDWARE",
        "orientation": 0,
        "store_id": "1665",
        "source": "https://www.lowes.com/omniselling/store/1665/map-view",
        "feature_type": "department",
        "original_geometry_type": "Point"
      }
    },
    {
      "type": "Feature",
      "geometry": {
        "type": "Point",
        "coordinates": [
          -72.71556305988733,
          41.81405064149661
        ]
      },
      "properties": {
        "name": "PAINT",
        "orientation": 0,
        "store_id": "1665",
        "source": "https://www.lowes.com/omniselling/store/1665/map-view",
        "feature_type": "department",
        "original_geometry_type": "Point"
      }
    },
    {
      "type": "Feature",
      "geometry": {
        "type": "Point",
        "coordinates": [
          -72.71545724061971,
          41.813978551700686
        ]
      },
      "properties": {
        "name": "TOOLS",
        "orientation": 0,
        "store_id": "1665",
        "source": "https://www.lowes.com/omniselling/store/1665/map-view",
        "feature_type": "department",
        "original_geometry_type": "Point"
      }
    },
    {
      "type": "Feature",
      "geometry": {
        "type": "Point",
        "coordinates": [
          -72.71619926597184,
          41.81395452176872
        ]
      },
      "properties": {
        "name": "TOOLS",
        "orientation": 0,
        "store_id": "1665",
        "source": "https://www.lowes.com/omniselling/store/1665/map-view",
        "feature_type": "department",
        "original_geometry_type": "Point"
      }
    },
    {
      "type": "Feature",
      "geometry": {
        "type": "Point",
        "coordinates": [
          -72.71601472749296,
          41.81383737585035
        ]
      },
      "properties": {
        "name": "TOOLS",
        "orientation": 0,
        "store_id": "1665",
        "source": "https://www.lowes.com/omniselling/store/1665/map-view",
        "feature_type": "department",
        "original_geometry_type": "Point"
      }
    },
    {
      "type": "Feature",
      "geometry": {
        "type": "Point",
        "coordinates": [
          -72.71504299690142,
          41.814105710090715
        ]
      },
      "properties": {
        "name": "OUTDOOR POWER EQUIPMENT",
        "orientation": 0,
        "store_id": "1665",
        "source": "https://www.lowes.com/omniselling/store/1665/map-view",
        "feature_type": "department",
        "original_geometry_type": "Point"
      }
    },
    {
      "type": "Feature",
      "geometry": {
        "type": "Point",
        "coordinates": [
          -72.7154830501972,
          41.814409087981865
        ]
      },
      "properties": {
        "name": "FLOORING",
        "orientation": 0,
        "store_id": "1665",
        "source": "https://www.lowes.com/omniselling/store/1665/map-view",
        "feature_type": "department",
        "original_geometry_type": "Point"
      }
    },
    {
      "type": "Feature",
      "geometry": {
        "type": "Point",
        "coordinates": [
          -72.71484942507044,
          41.814381053061226
        ]
      },
      "properties": {
        "name": "CABINETS",
        "orientation": 0,
        "store_id": "1665",
        "source": "https://www.lowes.com/omniselling/store/1665/map-view",
        "feature_type": "department",
        "original_geometry_type": "Point"
      }
    },
    {
      "type": "Feature",
      "geometry": {
        "type": "Point",
        "coordinates": [
          -72.71494363002819,
          41.814410089229035
        ]
      },
      "properties": {
        "name": "CABINETS",
        "orientation": 0,
        "store_id": "1665",
        "source": "https://www.lowes.com/omniselling/store/1665/map-view",
        "feature_type": "department",
        "original_geometry_type": "Point"
      }
    },
    {
      "type": "Feature",
      "geometry": {
        "type": "Point",
        "coordinates": [
          -72.71526495926761,
          41.814053645238104
        ]
      },
      "properties": {
        "name": "CLEANING",
        "orientation": 0,
        "store_id": "1665",
        "source": "https://www.lowes.com/omniselling/store/1665/map-view",
        "feature_type": "department",
        "original_geometry_type": "Point"
      }
    },
    {
      "type": "Feature",
      "geometry": {
        "type": "Point",
        "coordinates": [
          -72.71501976828169,
          41.8141818048753
        ]
      },
      "properties": {
        "name": "CLEANING",
        "orientation": 0,
        "store_id": "1665",
        "source": "https://www.lowes.com/omniselling/store/1665/map-view",
        "feature_type": "department",
        "original_geometry_type": "Point"
      }
    },
    {
      "type": "Feature",
      "geometry": {
        "type": "Point",
        "coordinates": [
          -72.71563016478873,
          41.81438405680272
        ]
      },
      "properties": {
        "name": "HOME DECOR",
        "orientation": 0,
        "store_id": "1665",
        "source": "https://www.lowes.com/omniselling/store/1665/map-view",
        "feature_type": "department",
        "original_geometry_type": "Point"
      }
    },
    {
      "type": "Feature",
      "geometry": {
        "type": "Point",
        "coordinates": [
          -72.71568436490142,
          41.81456628378685
        ]
      },
      "properties": {
        "name": "HOME DECOR",
        "orientation": 0,
        "store_id": "1665",
        "source": "https://www.lowes.com/omniselling/store/1665/map-view",
        "feature_type": "department",
        "original_geometry_type": "Point"
      }
    },
    {
      "type": "Feature",
      "geometry": {
        "type": "Point",
        "coordinates": [
          -72.71494750146479,
          41.81383236961452
        ]
      },
      "properties": {
        "name": "INSIDE LAWN AND GARDEN",
        "orientation": 0,
        "store_id": "1665",
        "source": "https://www.lowes.com/omniselling/store/1665/map-view",
        "feature_type": "department",
        "original_geometry_type": "Point"
      }
    },
    {
      "type": "Feature",
      "geometry": {
        "type": "Point",
        "coordinates": [
          -72.71468166281691,
          41.81413474625851
        ]
      },
      "properties": {
        "name": "INSIDE LAWN AND GARDEN",
        "orientation": 0,
        "store_id": "1665",
        "source": "https://www.lowes.com/omniselling/store/1665/map-view",
        "feature_type": "department",
        "original_geometry_type": "Point"
      }
    },
    {
      "type": "Feature",
      "geometry": {
        "type": "Point",
        "coordinates": [
          -72.71480942022536,
          41.81398255668935
        ]
      },
      "properties": {
        "name": "INSIDE LAWN AND GARDEN",
        "orientation": 0,
        "store_id": "1665",
        "source": "https://www.lowes.com/omniselling/store/1665/map-view",
        "feature_type": "department",
        "original_geometry_type": "Point"
      }
    },
    {
      "type": "Feature",
      "geometry": {
        "type": "Point",
        "coordinates": [
          -72.71503525402818,
          41.81420583480726
        ]
      },
      "properties": {
        "name": "INSIDE LAWN AND GARDEN",
        "orientation": 0,
        "store_id": "1665",
        "source": "https://www.lowes.com/omniselling/store/1665/map-view",
        "feature_type": "department",
        "original_geometry_type": "Point"
      }
    },
    {
      "type": "Feature",
      "geometry": {
        "type": "Point",
        "coordinates": [
          -72.71502751115493,
          41.81404863900227
        ]
      },
      "properties": {
        "name": "INSIDE LAWN AND GARDEN",
        "orientation": 0,
        "store_id": "1665",
        "source": "https://www.lowes.com/omniselling/store/1665/map-view",
        "feature_type": "department",
        "original_geometry_type": "Point"
      }
    },
    {
      "type": "Feature",
      "geometry": {
        "type": "Point",
        "coordinates": [
          -72.71508429222536,
          41.814160778684816
        ]
      },
      "properties": {
        "name": "INSIDE LAWN AND GARDEN",
        "orientation": 0,
        "store_id": "1665",
        "source": "https://www.lowes.com/omniselling/store/1665/map-view",
        "feature_type": "department",
        "original_geometry_type": "Point"
      }
    },
    {
      "type": "Feature",
      "geometry": {
        "type": "Point",
        "coordinates": [
          -72.71464681988734,
          41.81378831473924
        ]
      },
      "properties": {
        "name": "OUTSIDE LAWN AND GARDEN",
        "orientation": 0,
        "store_id": "1665",
        "source": "https://www.lowes.com/omniselling/store/1665/map-view",
        "feature_type": "department",
        "original_geometry_type": "Point"
      }
    },
    {
      "type": "Feature",
      "geometry": {
        "type": "Point",
        "coordinates": [
          -72.71453583870425,
          41.814263907142866
        ]
      },
      "properties": {
        "name": "OUTSIDE LAWN AND GARDEN",
        "orientation": 0,
        "store_id": "1665",
        "source": "https://www.lowes.com/omniselling/store/1665/map-view",
        "feature_type": "department",
        "original_geometry_type": "Point"
      }
    },
    {
      "type": "Feature",
      "geometry": {
        "type": "Point",
        "coordinates": [
          -72.71457068163382,
          41.81414275623584
        ]
      },
      "properties": {
        "name": "OUTSIDE LAWN AND GARDEN",
        "orientation": 0,
        "store_id": "1665",
        "source": "https://www.lowes.com/omniselling/store/1665/map-view",
        "feature_type": "department",
        "original_geometry_type": "Point"
      }
    },
    {
      "type": "Feature",
      "geometry": {
        "type": "Point",
        "coordinates": [
          -72.71426096670424,
          41.814143757483
        ]
      },
      "properties": {
        "name": "OUTSIDE LAWN AND GARDEN",
        "orientation": 0,
        "store_id": "1665",
        "source": "https://www.lowes.com/omniselling/store/1665/map-view",
        "feature_type": "department",
        "original_geometry_type": "Point"
      }
    },
    {
      "type": "Feature",
      "geometry": {
        "type": "Point",
        "coordinates": [
          -72.71451648152114,
          41.813891443197285
        ]
      },
      "properties": {
        "name": "OUTSIDE LAWN AND GARDEN",
        "orientation": 0,
        "store_id": "1665",
        "source": "https://www.lowes.com/omniselling/store/1665/map-view",
        "feature_type": "department",
        "original_geometry_type": "Point"
      }
    },
    {
      "type": "Feature",
      "geometry": {
        "type": "Point",
        "coordinates": [
          -72.71528044501409,
          41.814409087981865
        ]
      },
      "properties": {
        "name": "STORAGE",
        "orientation": 0,
        "store_id": "1665",
        "source": "https://www.lowes.com/omniselling/store/1665/map-view",
        "feature_type": "department",
        "original_geometry_type": "Point"
      }
    },
    {
      "type": "Feature",
      "geometry": {
        "type": "Point",
        "coordinates": [
          -72.71545724061971,
          41.8141177250567
        ]
      },
      "properties": {
        "name": "STORAGE",
        "orientation": 0,
        "store_id": "1665",
        "source": "https://www.lowes.com/omniselling/store/1665/map-view",
        "feature_type": "department",
        "original_geometry_type": "Point"
      }
    },
    {
      "type": "Feature",
      "geometry": {
        "type": "Point",
        "coordinates": [
          -72.71453583870425,
          41.81401359535148
        ]
      },
      "properties": {
        "name": "GARDEN CENTER",
        "orientation": 0,
        "store_id": "1665",
        "source": "https://www.lowes.com/omniselling/store/1665/map-view",
        "feature_type": "department",
        "original_geometry_type": "Point"
      }
    }
  ],
  "metadata": {
    "store_id": "1665",
    "source_url": "https://www.lowes.com/omniselling/store/1665/map-view",
    "coordinate_transform": {
      "method": "axis-aligned-affine-bbox-fit",
      "source_crs": "EPSG:4326 as returned by Lowe's map-view payload",
      "target_crs": "EPSG:4326",
      "source_bounds": [
        -76.987125,
        39.826361,
        -76.98535,
        39.827243
      ],
      "target_bounds": [
        -72.7165335,
        41.8136962,
        -72.7142429,
        41.8145793
      ],
      "a": 1.2904788732298988,
      "b": 0.0,
      "c": 26.633724823209377,
      "d": 0.0,
      "e": 1.0012471655232802,
      "f": 1.9376651356431012,
      "applies_to": "store outline, departments, aisles, racks, POIs, and labels"
    },
    "feature_type": "department"
  }
}