{
  "type": "FeatureCollection",
  "features": [
    {
      "type": "Feature",
      "geometry": {
        "type": "MultiPolygon",
        "coordinates": [
          [
            [
              [
                -76.987011,
                39.826913
              ],
              [
                -76.987011,
                39.827072
              ],
              [
                -76.986987,
                39.827072
              ],
              [
                -76.986987,
                39.827188
              ],
              [
                -76.986987,
                39.827213
              ],
              [
                -76.98699,
                39.827213
              ],
              [
                -76.98699,
                39.827225
              ],
              [
                -76.986977,
                39.827225
              ],
              [
                -76.986977,
                39.827243
              ],
              [
                -76.98692,
                39.827243
              ],
              [
                -76.98692,
                39.827211
              ],
              [
                -76.986903,
                39.827211
              ],
              [
                -76.986903,
                39.827179
              ],
              [
                -76.986925,
                39.827179
              ],
              [
                -76.986925,
                39.826967
              ],
              [
                -76.986955,
                39.826967
              ],
              [
                -76.986955,
                39.827054
              ],
              [
                -76.986987,
                39.827054
              ],
              [
                -76.986987,
                39.827007
              ],
              [
                -76.986986,
                39.827007
              ],
              [
                -76.986986,
                39.826913
              ],
              [
                -76.987011,
                39.826913
              ]
            ]
          ],
          [
            [
              [
                -76.986792,
                39.827126
              ],
              [
                -76.98677,
                39.827126
              ],
              [
                -76.98677,
                39.827178
              ],
              [
                -76.986792,
                39.827178
              ],
              [
                -76.986792,
                39.827126
              ]
            ]
          ],
          [
            [
              [
                -76.987039,
                39.826914
              ],
              [
                -76.987064,
                39.826914
              ],
              [
                -76.987064,
                39.827165
              ],
              [
                -76.987094,
                39.827165
              ],
              [
                -76.987094,
                39.827215
              ],
              [
                -76.987102,
                39.827215
              ],
              [
                -76.987102,
                39.827243
              ],
              [
                -76.987057,
                39.827243
              ],
              [
                -76.987057,
                39.827213
              ],
              [
                -76.987039,
                39.827213
              ],
              [
                -76.987039,
                39.826914
              ]
            ]
          ],
          [
            [
              [
                -76.987094,
                39.826571
              ],
              [
                -76.987094,
                39.826589
              ],
              [
                -76.987063,
                39.826589
              ],
              [
                -76.987063,
                39.826854
              ],
              [
                -76.987039,
                39.826854
              ],
              [
                -76.987039,
                39.826664
              ],
              [
                -76.987029,
                39.826664
              ],
              [
                -76.987029,
                39.826589
              ],
              [
                -76.98704,
                39.826589
              ],
              [
                -76.98704,
                39.826571
              ],
              [
                -76.987094,
                39.826571
              ]
            ]
          ],
          [
            [
              [
                -76.986951,
                39.826866
              ],
              [
                -76.987011,
                39.826866
              ],
              [
                -76.987011,
                39.826583
              ],
              [
                -76.986951,
                39.826583
              ],
              [
                -76.986951,
                39.826866
              ]
            ]
          ],
          [
            [
              [
                -76.986889,
                39.826858
              ],
              [
                -76.986864,
                39.826858
              ],
              [
                -76.986864,
                39.826646
              ],
              [
                -76.986841,
                39.826646
              ],
              [
                -76.986841,
                39.826866
              ],
              [
                -76.986889,
                39.826866
              ],
              [
                -76.986889,
                39.826858
              ]
            ]
          ],
          [
            [
              [
                -76.986838,
                39.827007
              ],
              [
                -76.986815,
                39.827007
              ],
              [
                -76.986815,
                39.826993
              ],
              [
                -76.986793,
                39.826993
              ],
              [
                -76.986793,
                39.827179
              ],
              [
                -76.986815,
                39.827179
              ],
              [
                -76.986815,
                39.827177
              ],
              [
                -76.986838,
                39.827177
              ],
              [
                -76.986838,
                39.827007
              ]
            ]
          ],
          [
            [
              [
                -76.987125,
                39.826514
              ],
              [
                -76.987094,
                39.826514
              ],
              [
                -76.987094,
                39.826589
              ],
              [
                -76.987063,
                39.826589
              ],
              [
                -76.987063,
                39.826668
              ],
              [
                -76.987094,
                39.826668
              ],
              [
                -76.987094,
                39.826695
              ],
              [
                -76.987063,
                39.826695
              ],
              [
                -76.987063,
                39.826854
              ],
              [
                -76.987094,
                39.826854
              ],
              [
                -76.987094,
                39.826914
              ],
              [
                -76.987064,
                39.826914
              ],
              [
                -76.987064,
                39.827165
              ],
              [
                -76.987094,
                39.827165
              ],
              [
                -76.987094,
                39.827215
              ],
              [
                -76.987102,
                39.827215
              ],
              [
                -76.987102,
                39.827243
              ],
              [
                -76.987125,
                39.827243
              ],
              [
                -76.987125,
                39.826514
              ]
            ]
          ],
          [
            [
              [
                -76.98692,
                39.827211
              ],
              [
                -76.98692,
                39.827243
              ],
              [
                -76.986713,
                39.827243
              ],
              [
                -76.986713,
                39.827211
              ],
              [
                -76.98692,
                39.827211
              ]
            ]
          ],
          [
            [
              [
                -76.986525,
                39.827243
              ],
              [
                -76.986557,
                39.827243
              ],
              [
                -76.986557,
                39.827214
              ],
              [
                -76.986525,
                39.827214
              ],
              [
                -76.986525,
                39.827243
              ]
            ]
          ],
          [
            [
              [
                -76.986986,
                39.82694
              ],
              [
                -76.986986,
                39.827007
              ],
              [
                -76.986987,
                39.827007
              ],
              [
                -76.986987,
                39.827054
              ],
              [
                -76.986955,
                39.827054
              ],
              [
                -76.986955,
                39.82694
              ],
              [
                -76.986986,
                39.82694
              ]
            ]
          ],
          [
            [
              [
                -76.986913,
                39.826855
              ],
              [
                -76.986951,
                39.826855
              ],
              [
                -76.986951,
                39.826583
              ],
              [
                -76.987011,
                39.826583
              ],
              [
                -76.987011,
                39.826571
              ],
              [
                -76.986887,
                39.826571
              ],
              [
                -76.986887,
                39.82658
              ],
              [
                -76.986913,
                39.82658
              ],
              [
                -76.986913,
                39.826855
              ]
            ]
          ],
          [
            [
              [
                -76.986913,
                39.82658
              ],
              [
                -76.986864,
                39.82658
              ],
              [
                -76.986864,
                39.826858
              ],
              [
                -76.986889,
                39.826858
              ],
              [
                -76.986889,
                39.826855
              ],
              [
                -76.986913,
                39.826855
              ],
              [
                -76.986913,
                39.82658
              ]
            ]
          ],
          [
            [
              [
                -76.987011,
                39.827072
              ],
              [
                -76.987011,
                39.827213
              ],
              [
                -76.986987,
                39.827213
              ],
              [
                -76.986987,
                39.827072
              ],
              [
                -76.987011,
                39.827072
              ]
            ]
          ],
          [
            [
              [
                -76.986703,
                39.826914
              ],
              [
                -76.986703,
                39.827179
              ],
              [
                -76.986725,
                39.827179
              ],
              [
                -76.986725,
                39.827211
              ],
              [
                -76.986903,
                39.827211
              ],
              [
                -76.986903,
                39.827179
              ],
              [
                -76.986925,
                39.827179
              ],
              [
                -76.986925,
                39.826967
              ],
              [
                -76.986955,
                39.826967
              ],
              [
                -76.986955,
                39.82694
              ],
              [
                -76.986986,
                39.82694
              ],
              [
                -76.986986,
                39.826913
              ],
              [
                -76.986955,
                39.826913
              ],
              [
                -76.986955,
                39.826901
              ],
              [
                -76.986814,
                39.826901
              ],
              [
                -76.986814,
                39.826914
              ],
              [
                -76.986703,
                39.826914
              ]
            ]
          ],
          [
            [
              [
                -76.986621,
                39.82658
              ],
              [
                -76.986599,
                39.82658
              ],
              [
                -76.986599,
                39.826585
              ],
              [
                -76.986513,
                39.826585
              ],
              [
                -76.986513,
                39.82658
              ],
              [
                -76.986448,
                39.82658
              ],
              [
                -76.986448,
                39.826807
              ],
              [
                -76.986469,
                39.826807
              ],
              [
                -76.986469,
                39.826858
              ],
              [
                -76.986491,
                39.826858
              ],
              [
                -76.986513,
                39.826858
              ],
              [
                -76.986513,
                39.826857
              ],
              [
                -76.986525,
                39.826857
              ],
              [
                -76.986545,
                39.826857
              ],
              [
                -76.986556,
                39.826857
              ],
              [
                -76.986557,
                39.826844
              ],
              [
                -76.986599,
                39.826844
              ],
              [
                -76.986599,
                39.826858
              ],
              [
                -76.986621,
                39.826858
              ],
              [
                -76.986621,
                39.82658
              ]
            ]
          ],
          [
            [
              [
                -76.986703,
                39.826858
              ],
              [
                -76.986703,
                39.82658
              ],
              [
                -76.986664,
                39.82658
              ],
              [
                -76.986664,
                39.826631
              ],
              [
                -76.986642,
                39.826631
              ],
              [
                -76.986642,
                39.82658
              ],
              [
                -76.986621,
                39.82658
              ],
              [
                -76.986621,
                39.826858
              ],
              [
                -76.986642,
                39.826858
              ],
              [
                -76.986642,
                39.82686
              ],
              [
                -76.986682,
                39.82686
              ],
              [
                -76.986682,
                39.826858
              ],
              [
                -76.986693,
                39.826858
              ],
              [
                -76.986703,
                39.826858
              ]
            ]
          ],
          [
            [
              [
                -76.985876,
                39.827027
              ],
              [
                -76.985853,
                39.827027
              ],
              [
                -76.985853,
                39.826905
              ],
              [
                -76.985876,
                39.826905
              ],
              [
                -76.985876,
                39.827027
              ]
            ]
          ],
          [
            [
              [
                -76.9859,
                39.826889
              ],
              [
                -76.986154,
                39.826889
              ],
              [
                -76.986154,
                39.826901
              ],
              [
                -76.986154,
                39.827035
              ],
              [
                -76.986146,
                39.827035
              ],
              [
                -76.986146,
                39.827104
              ],
              [
                -76.985883,
                39.827104
              ],
              [
                -76.985883,
                39.827064
              ],
              [
                -76.9859,
                39.827064
              ],
              [
                -76.9859,
                39.826889
              ]
            ]
          ],
          [
            [
              [
                -76.985853,
                39.827064
              ],
              [
                -76.985883,
                39.827064
              ],
              [
                -76.985883,
                39.827104
              ],
              [
                -76.986146,
                39.827104
              ],
              [
                -76.986146,
                39.827218
              ],
              [
                -76.986209,
                39.827218
              ],
              [
                -76.986209,
                39.827243
              ],
              [
                -76.986038,
                39.827243
              ],
              [
                -76.986038,
                39.827225
              ],
              [
                -76.986025,
                39.827225
              ],
              [
                -76.986025,
                39.827243
              ],
              [
                -76.985853,
                39.827243
              ],
              [
                -76.985853,
                39.827064
              ]
            ]
          ],
          [
            [
              [
                -76.986438,
                39.826914
              ],
              [
                -76.986415,
                39.826914
              ],
              [
                -76.986415,
                39.826912
              ],
              [
                -76.986393,
                39.826912
              ],
              [
                -76.986393,
                39.827038
              ],
              [
                -76.986415,
                39.827038
              ],
              [
                -76.986415,
                39.827065
              ],
              [
                -76.986438,
                39.827065
              ],
              [
                -76.986438,
                39.826914
              ]
            ]
          ],
          [
            [
              [
                -76.986415,
                39.827078
              ],
              [
                -76.986415,
                39.827129
              ],
              [
                -76.986392,
                39.827129
              ],
              [
                -76.986392,
                39.827078
              ],
              [
                -76.986415,
                39.827078
              ]
            ]
          ],
          [
            [
              [
                -76.986209,
                39.827243
              ],
              [
                -76.986209,
                39.827218
              ],
              [
                -76.986154,
                39.827218
              ],
              [
                -76.986154,
                39.827035
              ],
              [
                -76.986154,
                39.826901
              ],
              [
                -76.986311,
                39.826901
              ],
              [
                -76.986311,
                39.826967
              ],
              [
                -76.986296,
                39.826967
              ],
              [
                -76.986296,
                39.827072
              ],
              [
                -76.986262,
                39.827072
              ],
              [
                -76.986262,
                39.827213
              ],
              [
                -76.986275,
                39.827213
              ],
              [
                -76.986275,
                39.827193
              ],
              [
                -76.986345,
                39.827193
              ],
              [
                -76.986345,
                39.827217
              ],
              [
                -76.986393,
                39.827217
              ],
              [
                -76.986393,
                39.827243
              ],
              [
                -76.986249,
                39.827243
              ],
              [
                -76.986249,
                39.827225
              ],
              [
                -76.986236,
                39.827225
              ],
              [
                -76.986236,
                39.827243
              ],
              [
                -76.986209,
                39.827243
              ]
            ]
          ],
          [
            [
              [
                -76.986841,
                39.826681
              ],
              [
                -76.986841,
                39.826858
              ],
              [
                -76.986703,
                39.826858
              ],
              [
                -76.986703,
                39.82658
              ],
              [
                -76.986722,
                39.82658
              ],
              [
                -76.986722,
                39.826571
              ],
              [
                -76.98676,
                39.826571
              ],
              [
                -76.98676,
                39.82658
              ],
              [
                -76.98682,
                39.82658
              ],
              [
                -76.98682,
                39.826681
              ],
              [
                -76.986841,
                39.826681
              ]
            ]
          ],
          [
            [
              [
                -76.986664,
                39.82658
              ],
              [
                -76.986642,
                39.82658
              ],
              [
                -76.986642,
                39.826631
              ],
              [
                -76.986664,
                39.826631
              ],
              [
                -76.986664,
                39.82658
              ]
            ]
          ],
          [
            [
              [
                -76.98635,
                39.826782
              ],
              [
                -76.98635,
                39.826857
              ],
              [
                -76.98621,
                39.826857
              ],
              [
                -76.98621,
                39.82658
              ],
              [
                -76.98623,
                39.82658
              ],
              [
                -76.98623,
                39.826571
              ],
              [
                -76.986242,
                39.826571
              ],
              [
                -76.98626,
                39.826571
              ],
              [
                -76.986283,
                39.826571
              ],
              [
                -76.986301,
                39.826571
              ],
              [
                -76.986313,
                39.826571
              ],
              [
                -76.986313,
                39.82658
              ],
              [
                -76.986332,
                39.82658
              ],
              [
                -76.986332,
                39.826782
              ],
              [
                -76.98635,
                39.826782
              ]
            ]
          ],
          [
            [
              [
                -76.986864,
                39.82658
              ],
              [
                -76.98682,
                39.82658
              ],
              [
                -76.98682,
                39.826681
              ],
              [
                -76.986841,
                39.826681
              ],
              [
                -76.986841,
                39.826646
              ],
              [
                -76.986864,
                39.826646
              ],
              [
                -76.986864,
                39.82658
              ]
            ]
          ],
          [
            [
              [
                -76.986532,
                39.826463
              ],
              [
                -76.986825,
                39.826463
              ],
              [
                -76.986825,
                39.826481
              ],
              [
                -76.986839,
                39.826481
              ],
              [
                -76.986839,
                39.826463
              ],
              [
                -76.986987,
                39.826463
              ],
              [
                -76.986987,
                39.826477
              ],
              [
                -76.986946,
                39.826477
              ],
              [
                -76.986946,
                39.826541
              ],
              [
                -76.986863,
                39.826541
              ],
              [
                -76.986863,
                39.826533
              ],
              [
                -76.986818,
                39.826533
              ],
              [
                -76.986818,
                39.826541
              ],
              [
                -76.986536,
                39.826541
              ],
              [
                -76.986536,
                39.826483
              ],
              [
                -76.986532,
                39.826483
              ],
              [
                -76.986532,
                39.826463
              ]
            ]
          ],
          [
            [
              [
                -76.986131,
                39.826787
              ],
              [
                -76.986159,
                39.826787
              ],
              [
                -76.986159,
                39.826777
              ],
              [
                -76.986165,
                39.826777
              ],
              [
                -76.986165,
                39.826735
              ],
              [
                -76.98605,
                39.826735
              ],
              [
                -76.98605,
                39.826784
              ],
              [
                -76.986038,
                39.826784
              ],
              [
                -76.986038,
                39.826716
              ],
              [
                -76.985921,
                39.826716
              ],
              [
                -76.985921,
                39.826739
              ],
              [
                -76.985898,
                39.826739
              ],
              [
                -76.985874,
                39.826739
              ],
              [
                -76.985874,
                39.826785
              ],
              [
                -76.985898,
                39.826785
              ],
              [
                -76.985898,
                39.826807
              ],
              [
                -76.985945,
                39.826807
              ],
              [
                -76.985945,
                39.82683
              ],
              [
                -76.985968,
                39.82683
              ],
              [
                -76.985968,
                39.826807
              ],
              [
                -76.986131,
                39.826807
              ],
              [
                -76.986131,
                39.826787
              ]
            ]
          ],
          [
            [
              [
                -76.986501,
                39.826927
              ],
              [
                -76.986519,
                39.826927
              ],
              [
                -76.986519,
                39.827217
              ],
              [
                -76.986525,
                39.827217
              ],
              [
                -76.986525,
                39.827214
              ],
              [
                -76.986557,
                39.827214
              ],
              [
                -76.986557,
                39.827243
              ],
              [
                -76.9867,
                39.827243
              ],
              [
                -76.9867,
                39.827225
              ],
              [
                -76.986713,
                39.827225
              ],
              [
                -76.986713,
                39.827211
              ],
              [
                -76.986725,
                39.827211
              ],
              [
                -76.986725,
                39.827179
              ],
              [
                -76.98668,
                39.827179
              ],
              [
                -76.98668,
                39.827152
              ],
              [
                -76.986703,
                39.827152
              ],
              [
                -76.986703,
                39.826967
              ],
              [
                -76.98668,
                39.826967
              ],
              [
                -76.98668,
                39.826901
              ],
              [
                -76.986501,
                39.826901
              ],
              [
                -76.986501,
                39.826927
              ]
            ]
          ],
          [
            [
              [
                -76.986311,
                39.826901
              ],
              [
                -76.986311,
                39.826967
              ],
              [
                -76.986296,
                39.826967
              ],
              [
                -76.986296,
                39.827072
              ],
              [
                -76.986262,
                39.827072
              ],
              [
                -76.986262,
                39.827213
              ],
              [
                -76.986275,
                39.827213
              ],
              [
                -76.986275,
                39.827193
              ],
              [
                -76.986345,
                39.827193
              ],
              [
                -76.986345,
                39.827217
              ],
              [
                -76.986393,
                39.827217
              ],
              [
                -76.986393,
                39.827243
              ],
              [
                -76.986441,
                39.827243
              ],
              [
                -76.986441,
                39.827225
              ],
              [
                -76.986455,
                39.827225
              ],
              [
                -76.986455,
                39.827243
              ],
              [
                -76.986525,
                39.827243
              ],
              [
                -76.986525,
                39.827217
              ],
              [
                -76.986459,
                39.827217
              ],
              [
                -76.986459,
                39.827191
              ],
              [
                -76.986438,
                39.827191
              ],
              [
                -76.986438,
                39.827065
              ],
              [
                -76.986415,
                39.827065
              ],
              [
                -76.986415,
                39.827038
              ],
              [
                -76.986393,
                39.827038
              ],
              [
                -76.986393,
                39.826912
              ],
              [
                -76.986372,
                39.826912
              ],
              [
                -76.986372,
                39.826901
              ],
              [
                -76.986311,
                39.826901
              ]
            ]
          ],
          [
            [
              [
                -76.98621,
                39.82658
              ],
              [
                -76.986188,
                39.82658
              ],
              [
                -76.986188,
                39.826857
              ],
              [
                -76.98621,
                39.826857
              ],
              [
                -76.98621,
                39.82658
              ]
            ]
          ],
          [
            [
              [
                -76.986148,
                39.82683
              ],
              [
                -76.985874,
                39.82683
              ],
              [
                -76.985874,
                39.826853
              ],
              [
                -76.986148,
                39.826853
              ],
              [
                -76.986148,
                39.82683
              ]
            ]
          ],
          [
            [
              [
                -76.986448,
                39.82658
              ],
              [
                -76.986372,
                39.82658
              ],
              [
                -76.986372,
                39.826807
              ],
              [
                -76.98635,
                39.826807
              ],
              [
                -76.98635,
                39.826866
              ],
              [
                -76.986469,
                39.826866
              ],
              [
                -76.986469,
                39.826807
              ],
              [
                -76.986448,
                39.826807
              ],
              [
                -76.986448,
                39.82658
              ]
            ]
          ],
          [
            [
              [
                -76.98635,
                39.82658
              ],
              [
                -76.98635,
                39.826656
              ],
              [
                -76.986332,
                39.826656
              ],
              [
                -76.986332,
                39.82658
              ],
              [
                -76.98635,
                39.82658
              ]
            ]
          ],
          [
            [
              [
                -76.986657,
                39.827008
              ],
              [
                -76.986632,
                39.827008
              ],
              [
                -76.986632,
                39.82714
              ],
              [
                -76.986657,
                39.82714
              ],
              [
                -76.986657,
                39.827008
              ]
            ]
          ],
          [
            [
              [
                -76.986703,
                39.826914
              ],
              [
                -76.98668,
                39.826914
              ],
              [
                -76.98668,
                39.826967
              ],
              [
                -76.986703,
                39.826967
              ],
              [
                -76.986703,
                39.826914
              ]
            ]
          ],
          [
            [
              [
                -76.986131,
                39.826807
              ],
              [
                -76.986131,
                39.82683
              ],
              [
                -76.985968,
                39.82683
              ],
              [
                -76.985968,
                39.826807
              ],
              [
                -76.986131,
                39.826807
              ]
            ]
          ],
          [
            [
              [
                -76.98585,
                39.826565
              ],
              [
                -76.985817,
                39.826565
              ],
              [
                -76.985817,
                39.8267
              ],
              [
                -76.985825,
                39.8267
              ],
              [
                -76.985825,
                39.826738
              ],
              [
                -76.98585,
                39.826738
              ],
              [
                -76.98585,
                39.826565
              ]
            ]
          ],
          [
            [
              [
                -76.985853,
                39.826463
              ],
              [
                -76.98595,
                39.826463
              ],
              [
                -76.98595,
                39.826486
              ],
              [
                -76.985984,
                39.826486
              ],
              [
                -76.985984,
                39.826536
              ],
              [
                -76.985881,
                39.826536
              ],
              [
                -76.985881,
                39.826522
              ],
              [
                -76.985853,
                39.826522
              ],
              [
                -76.985853,
                39.826463
              ]
            ]
          ],
          [
            [
              [
                -76.985964,
                39.826481
              ],
              [
                -76.985964,
                39.826486
              ],
              [
                -76.986047,
                39.826486
              ],
              [
                -76.986047,
                39.826463
              ],
              [
                -76.985977,
                39.826463
              ],
              [
                -76.985977,
                39.826481
              ],
              [
                -76.985964,
                39.826481
              ]
            ]
          ],
          [
            [
              [
                -76.985853,
                39.826565
              ],
              [
                -76.985881,
                39.826565
              ],
              [
                -76.985881,
                39.82656
              ],
              [
                -76.986165,
                39.82656
              ],
              [
                -76.986165,
                39.826735
              ],
              [
                -76.98605,
                39.826735
              ],
              [
                -76.98605,
                39.826648
              ],
              [
                -76.986038,
                39.826648
              ],
              [
                -76.986038,
                39.826716
              ],
              [
                -76.985898,
                39.826716
              ],
              [
                -76.985898,
                39.826739
              ],
              [
                -76.985874,
                39.826739
              ],
              [
                -76.985874,
                39.826785
              ],
              [
                -76.985898,
                39.826785
              ],
              [
                -76.985898,
                39.826807
              ],
              [
                -76.985945,
                39.826807
              ],
              [
                -76.985945,
                39.82683
              ],
              [
                -76.985874,
                39.82683
              ],
              [
                -76.985874,
                39.826853
              ],
              [
                -76.986148,
                39.826853
              ],
              [
                -76.986148,
                39.826875
              ],
              [
                -76.985881,
                39.826875
              ],
              [
                -76.985881,
                39.826863
              ],
              [
                -76.985853,
                39.826863
              ],
              [
                -76.985853,
                39.826565
              ]
            ]
          ],
          [
            [
              [
                -76.985616,
                39.826413
              ],
              [
                -76.985616,
                39.82649
              ],
              [
                -76.985813,
                39.82649
              ],
              [
                -76.985813,
                39.826468
              ],
              [
                -76.985803,
                39.826468
              ],
              [
                -76.985803,
                39.826413
              ],
              [
                -76.985616,
                39.826413
              ]
            ]
          ],
          [
            [
              [
                -76.9855,
                39.826413
              ],
              [
                -76.9855,
                39.826526
              ],
              [
                -76.985794,
                39.826526
              ],
              [
                -76.985794,
                39.826543
              ],
              [
                -76.985812,
                39.826543
              ],
              [
                -76.985812,
                39.826565
              ],
              [
                -76.985817,
                39.826565
              ],
              [
                -76.985817,
                39.8267
              ],
              [
                -76.9854,
                39.8267
              ],
              [
                -76.9854,
                39.826686
              ],
              [
                -76.98535,
                39.826686
              ],
              [
                -76.98535,
                39.826413
              ],
              [
                -76.985374,
                39.826413
              ],
              [
                -76.985374,
                39.826431
              ],
              [
                -76.98539,
                39.826431
              ],
              [
                -76.98539,
                39.826413
              ],
              [
                -76.9855,
                39.826413
              ]
            ]
          ],
          [
            [
              [
                -76.985825,
                39.826738
              ],
              [
                -76.98585,
                39.826738
              ],
              [
                -76.98585,
                39.826863
              ],
              [
                -76.985822,
                39.826863
              ],
              [
                -76.985822,
                39.826898
              ],
              [
                -76.985367,
                39.826898
              ],
              [
                -76.985367,
                39.826896
              ],
              [
                -76.98535,
                39.826896
              ],
              [
                -76.98535,
                39.826761
              ],
              [
                -76.9854,
                39.826761
              ],
              [
                -76.9854,
                39.826739
              ],
              [
                -76.985825,
                39.826739
              ],
              [
                -76.985825,
                39.826738
              ]
            ]
          ],
          [
            [
              [
                -76.98535,
                39.826924
              ],
              [
                -76.985367,
                39.826924
              ],
              [
                -76.985367,
                39.826922
              ],
              [
                -76.98585,
                39.826922
              ],
              [
                -76.98585,
                39.826942
              ],
              [
                -76.98535,
                39.826942
              ],
              [
                -76.98535,
                39.826924
              ]
            ]
          ],
          [
            [
              [
                -76.985984,
                39.826536
              ],
              [
                -76.985984,
                39.826486
              ],
              [
                -76.986047,
                39.826486
              ],
              [
                -76.986047,
                39.826463
              ],
              [
                -76.986141,
                39.826463
              ],
              [
                -76.986141,
                39.826493
              ],
              [
                -76.986158,
                39.826493
              ],
              [
                -76.986158,
                39.826536
              ],
              [
                -76.985984,
                39.826536
              ]
            ]
          ],
          [
            [
              [
                -76.986159,
                39.826787
              ],
              [
                -76.986131,
                39.826787
              ],
              [
                -76.986131,
                39.82683
              ],
              [
                -76.986148,
                39.82683
              ],
              [
                -76.986148,
                39.826875
              ],
              [
                -76.986159,
                39.826875
              ],
              [
                -76.986159,
                39.826787
              ]
            ]
          ],
          [
            [
              [
                -76.986372,
                39.826901
              ],
              [
                -76.986372,
                39.826912
              ],
              [
                -76.986415,
                39.826912
              ],
              [
                -76.986415,
                39.826914
              ],
              [
                -76.986459,
                39.826914
              ],
              [
                -76.986459,
                39.826939
              ],
              [
                -76.986501,
                39.826939
              ],
              [
                -76.986501,
                39.826901
              ],
              [
                -76.986372,
                39.826901
              ]
            ]
          ],
          [
            [
              [
                -76.986469,
                39.826866
              ],
              [
                -76.986469,
                39.826858
              ],
              [
                -76.986513,
                39.826858
              ],
              [
                -76.986513,
                39.826857
              ],
              [
                -76.986556,
                39.826857
              ],
              [
                -76.986557,
                39.826844
              ],
              [
                -76.986599,
                39.826844
              ],
              [
                -76.986599,
                39.826858
              ],
              [
                -76.986642,
                39.826858
              ],
              [
                -76.986642,
                39.82686
              ],
              [
                -76.986682,
                39.82686
              ],
              [
                -76.986682,
                39.826858
              ],
              [
                -76.986841,
                39.826858
              ],
              [
                -76.986841,
                39.826866
              ],
              [
                -76.986469,
                39.826866
              ]
            ]
          ],
          [
            [
              [
                -76.986261,
                39.826537
              ],
              [
                -76.986346,
                39.826537
              ],
              [
                -76.986346,
                39.826518
              ],
              [
                -76.986261,
                39.826518
              ],
              [
                -76.986261,
                39.826537
              ]
            ]
          ],
          [
            [
              [
                -76.986946,
                39.826541
              ],
              [
                -76.986972,
                39.826541
              ],
              [
                -76.986972,
                39.826477
              ],
              [
                -76.986946,
                39.826477
              ],
              [
                -76.986946,
                39.826541
              ]
            ]
          ],
          [
            [
              [
                -76.986519,
                39.826927
              ],
              [
                -76.986501,
                39.826927
              ],
              [
                -76.986501,
                39.826939
              ],
              [
                -76.986459,
                39.826939
              ],
              [
                -76.986459,
                39.826914
              ],
              [
                -76.986438,
                39.826914
              ],
              [
                -76.986438,
                39.827191
              ],
              [
                -76.986459,
                39.827191
              ],
              [
                -76.986459,
                39.827217
              ],
              [
                -76.98649,
                39.827217
              ],
              [
                -76.986501,
                39.827217
              ],
              [
                -76.986519,
                39.827217
              ],
              [
                -76.986519,
                39.827179
              ],
              [
                -76.986519,
                39.827154
              ],
              [
                -76.986519,
                39.827129
              ],
              [
                -76.986519,
                39.827103
              ],
              [
                -76.986519,
                39.826927
              ]
            ]
          ],
          [
            [
              [
                -76.986372,
                39.82658
              ],
              [
                -76.98635,
                39.82658
              ],
              [
                -76.98635,
                39.826656
              ],
              [
                -76.986332,
                39.826656
              ],
              [
                -76.986332,
                39.826782
              ],
              [
                -76.98635,
                39.826782
              ],
              [
                -76.98635,
                39.826807
              ],
              [
                -76.986372,
                39.826807
              ],
              [
                -76.986372,
                39.82658
              ]
            ]
          ],
          [
            [
              [
                -76.98585,
                39.826413
              ],
              [
                -76.98535,
                39.826413
              ],
              [
                -76.98535,
                39.826942
              ],
              [
                -76.98585,
                39.826942
              ],
              [
                -76.98585,
                39.826413
              ]
            ]
          ]
        ]
      },
      "properties": {
        "fill": "#D9E2F6",
        "stroke-width": "0.5",
        "stroke": "#96A3BD",
        "opacity": "0.75"
      }
    },
    {
      "type": "Feature",
      "geometry": {
        "type": "MultiLineString",
        "coordinates": []
      },
      "properties": {
        "stroke-width": "0.5"
      }
    },
    {
      "type": "Feature",
      "geometry": {
        "type": "Point",
        "coordinates": [
          -76.986239,
          39.827024
        ]
      },
      "properties": {
        "type": "P",
        "sub_category": "ServiceDesks",
        "poi_name": "APPLIANCE DESK",
        "profile": "STORE SERVICES",
        "icon_id": "appliance_desk",
        "orientation": 0
      }
    },
    {
      "type": "Feature",
      "geometry": {
        "type": "Point",
        "coordinates": [
          -76.986883,
          39.826917
        ]
      },
      "properties": {
        "type": "P",
        "sub_category": "ServiceDesks",
        "poi_name": "MILLWORK DESK",
        "profile": "STORE SERVICES",
        "icon_id": "millwork_desk",
        "orientation": 0
      }
    },
    {
      "type": "Feature",
      "geometry": {
        "type": "Point",
        "coordinates": [
          -76.987082,
          39.826517
        ]
      },
      "properties": {
        "type": "P",
        "sub_category": "ServiceDesks",
        "poi_name": "PRO SERVICE DESK",
        "profile": "BASIC INFO",
        "icon_id": "pro_service_desk",
        "orientation": 0
      }
    },
    {
      "type": "Feature",
      "geometry": {
        "type": "Point",
        "coordinates": [
          -76.986661,
          39.827219
        ]
      },
      "properties": {
        "type": "P",
        "sub_category": "Services",
        "poi_name": "CARPET CUTTING",
        "profile": "STORE SERVICES",
        "icon_id": "carpet_cutting",
        "orientation": 0
      }
    },
    {
      "type": "Feature",
      "geometry": {
        "type": "Point",
        "coordinates": [
          -76.986198,
          39.82638
        ]
      },
      "properties": {
        "type": "P",
        "sub_category": "EntryExit",
        "poi_name": "MAIN ENTRANCE",
        "profile": "BASIC INFO",
        "icon_id": "entrance_exit",
        "orientation": 0
      }
    },
    {
      "type": "Feature",
      "geometry": {
        "type": "Point",
        "coordinates": [
          -76.986432,
          39.826459
        ]
      },
      "properties": {
        "type": "P",
        "sub_category": "EntryExit",
        "poi_name": "MAIN EXIT",
        "profile": "BASIC INFO",
        "icon_id": "entrance_exit",
        "orientation": 0
      }
    },
    {
      "type": "Feature",
      "geometry": {
        "type": "Point",
        "coordinates": [
          -76.987027,
          39.826446
        ]
      },
      "properties": {
        "type": "P",
        "sub_category": "EntryExit",
        "poi_name": "PRO ENTRANCE",
        "profile": "BASIC INFO",
        "icon_id": "entrance_exit",
        "orientation": 0
      }
    },
    {
      "type": "Feature",
      "geometry": {
        "type": "Point",
        "coordinates": [
          -76.987027,
          39.826489
        ]
      },
      "properties": {
        "type": "P",
        "sub_category": "EntryExit",
        "poi_name": "PRO EXIT",
        "profile": "BASIC INFO",
        "icon_id": "entrance_exit",
        "orientation": 0
      }
    },
    {
      "type": "Feature",
      "geometry": {
        "type": "Point",
        "coordinates": [
          -76.985558,
          39.826338
        ]
      },
      "properties": {
        "type": "P",
        "sub_category": "EntryExit",
        "poi_name": "GARDEN CENTER ENTRANCE",
        "profile": "BASIC INFO",
        "icon_id": "entrance_exit",
        "orientation": 0
      }
    },
    {
      "type": "Feature",
      "geometry": {
        "type": "Point",
        "coordinates": [
          -76.985559,
          39.826433
        ]
      },
      "properties": {
        "type": "P",
        "sub_category": "EntryExit",
        "poi_name": "GARDEN CENTER EXIT",
        "profile": "BASIC INFO",
        "icon_id": "entrance_exit",
        "orientation": 0
      }
    },
    {
      "type": "Feature",
      "geometry": {
        "type": "Point",
        "coordinates": [
          -76.986543,
          39.826441
        ]
      },
      "properties": {
        "type": "P",
        "sub_category": "Restrooms",
        "poi_name": "MEN/WOMEN’S RESTROOMS",
        "profile": "BASIC INFO",
        "icon_id": "restrooms",
        "orientation": 0
      }
    },
    {
      "type": "Feature",
      "geometry": {
        "type": "Point",
        "coordinates": [
          -76.986572,
          39.826431
        ]
      },
      "properties": {
        "type": "P",
        "sub_category": "Restrooms",
        "poi_name": "UNISEX",
        "profile": "BASIC INFO",
        "icon_id": "restrooms",
        "orientation": 0
      }
    },
    {
      "type": "Feature",
      "geometry": {
        "type": "Point",
        "coordinates": [
          -76.986605,
          39.826901
        ]
      },
      "properties": {
        "type": "P",
        "sub_category": "ServiceDesks",
        "poi_name": "FLOORING DESK",
        "profile": "STORE SERVICES",
        "icon_id": "flooring_desk",
        "orientation": 0
      }
    },
    {
      "type": "Feature",
      "geometry": {
        "type": "Point",
        "coordinates": [
          -76.986409,
          39.826827
        ]
      },
      "properties": {
        "type": "P",
        "sub_category": "ServiceDesks",
        "poi_name": "HOME DECOR DESK",
        "profile": "STORE SERVICES",
        "icon_id": "home_décor_desk",
        "orientation": 0
      }
    },
    {
      "type": "Feature",
      "geometry": {
        "type": "Point",
        "coordinates": [
          -76.986358,
          39.827138
        ]
      },
      "properties": {
        "type": "P",
        "sub_category": "ServiceDesks",
        "poi_name": "KITCHEN DESIGN DESK",
        "profile": "STORE SERVICES",
        "icon_id": "kitchen_design_desk",
        "orientation": 0
      }
    },
    {
      "type": "Feature",
      "geometry": {
        "type": "Point",
        "coordinates": [
          -76.986271,
          39.826579
        ]
      },
      "properties": {
        "type": "P",
        "sub_category": "ServiceDesks",
        "poi_name": "PAINT DESK",
        "profile": "STORE SERVICES",
        "icon_id": "paint_desk",
        "orientation": 0
      }
    },
    {
      "type": "Feature",
      "geometry": {
        "type": "Point",
        "coordinates": [
          -76.987033,
          39.826515
        ]
      },
      "properties": {
        "type": "P",
        "sub_category": "Checkouts",
        "poi_name": "PRO CHECKOUT",
        "profile": "BASIC INFO",
        "icon_id": "checkouts",
        "orientation": 0
      }
    },
    {
      "type": "Feature",
      "geometry": {
        "type": "Point",
        "coordinates": [
          -76.985559,
          39.826513
        ]
      },
      "properties": {
        "type": "P",
        "sub_category": "Checkouts",
        "poi_name": "GARDEN CENTER CHECKOUT",
        "profile": "BASIC INFO",
        "icon_id": "checkouts",
        "orientation": 0
      }
    },
    {
      "type": "Feature",
      "geometry": {
        "type": "Point",
        "coordinates": [
          -76.986745,
          39.826707
        ]
      },
      "properties": {
        "type": "P",
        "sub_category": "Services",
        "poi_name": "CHAIN AND ROPE CUTTING",
        "profile": "STORE SERVICES",
        "icon_id": "chain_rope_cutting",
        "orientation": 0
      }
    },
    {
      "type": "Feature",
      "geometry": {
        "type": "Point",
        "coordinates": [
          -76.986779,
          39.826643
        ]
      },
      "properties": {
        "type": "P",
        "sub_category": "Services",
        "poi_name": "GLASS CUTTING",
        "profile": "STORE SERVICES",
        "icon_id": "glass_cutting",
        "orientation": 0
      }
    },
    {
      "type": "Feature",
      "geometry": {
        "type": "Point",
        "coordinates": [
          -76.986674,
          39.826848
        ]
      },
      "properties": {
        "type": "P",
        "sub_category": "Services",
        "poi_name": "WIRE CUTTING",
        "profile": "STORE SERVICES",
        "icon_id": "wire_cutting",
        "orientation": 0
      }
    },
    {
      "type": "Feature",
      "geometry": {
        "type": "Point",
        "coordinates": [
          -76.987062,
          39.827187
        ]
      },
      "properties": {
        "type": "P",
        "sub_category": "Services",
        "poi_name": "WOOD CUTTING",
        "profile": "STORE SERVICES",
        "icon_id": "wood_cutting",
        "orientation": 0
      }
    },
    {
      "type": "Feature",
      "geometry": {
        "type": "Point",
        "coordinates": [
          -76.986414,
          39.826744
        ]
      },
      "properties": {
        "type": "P",
        "sub_category": "Services",
        "poi_name": "BLIND CUTTING",
        "profile": "STORE SERVICES",
        "icon_id": "blind_cutting",
        "orientation": 0
      }
    },
    {
      "type": "Feature",
      "geometry": {
        "type": "Point",
        "coordinates": [
          -76.986215,
          39.826515
        ]
      },
      "properties": {
        "type": "P",
        "sub_category": "ServiceDesks",
        "poi_name": "CUSTOMER SERVICE",
        "profile": "BASIC INFO",
        "icon_id": "customer_service_desk",
        "orientation": 0
      }
    },
    {
      "type": "Feature",
      "geometry": {
        "type": "Point",
        "coordinates": [
          -76.986215,
          39.826529
        ]
      },
      "properties": {
        "type": "P",
        "sub_category": "Services",
        "poi_name": "RETURNS",
        "profile": "BASIC INFO",
        "icon_id": "returns",
        "orientation": 0
      }
    },
    {
      "type": "Feature",
      "geometry": {
        "type": "Point",
        "coordinates": [
          -76.986303,
          39.826473
        ]
      },
      "properties": {
        "type": "P",
        "sub_category": "Services",
        "poi_name": "PRODUCT PICK-UP",
        "profile": "BASIC INFO",
        "icon_id": "store_pick_up",
        "orientation": 0
      }
    },
    {
      "type": "Feature",
      "geometry": {
        "type": "Point",
        "coordinates": [
          -76.986274,
          39.826473
        ]
      },
      "properties": {
        "type": "P",
        "sub_category": "Services",
        "poi_name": "PICKUP LOCKER",
        "profile": "BASIC INFO",
        "icon_id": "pickup_lockers",
        "orientation": 0
      }
    },
    {
      "type": "Feature",
      "geometry": {
        "type": "Point",
        "coordinates": [
          -76.986374,
          39.826554
        ]
      },
      "properties": {
        "type": "P",
        "sub_category": "Checkouts",
        "poi_name": "MAIN CHECKOUT",
        "profile": "BASIC INFO",
        "icon_id": "checkouts",
        "orientation": 0
      }
    },
    {
      "type": "Feature",
      "geometry": {
        "type": "Point",
        "coordinates": [
          -76.986434,
          39.826538
        ]
      },
      "properties": {
        "type": "P",
        "sub_category": "Checkouts",
        "poi_name": "MAIN SELF-CHECKOUT",
        "profile": "BASIC INFO",
        "icon_id": "checkouts",
        "orientation": 0
      }
    },
    {
      "type": "Feature",
      "geometry": {
        "type": "Point",
        "coordinates": [
          -76.985603,
          39.827094
        ]
      },
      "properties": {
        "type": "P",
        "sub_category": "ServiceDesks",
        "poi_name": "RECEIVING DESK",
        "profile": "BASIC INFO",
        "icon_id": "receiving_desk",
        "orientation": 0
      }
    },
    {
      "type": "Feature",
      "geometry": {
        "type": "Point",
        "coordinates": [
          -76.986957,
          39.827078
        ]
      },
      "properties": {
        "name": "LUMBER",
        "orientation": 0
      }
    },
    {
      "type": "Feature",
      "geometry": {
        "type": "Point",
        "coordinates": [
          -76.986781,
          39.827152
        ]
      },
      "properties": {
        "name": "LUMBER",
        "orientation": 0
      }
    },
    {
      "type": "Feature",
      "geometry": {
        "type": "Point",
        "coordinates": [
          -76.98707,
          39.827078
        ]
      },
      "properties": {
        "name": "LUMBER",
        "orientation": 0
      }
    },
    {
      "type": "Feature",
      "geometry": {
        "type": "Point",
        "coordinates": [
          -76.987062,
          39.826713
        ]
      },
      "properties": {
        "name": "LUMBER",
        "orientation": 0
      }
    },
    {
      "type": "Feature",
      "geometry": {
        "type": "Point",
        "coordinates": [
          -76.986981,
          39.826725
        ]
      },
      "properties": {
        "name": "LUMBER",
        "orientation": 0
      }
    },
    {
      "type": "Feature",
      "geometry": {
        "type": "Point",
        "coordinates": [
          -76.986865,
          39.826756
        ]
      },
      "properties": {
        "name": "BUILDING MATERIALS",
        "orientation": 0
      }
    },
    {
      "type": "Feature",
      "geometry": {
        "type": "Point",
        "coordinates": [
          -76.986815,
          39.827086
        ]
      },
      "properties": {
        "name": "BUILDING MATERIALS",
        "orientation": 0
      }
    },
    {
      "type": "Feature",
      "geometry": {
        "type": "Point",
        "coordinates": [
          -76.987094,
          39.826879
        ]
      },
      "properties": {
        "name": "BUILDING MATERIALS",
        "orientation": 0
      }
    },
    {
      "type": "Feature",
      "geometry": {
        "type": "Point",
        "coordinates": [
          -76.986817,
          39.827227
        ]
      },
      "properties": {
        "name": "BUILDING MATERIALS",
        "orientation": 0
      }
    },
    {
      "type": "Feature",
      "geometry": {
        "type": "Point",
        "coordinates": [
          -76.986542,
          39.827229
        ]
      },
      "properties": {
        "name": "BUILDING MATERIALS",
        "orientation": 0
      }
    },
    {
      "type": "Feature",
      "geometry": {
        "type": "Point",
        "coordinates": [
          -76.986972,
          39.826997
        ]
      },
      "properties": {
        "name": "BUILDING MATERIALS",
        "orientation": 0
      }
    },
    {
      "type": "Feature",
      "geometry": {
        "type": "Point",
        "coordinates": [
          -76.986949,
          39.826713
        ]
      },
      "properties": {
        "name": "BUILDING MATERIALS",
        "orientation": 0
      }
    },
    {
      "type": "Feature",
      "geometry": {
        "type": "Point",
        "coordinates": [
          -76.986889,
          39.826719
        ]
      },
      "properties": {
        "name": "MILLWORK",
        "orientation": 0
      }
    },
    {
      "type": "Feature",
      "geometry": {
        "type": "Point",
        "coordinates": [
          -76.987,
          39.827142
        ]
      },
      "properties": {
        "name": "MILLWORK",
        "orientation": 0
      }
    },
    {
      "type": "Feature",
      "geometry": {
        "type": "Point",
        "coordinates": [
          -76.986845,
          39.827056
        ]
      },
      "properties": {
        "name": "MILLWORK",
        "orientation": 0
      }
    },
    {
      "type": "Feature",
      "geometry": {
        "type": "Point",
        "coordinates": [
          -76.986534,
          39.826719
        ]
      },
      "properties": {
        "name": "LIGHTING",
        "orientation": 0
      }
    },
    {
      "type": "Feature",
      "geometry": {
        "type": "Point",
        "coordinates": [
          -76.986662,
          39.82672
        ]
      },
      "properties": {
        "name": "ROUGH ELECTRICAL",
        "orientation": 0
      }
    },
    {
      "type": "Feature",
      "geometry": {
        "type": "Point",
        "coordinates": [
          -76.985864,
          39.826966
        ]
      },
      "properties": {
        "name": "FASHION PLUMBING",
        "orientation": 0
      }
    },
    {
      "type": "Feature",
      "geometry": {
        "type": "Point",
        "coordinates": [
          -76.986018,
          39.826996
        ]
      },
      "properties": {
        "name": "FASHION PLUMBING",
        "orientation": 0
      }
    },
    {
      "type": "Feature",
      "geometry": {
        "type": "Point",
        "coordinates": [
          -76.986031,
          39.827153
        ]
      },
      "properties": {
        "name": "ROUGH PLUMBING",
        "orientation": 0
      }
    },
    {
      "type": "Feature",
      "geometry": {
        "type": "Point",
        "coordinates": [
          -76.986415,
          39.826988
        ]
      },
      "properties": {
        "name": "APPLIANCES",
        "orientation": 0
      }
    },
    {
      "type": "Feature",
      "geometry": {
        "type": "Point",
        "coordinates": [
          -76.986404,
          39.827104
        ]
      },
      "properties": {
        "name": "APPLIANCES",
        "orientation": 0
      }
    },
    {
      "type": "Feature",
      "geometry": {
        "type": "Point",
        "coordinates": [
          -76.986274,
          39.827072
        ]
      },
      "properties": {
        "name": "APPLIANCES",
        "orientation": 0
      }
    },
    {
      "type": "Feature",
      "geometry": {
        "type": "Point",
        "coordinates": [
          -76.986772,
          39.826715
        ]
      },
      "properties": {
        "name": "HARDWARE",
        "orientation": 0
      }
    },
    {
      "type": "Feature",
      "geometry": {
        "type": "Point",
        "coordinates": [
          -76.986653,
          39.826605
        ]
      },
      "properties": {
        "name": "HARDWARE",
        "orientation": 0
      }
    },
    {
      "type": "Feature",
      "geometry": {
        "type": "Point",
        "coordinates": [
          -76.98628,
          39.826714
        ]
      },
      "properties": {
        "name": "PAINT",
        "orientation": 0
      }
    },
    {
      "type": "Feature",
      "geometry": {
        "type": "Point",
        "coordinates": [
          -76.986842,
          39.826631
        ]
      },
      "properties": {
        "name": "TOOLS",
        "orientation": 0
      }
    },
    {
      "type": "Feature",
      "geometry": {
        "type": "Point",
        "coordinates": [
          -76.98676,
          39.826502
        ]
      },
      "properties": {
        "name": "TOOLS",
        "orientation": 0
      }
    },
    {
      "type": "Feature",
      "geometry": {
        "type": "Point",
        "coordinates": [
          -76.986019,
          39.826773
        ]
      },
      "properties": {
        "name": "OUTDOOR POWER EQUIPMENT",
        "orientation": 0
      }
    },
    {
      "type": "Feature",
      "geometry": {
        "type": "Point",
        "coordinates": [
          -76.986613,
          39.827072
        ]
      },
      "properties": {
        "name": "FLOORING",
        "orientation": 0
      }
    },
    {
      "type": "Feature",
      "geometry": {
        "type": "Point",
        "coordinates": [
          -76.986394,
          39.827072
        ]
      },
      "properties": {
        "name": "CABINETS",
        "orientation": 0
      }
    },
    {
      "type": "Feature",
      "geometry": {
        "type": "Point",
        "coordinates": [
          -76.986199,
          39.826719
        ]
      },
      "properties": {
        "name": "CLEANING",
        "orientation": 0
      }
    },
    {
      "type": "Feature",
      "geometry": {
        "type": "Point",
        "coordinates": [
          -76.986011,
          39.826841
        ]
      },
      "properties": {
        "name": "CLEANING",
        "orientation": 0
      }
    },
    {
      "type": "Feature",
      "geometry": {
        "type": "Point",
        "coordinates": [
          -76.986409,
          39.826723
        ]
      },
      "properties": {
        "name": "HOME DECOR",
        "orientation": 0
      }
    },
    {
      "type": "Feature",
      "geometry": {
        "type": "Point",
        "coordinates": [
          -76.986341,
          39.826618
        ]
      },
      "properties": {
        "name": "HOME DECOR",
        "orientation": 0
      }
    },
    {
      "type": "Feature",
      "geometry": {
        "type": "Point",
        "coordinates": [
          -76.986644,
          39.827074
        ]
      },
      "properties": {
        "name": "HOME DECOR",
        "orientation": 0
      }
    },
    {
      "type": "Feature",
      "geometry": {
        "type": "Point",
        "coordinates": [
          -76.986691,
          39.82694
        ]
      },
      "properties": {
        "name": "HOME DECOR",
        "orientation": 0
      }
    },
    {
      "type": "Feature",
      "geometry": {
        "type": "Point",
        "coordinates": [
          -76.98605,
          39.826818
        ]
      },
      "properties": {
        "name": "INSIDE LAWN AND GARDEN",
        "orientation": 0
      }
    },
    {
      "type": "Feature",
      "geometry": {
        "type": "Point",
        "coordinates": [
          -76.985834,
          39.826652
        ]
      },
      "properties": {
        "name": "INSIDE LAWN AND GARDEN",
        "orientation": 0
      }
    },
    {
      "type": "Feature",
      "geometry": {
        "type": "Point",
        "coordinates": [
          -76.985918,
          39.826499
        ]
      },
      "properties": {
        "name": "INSIDE LAWN AND GARDEN",
        "orientation": 0
      }
    },
    {
      "type": "Feature",
      "geometry": {
        "type": "Point",
        "coordinates": [
          -76.986005,
          39.826474
        ]
      },
      "properties": {
        "name": "INSIDE LAWN AND GARDEN",
        "orientation": 0
      }
    },
    {
      "type": "Feature",
      "geometry": {
        "type": "Point",
        "coordinates": [
          -76.986009,
          39.826718
        ]
      },
      "properties": {
        "name": "INSIDE LAWN AND GARDEN",
        "orientation": 0
      }
    },
    {
      "type": "Feature",
      "geometry": {
        "type": "Point",
        "coordinates": [
          -76.985715,
          39.826451
        ]
      },
      "properties": {
        "name": "OUTSIDE LAWN AND GARDEN",
        "orientation": 0
      }
    },
    {
      "type": "Feature",
      "geometry": {
        "type": "Point",
        "coordinates": [
          -76.985584,
          39.826556
        ]
      },
      "properties": {
        "name": "OUTSIDE LAWN AND GARDEN",
        "orientation": 0
      }
    },
    {
      "type": "Feature",
      "geometry": {
        "type": "Point",
        "coordinates": [
          -76.9856,
          39.826818
        ]
      },
      "properties": {
        "name": "OUTSIDE LAWN AND GARDEN",
        "orientation": 0
      }
    },
    {
      "type": "Feature",
      "geometry": {
        "type": "Point",
        "coordinates": [
          -76.9856,
          39.826932
        ]
      },
      "properties": {
        "name": "OUTSIDE LAWN AND GARDEN",
        "orientation": 0
      }
    },
    {
      "type": "Feature",
      "geometry": {
        "type": "Point",
        "coordinates": [
          -76.986478,
          39.827065
        ]
      },
      "properties": {
        "name": "STORAGE",
        "orientation": 0
      }
    },
    {
      "type": "Feature",
      "geometry": {
        "type": "Point",
        "coordinates": [
          -76.986352,
          39.826694
        ]
      },
      "properties": {
        "name": "STORAGE",
        "orientation": 0
      }
    },
    {
      "type": "Feature",
      "geometry": {
        "type": "Point",
        "coordinates": [
          -76.9856,
          39.826677
        ]
      },
      "properties": {
        "name": "GARDEN CENTER",
        "orientation": 0
      }
    }
  ]
}