{
  "type": "FeatureCollection",
  "features": [
    {
      "type": "Feature",
      "geometry": {
        "type": "MultiPolygon",
        "coordinates": [
          [
            [
              [
                -76.986928,
                39.826854
              ],
              [
                -76.986996,
                39.826854
              ],
              [
                -76.986996,
                39.826803
              ],
              [
                -76.987034,
                39.826803
              ],
              [
                -76.987034,
                39.826774
              ],
              [
                -76.986995,
                39.826774
              ],
              [
                -76.986995,
                39.826771
              ],
              [
                -76.986959,
                39.826771
              ],
              [
                -76.986959,
                39.826665
              ],
              [
                -76.986996,
                39.826665
              ],
              [
                -76.986996,
                39.826656
              ],
              [
                -76.986928,
                39.826656
              ],
              [
                -76.986928,
                39.826854
              ]
            ]
          ],
          [
            [
              [
                -76.986896,
                39.826703
              ],
              [
                -76.986896,
                39.826855
              ],
              [
                -76.986825,
                39.826855
              ],
              [
                -76.986825,
                39.826662
              ],
              [
                -76.986848,
                39.826662
              ],
              [
                -76.986867,
                39.826662
              ],
              [
                -76.986867,
                39.826703
              ],
              [
                -76.986896,
                39.826703
              ]
            ]
          ],
          [
            [
              [
                -76.986894,
                39.826887
              ],
              [
                -76.986863,
                39.826887
              ],
              [
                -76.986863,
                39.826958
              ],
              [
                -76.986894,
                39.826958
              ],
              [
                -76.986894,
                39.826887
              ]
            ]
          ],
          [
            [
              [
                -76.986894,
                39.827073
              ],
              [
                -76.986849,
                39.827073
              ],
              [
                -76.986803,
                39.827073
              ],
              [
                -76.986803,
                39.827037
              ],
              [
                -76.986833,
                39.827037
              ],
              [
                -76.986833,
                39.827073
              ],
              [
                -76.986863,
                39.827073
              ],
              [
                -76.986863,
                39.827002
              ],
              [
                -76.986894,
                39.827002
              ],
              [
                -76.986894,
                39.827073
              ]
            ]
          ],
          [
            [
              [
                -76.986996,
                39.827058
              ],
              [
                -76.986927,
                39.827058
              ],
              [
                -76.986927,
                39.826886
              ],
              [
                -76.986958,
                39.826886
              ],
              [
                -76.986958,
                39.827033
              ],
              [
                -76.986996,
                39.827033
              ],
              [
                -76.986996,
                39.827058
              ]
            ]
          ],
          [
            [
              [
                -76.987034,
                39.826803
              ],
              [
                -76.986996,
                39.826803
              ],
              [
                -76.986996,
                39.826854
              ],
              [
                -76.986996,
                39.826861
              ],
              [
                -76.986996,
                39.826886
              ],
              [
                -76.986958,
                39.826886
              ],
              [
                -76.986958,
                39.827033
              ],
              [
                -76.986996,
                39.827033
              ],
              [
                -76.986996,
                39.827058
              ],
              [
                -76.986927,
                39.827058
              ],
              [
                -76.986927,
                39.827073
              ],
              [
                -76.986952,
                39.827073
              ],
              [
                -76.986952,
                39.82709
              ],
              [
                -76.987034,
                39.82707
              ],
              [
                -76.987033,
                39.827009
              ],
              [
                -76.987034,
                39.827009
              ],
              [
                -76.987034,
                39.826994
              ],
              [
                -76.987034,
                39.826855
              ],
              [
                -76.987013,
                39.826855
              ],
              [
                -76.987013,
                39.826847
              ],
              [
                -76.987034,
                39.826847
              ],
              [
                -76.987034,
                39.826803
              ]
            ]
          ],
          [
            [
              [
                -76.986863,
                39.826887
              ],
              [
                -76.986817,
                39.826887
              ],
              [
                -76.986817,
                39.826901
              ],
              [
                -76.986863,
                39.826901
              ],
              [
                -76.986863,
                39.826887
              ]
            ]
          ],
          [
            [
              [
                -76.986894,
                39.826958
              ],
              [
                -76.986894,
                39.827002
              ],
              [
                -76.986863,
                39.827002
              ],
              [
                -76.986863,
                39.826958
              ],
              [
                -76.986894,
                39.826958
              ]
            ]
          ],
          [
            [
              [
                -76.987034,
                39.826622
              ],
              [
                -76.986996,
                39.826622
              ],
              [
                -76.986996,
                39.826656
              ],
              [
                -76.986996,
                39.826665
              ],
              [
                -76.986959,
                39.826665
              ],
              [
                -76.986959,
                39.826771
              ],
              [
                -76.986995,
                39.826771
              ],
              [
                -76.986995,
                39.826774
              ],
              [
                -76.987034,
                39.826774
              ],
              [
                -76.987034,
                39.826701
              ],
              [
                -76.987034,
                39.826694
              ],
              [
                -76.987034,
                39.826622
              ]
            ]
          ],
          [
            [
              [
                -76.986825,
                39.826813
              ],
              [
                -76.986774,
                39.826813
              ],
              [
                -76.986774,
                39.826697
              ],
              [
                -76.986746,
                39.826697
              ],
              [
                -76.986746,
                39.826733
              ],
              [
                -76.986717,
                39.826733
              ],
              [
                -76.986716,
                39.826856
              ],
              [
                -76.986688,
                39.826856
              ],
              [
                -76.986688,
                39.826731
              ],
              [
                -76.986717,
                39.826731
              ],
              [
                -76.986717,
                39.82669
              ],
              [
                -76.986746,
                39.82669
              ],
              [
                -76.986746,
                39.826662
              ],
              [
                -76.986825,
                39.826662
              ],
              [
                -76.986825,
                39.826813
              ]
            ]
          ],
          [
            [
              [
                -76.986825,
                39.826655
              ],
              [
                -76.986825,
                39.826662
              ],
              [
                -76.986867,
                39.826662
              ],
              [
                -76.986867,
                39.826703
              ],
              [
                -76.986896,
                39.826703
              ],
              [
                -76.986908,
                39.826703
              ],
              [
                -76.986908,
                39.826662
              ],
              [
                -76.986896,
                39.826662
              ],
              [
                -76.986896,
                39.826655
              ],
              [
                -76.986825,
                39.826655
              ]
            ]
          ],
          [
            [
              [
                -76.98685,
                39.82709
              ],
              [
                -76.986628,
                39.82709
              ],
              [
                -76.986628,
                39.827072
              ],
              [
                -76.986773,
                39.827072
              ],
              [
                -76.986773,
                39.826993
              ],
              [
                -76.986803,
                39.826993
              ],
              [
                -76.986803,
                39.827073
              ],
              [
                -76.986849,
                39.827073
              ],
              [
                -76.986865,
                39.827073
              ],
              [
                -76.986865,
                39.82708
              ],
              [
                -76.98685,
                39.82708
              ],
              [
                -76.98685,
                39.82709
              ]
            ]
          ],
          [
            [
              [
                -76.986639,
                39.826861
              ],
              [
                -76.986639,
                39.826857
              ],
              [
                -76.986662,
                39.826857
              ],
              [
                -76.986688,
                39.826857
              ],
              [
                -76.986688,
                39.826856
              ],
              [
                -76.986717,
                39.826856
              ],
              [
                -76.986717,
                39.826733
              ],
              [
                -76.986746,
                39.826733
              ],
              [
                -76.986746,
                39.826697
              ],
              [
                -76.986774,
                39.826697
              ],
              [
                -76.986774,
                39.826813
              ],
              [
                -76.986825,
                39.826813
              ],
              [
                -76.986825,
                39.826855
              ],
              [
                -76.986825,
                39.826861
              ],
              [
                -76.986639,
                39.826861
              ]
            ]
          ],
          [
            [
              [
                -76.986721,
                39.82688
              ],
              [
                -76.986659,
                39.82688
              ],
              [
                -76.986659,
                39.826886
              ],
              [
                -76.986632,
                39.826886
              ],
              [
                -76.986632,
                39.827033
              ],
              [
                -76.986631,
                39.827033
              ],
              [
                -76.986631,
                39.827072
              ],
              [
                -76.986773,
                39.827072
              ],
              [
                -76.986773,
                39.827066
              ],
              [
                -76.986773,
                39.826993
              ],
              [
                -76.986803,
                39.826993
              ],
              [
                -76.986803,
                39.827037
              ],
              [
                -76.986833,
                39.827037
              ],
              [
                -76.986833,
                39.827073
              ],
              [
                -76.986863,
                39.827073
              ],
              [
                -76.986863,
                39.826901
              ],
              [
                -76.986836,
                39.826901
              ],
              [
                -76.986817,
                39.826901
              ],
              [
                -76.986817,
                39.82688
              ],
              [
                -76.986721,
                39.82688
              ]
            ]
          ],
          [
            [
              [
                -76.986464,
                39.826662
              ],
              [
                -76.986436,
                39.826662
              ],
              [
                -76.986436,
                39.826664
              ],
              [
                -76.986329,
                39.826664
              ],
              [
                -76.986329,
                39.826662
              ],
              [
                -76.986278,
                39.826662
              ],
              [
                -76.986278,
                39.826828
              ],
              [
                -76.986329,
                39.826828
              ],
              [
                -76.986329,
                39.826856
              ],
              [
                -76.986382,
                39.826856
              ],
              [
                -76.986382,
                39.826835
              ],
              [
                -76.986436,
                39.826835
              ],
              [
                -76.986436,
                39.826828
              ],
              [
                -76.986464,
                39.826828
              ],
              [
                -76.986464,
                39.826662
              ]
            ]
          ],
          [
            [
              [
                -76.98654,
                39.826731
              ],
              [
                -76.98654,
                39.826745
              ],
              [
                -76.98654,
                39.826857
              ],
              [
                -76.986519,
                39.826857
              ],
              [
                -76.986518,
                39.826857
              ],
              [
                -76.986492,
                39.826857
              ],
              [
                -76.986464,
                39.826857
              ],
              [
                -76.986464,
                39.826856
              ],
              [
                -76.986436,
                39.826856
              ],
              [
                -76.986436,
                39.826828
              ],
              [
                -76.986464,
                39.826828
              ],
              [
                -76.986464,
                39.826662
              ],
              [
                -76.986519,
                39.826662
              ],
              [
                -76.986519,
                39.826731
              ],
              [
                -76.98654,
                39.826731
              ]
            ]
          ],
          [
            [
              [
                -76.986001,
                39.826955
              ],
              [
                -76.986009,
                39.826955
              ],
              [
                -76.986009,
                39.82688
              ],
              [
                -76.986025,
                39.82688
              ],
              [
                -76.986009,
                39.82688
              ],
              [
                -76.986009,
                39.826871
              ],
              [
                -76.985741,
                39.826871
              ],
              [
                -76.985725,
                39.826871
              ],
              [
                -76.985725,
                39.826883
              ],
              [
                -76.985725,
                39.826974
              ],
              [
                -76.985725,
                39.826987
              ],
              [
                -76.986001,
                39.826987
              ],
              [
                -76.986001,
                39.826955
              ]
            ]
          ],
          [
            [
              [
                -76.985696,
                39.827014
              ],
              [
                -76.985667,
                39.827014
              ],
              [
                -76.985667,
                39.826883
              ],
              [
                -76.985696,
                39.826883
              ],
              [
                -76.985696,
                39.827014
              ]
            ]
          ],
          [
            [
              [
                -76.986164,
                39.82693
              ],
              [
                -76.986228,
                39.82693
              ],
              [
                -76.986228,
                39.82688
              ],
              [
                -76.986164,
                39.82688
              ],
              [
                -76.986164,
                39.82693
              ]
            ]
          ],
          [
            [
              [
                -76.986001,
                39.827055
              ],
              [
                -76.986001,
                39.827076
              ],
              [
                -76.985842,
                39.827076
              ],
              [
                -76.985842,
                39.82709
              ],
              [
                -76.985798,
                39.82709
              ],
              [
                -76.98574,
                39.82709
              ],
              [
                -76.98574,
                39.82708
              ],
              [
                -76.985725,
                39.82708
              ],
              [
                -76.985725,
                39.826999
              ],
              [
                -76.985725,
                39.826987
              ],
              [
                -76.986001,
                39.826987
              ],
              [
                -76.986001,
                39.827055
              ]
            ]
          ],
          [
            [
              [
                -76.985696,
                39.827014
              ],
              [
                -76.985696,
                39.827073
              ],
              [
                -76.985667,
                39.827073
              ],
              [
                -76.985667,
                39.827014
              ],
              [
                -76.985696,
                39.827014
              ]
            ]
          ],
          [
            [
              [
                -76.986306,
                39.826887
              ],
              [
                -76.986281,
                39.826887
              ],
              [
                -76.986281,
                39.826886
              ],
              [
                -76.986281,
                39.82688
              ],
              [
                -76.986228,
                39.82688
              ],
              [
                -76.986228,
                39.826886
              ],
              [
                -76.986253,
                39.826886
              ],
              [
                -76.986253,
                39.826998
              ],
              [
                -76.986281,
                39.826998
              ],
              [
                -76.986281,
                39.826945
              ],
              [
                -76.986306,
                39.826945
              ],
              [
                -76.986306,
                39.826887
              ]
            ]
          ],
          [
            [
              [
                -76.986164,
                39.82693
              ],
              [
                -76.986164,
                39.82688
              ],
              [
                -76.986009,
                39.82688
              ],
              [
                -76.986009,
                39.826955
              ],
              [
                -76.986009,
                39.826993
              ],
              [
                -76.986009,
                39.827076
              ],
              [
                -76.985842,
                39.827076
              ],
              [
                -76.985842,
                39.82709
              ],
              [
                -76.986142,
                39.82709
              ],
              [
                -76.986142,
                39.827076
              ],
              [
                -76.986146,
                39.827076
              ],
              [
                -76.986146,
                39.82705
              ],
              [
                -76.98619,
                39.82705
              ],
              [
                -76.98619,
                39.82698
              ],
              [
                -76.986107,
                39.82698
              ],
              [
                -76.986107,
                39.82693
              ],
              [
                -76.986164,
                39.82693
              ]
            ]
          ],
          [
            [
              [
                -76.986163,
                39.827062
              ],
              [
                -76.986223,
                39.827062
              ],
              [
                -76.986223,
                39.827076
              ],
              [
                -76.986163,
                39.827076
              ],
              [
                -76.986163,
                39.827062
              ]
            ]
          ],
          [
            [
              [
                -76.986662,
                39.826857
              ],
              [
                -76.986639,
                39.826857
              ],
              [
                -76.986639,
                39.826856
              ],
              [
                -76.98659,
                39.826856
              ],
              [
                -76.98659,
                39.826857
              ],
              [
                -76.98654,
                39.826857
              ],
              [
                -76.98654,
                39.826731
              ],
              [
                -76.986519,
                39.826731
              ],
              [
                -76.986519,
                39.826662
              ],
              [
                -76.986589,
                39.826662
              ],
              [
                -76.986615,
                39.826662
              ],
              [
                -76.986615,
                39.826675
              ],
              [
                -76.986639,
                39.826675
              ],
              [
                -76.986639,
                39.826662
              ],
              [
                -76.986662,
                39.826662
              ],
              [
                -76.986662,
                39.826857
              ]
            ]
          ],
          [
            [
              [
                -76.986165,
                39.826657
              ],
              [
                -76.986186,
                39.826657
              ],
              [
                -76.986186,
                39.826662
              ],
              [
                -76.9862,
                39.826662
              ],
              [
                -76.986209,
                39.826662
              ],
              [
                -76.986209,
                39.826759
              ],
              [
                -76.986187,
                39.826759
              ],
              [
                -76.986164,
                39.826759
              ],
              [
                -76.986164,
                39.826856
              ],
              [
                -76.986064,
                39.826856
              ],
              [
                -76.986064,
                39.826662
              ],
              [
                -76.986088,
                39.826662
              ],
              [
                -76.986088,
                39.826657
              ],
              [
                -76.986104,
                39.826657
              ],
              [
                -76.986165,
                39.826657
              ]
            ]
          ],
          [
            [
              [
                -76.98683,
                39.826636
              ],
              [
                -76.98683,
                39.826626
              ],
              [
                -76.986815,
                39.826626
              ],
              [
                -76.986815,
                39.826599
              ],
              [
                -76.986822,
                39.826599
              ],
              [
                -76.986822,
                39.826594
              ],
              [
                -76.986801,
                39.826594
              ],
              [
                -76.986801,
                39.826604
              ],
              [
                -76.986785,
                39.826604
              ],
              [
                -76.986785,
                39.826594
              ],
              [
                -76.98645,
                39.826594
              ],
              [
                -76.98645,
                39.826607
              ],
              [
                -76.986438,
                39.826607
              ],
              [
                -76.986438,
                39.826636
              ],
              [
                -76.98683,
                39.826636
              ]
            ]
          ],
          [
            [
              [
                -76.986702,
                39.826662
              ],
              [
                -76.986746,
                39.826662
              ],
              [
                -76.986746,
                39.82669
              ],
              [
                -76.986717,
                39.82669
              ],
              [
                -76.986717,
                39.826731
              ],
              [
                -76.986688,
                39.826731
              ],
              [
                -76.986688,
                39.826857
              ],
              [
                -76.986662,
                39.826857
              ],
              [
                -76.986662,
                39.826662
              ],
              [
                -76.986695,
                39.826662
              ],
              [
                -76.986702,
                39.826662
              ]
            ]
          ],
          [
            [
              [
                -76.986008,
                39.826784
              ],
              [
                -76.986009,
                39.826807
              ],
              [
                -76.986002,
                39.826807
              ],
              [
                -76.986002,
                39.826812
              ],
              [
                -76.98598,
                39.826812
              ],
              [
                -76.98598,
                39.826824
              ],
              [
                -76.985721,
                39.826824
              ],
              [
                -76.985721,
                39.826838
              ],
              [
                -76.985698,
                39.826838
              ],
              [
                -76.985698,
                39.826845
              ],
              [
                -76.985667,
                39.826845
              ],
              [
                -76.985667,
                39.826831
              ],
              [
                -76.985698,
                39.826831
              ],
              [
                -76.985698,
                39.826759
              ],
              [
                -76.985721,
                39.826759
              ],
              [
                -76.985721,
                39.826771
              ],
              [
                -76.985865,
                39.826771
              ],
              [
                -76.985865,
                39.82681
              ],
              [
                -76.985879,
                39.82681
              ],
              [
                -76.985879,
                39.826784
              ],
              [
                -76.986008,
                39.826784
              ]
            ]
          ],
          [
            [
              [
                -76.986408,
                39.82709
              ],
              [
                -76.986408,
                39.827076
              ],
              [
                -76.986408,
                39.827061
              ],
              [
                -76.986408,
                39.826894
              ],
              [
                -76.986385,
                39.826894
              ],
              [
                -76.986385,
                39.82688
              ],
              [
                -76.986488,
                39.82688
              ],
              [
                -76.986535,
                39.82688
              ],
              [
                -76.986607,
                39.82688
              ],
              [
                -76.986607,
                39.826886
              ],
              [
                -76.986632,
                39.826886
              ],
              [
                -76.986632,
                39.827018
              ],
              [
                -76.986603,
                39.827018
              ],
              [
                -76.986603,
                39.827047
              ],
              [
                -76.986631,
                39.827047
              ],
              [
                -76.986603,
                39.827047
              ],
              [
                -76.986631,
                39.827047
              ],
              [
                -76.986631,
                39.827072
              ],
              [
                -76.986628,
                39.827072
              ],
              [
                -76.986628,
                39.82709
              ],
              [
                -76.986564,
                39.82709
              ],
              [
                -76.986564,
                39.82708
              ],
              [
                -76.986548,
                39.82708
              ],
              [
                -76.986548,
                39.82709
              ],
              [
                -76.986408,
                39.82709
              ]
            ]
          ],
          [
            [
              [
                -76.986408,
                39.827076
              ],
              [
                -76.986408,
                39.82709
              ],
              [
                -76.986142,
                39.82709
              ],
              [
                -76.986142,
                39.827076
              ],
              [
                -76.986146,
                39.827076
              ],
              [
                -76.986146,
                39.827062
              ],
              [
                -76.986146,
                39.82705
              ],
              [
                -76.98619,
                39.82705
              ],
              [
                -76.98619,
                39.82698
              ],
              [
                -76.986107,
                39.82698
              ],
              [
                -76.986107,
                39.82693
              ],
              [
                -76.986228,
                39.82693
              ],
              [
                -76.986228,
                39.826886
              ],
              [
                -76.986253,
                39.826886
              ],
              [
                -76.986253,
                39.82693
              ],
              [
                -76.986253,
                39.826998
              ],
              [
                -76.986281,
                39.826998
              ],
              [
                -76.986281,
                39.826945
              ],
              [
                -76.986306,
                39.826945
              ],
              [
                -76.986306,
                39.827047
              ],
              [
                -76.986306,
                39.827054
              ],
              [
                -76.986306,
                39.827069
              ],
              [
                -76.986306,
                39.827071
              ],
              [
                -76.986306,
                39.827076
              ],
              [
                -76.986408,
                39.827076
              ]
            ]
          ],
          [
            [
              [
                -76.985987,
                39.826838
              ],
              [
                -76.985729,
                39.826838
              ],
              [
                -76.985729,
                39.826851
              ],
              [
                -76.985987,
                39.826851
              ],
              [
                -76.985987,
                39.826838
              ]
            ]
          ],
          [
            [
              [
                -76.986064,
                39.826662
              ],
              [
                -76.986037,
                39.826662
              ],
              [
                -76.986037,
                39.826856
              ],
              [
                -76.986064,
                39.826856
              ],
              [
                -76.986064,
                39.826662
              ]
            ]
          ],
          [
            [
              [
                -76.986632,
                39.827018
              ],
              [
                -76.986603,
                39.827018
              ],
              [
                -76.986603,
                39.827047
              ],
              [
                -76.986631,
                39.827047
              ],
              [
                -76.986632,
                39.827018
              ]
            ]
          ],
          [
            [
              [
                -76.986164,
                39.826856
              ],
              [
                -76.986164,
                39.826801
              ],
              [
                -76.986187,
                39.826801
              ],
              [
                -76.986187,
                39.826815
              ],
              [
                -76.986209,
                39.826815
              ],
              [
                -76.986209,
                39.826662
              ],
              [
                -76.986278,
                39.826662
              ],
              [
                -76.986278,
                39.826828
              ],
              [
                -76.986329,
                39.826828
              ],
              [
                -76.986329,
                39.826861
              ],
              [
                -76.986187,
                39.826861
              ],
              [
                -76.986187,
                39.826856
              ],
              [
                -76.986164,
                39.826856
              ]
            ]
          ],
          [
            [
              [
                -76.986434,
                39.826894
              ],
              [
                -76.986408,
                39.826894
              ],
              [
                -76.986408,
                39.826923
              ],
              [
                -76.986434,
                39.826923
              ],
              [
                -76.986434,
                39.826894
              ]
            ]
          ],
          [
            [
              [
                -76.986545,
                39.827057
              ],
              [
                -76.986515,
                39.827057
              ],
              [
                -76.986515,
                39.827027
              ],
              [
                -76.986545,
                39.827027
              ],
              [
                -76.986545,
                39.826939
              ],
              [
                -76.986575,
                39.826939
              ],
              [
                -76.986575,
                39.827041
              ],
              [
                -76.986545,
                39.827041
              ],
              [
                -76.986545,
                39.827057
              ]
            ]
          ],
          [
            [
              [
                -76.98598,
                39.826824
              ],
              [
                -76.98598,
                39.826838
              ],
              [
                -76.985721,
                39.826838
              ],
              [
                -76.985721,
                39.826824
              ],
              [
                -76.98598,
                39.826824
              ]
            ]
          ],
          [
            [
              [
                -76.985872,
                39.826606
              ],
              [
                -76.985872,
                39.826594
              ],
              [
                -76.985667,
                39.826594
              ],
              [
                -76.985667,
                39.826626
              ],
              [
                -76.985702,
                39.826626
              ],
              [
                -76.985702,
                39.826632
              ],
              [
                -76.985842,
                39.826632
              ],
              [
                -76.985842,
                39.826606
              ],
              [
                -76.985872,
                39.826606
              ]
            ]
          ],
          [
            [
              [
                -76.985667,
                39.826651
              ],
              [
                -76.985667,
                39.826831
              ],
              [
                -76.985698,
                39.826831
              ],
              [
                -76.985698,
                39.826759
              ],
              [
                -76.985721,
                39.826759
              ],
              [
                -76.985721,
                39.826771
              ],
              [
                -76.985865,
                39.826771
              ],
              [
                -76.985865,
                39.826676
              ],
              [
                -76.985879,
                39.826676
              ],
              [
                -76.985879,
                39.826784
              ],
              [
                -76.986008,
                39.826784
              ],
              [
                -76.986008,
                39.826645
              ],
              [
                -76.985702,
                39.826645
              ],
              [
                -76.985702,
                39.82665
              ],
              [
                -76.985667,
                39.82665
              ],
              [
                -76.985667,
                39.826651
              ]
            ]
          ],
          [
            [
              [
                -76.985729,
                39.826838
              ],
              [
                -76.985698,
                39.826838
              ],
              [
                -76.985698,
                39.826845
              ],
              [
                -76.985667,
                39.826845
              ],
              [
                -76.985667,
                39.82686
              ],
              [
                -76.985702,
                39.82686
              ],
              [
                -76.985702,
                39.826864
              ],
              [
                -76.985729,
                39.826864
              ],
              [
                -76.985786,
                39.826864
              ],
              [
                -76.985987,
                39.826864
              ],
              [
                -76.985987,
                39.826851
              ],
              [
                -76.985729,
                39.826851
              ],
              [
                -76.985729,
                39.826838
              ]
            ]
          ],
          [
            [
              [
                -76.985588,
                39.82703
              ],
              [
                -76.98555,
                39.82703
              ],
              [
                -76.98555,
                39.826979
              ],
              [
                -76.985626,
                39.826979
              ],
              [
                -76.985626,
                39.826986
              ],
              [
                -76.985588,
                39.826986
              ],
              [
                -76.985588,
                39.82703
              ]
            ]
          ],
          [
            [
              [
                -76.985664,
                39.826759
              ],
              [
                -76.985635,
                39.826759
              ],
              [
                -76.985635,
                39.82665
              ],
              [
                -76.985664,
                39.82665
              ],
              [
                -76.985664,
                39.826759
              ]
            ]
          ],
          [
            [
              [
                -76.985664,
                39.826883
              ],
              [
                -76.985648,
                39.826883
              ],
              [
                -76.985648,
                39.826979
              ],
              [
                -76.985368,
                39.826979
              ],
              [
                -76.985368,
                39.826933
              ],
              [
                -76.98535,
                39.826933
              ],
              [
                -76.98535,
                39.827148
              ],
              [
                -76.98537,
                39.827148
              ],
              [
                -76.98537,
                39.82715
              ],
              [
                -76.985376,
                39.82715
              ],
              [
                -76.985376,
                39.827143
              ],
              [
                -76.985628,
                39.827143
              ],
              [
                -76.985628,
                39.827074
              ],
              [
                -76.985643,
                39.827074
              ],
              [
                -76.985643,
                39.827073
              ],
              [
                -76.985664,
                39.827073
              ],
              [
                -76.985664,
                39.826883
              ]
            ]
          ],
          [
            [
              [
                -76.985511,
                39.826581
              ],
              [
                -76.985619,
                39.826581
              ],
              [
                -76.985619,
                39.826632
              ],
              [
                -76.985511,
                39.826632
              ],
              [
                -76.985511,
                39.826581
              ]
            ]
          ],
          [
            [
              [
                -76.985664,
                39.827081
              ],
              [
                -76.985643,
                39.827081
              ],
              [
                -76.985642,
                39.827081
              ],
              [
                -76.985642,
                39.827166
              ],
              [
                -76.985664,
                39.827166
              ],
              [
                -76.985664,
                39.827081
              ]
            ]
          ],
          [
            [
              [
                -76.985614,
                39.827166
              ],
              [
                -76.98535,
                39.827166
              ],
              [
                -76.98535,
                39.827157
              ],
              [
                -76.98537,
                39.827157
              ],
              [
                -76.98539,
                39.827157
              ],
              [
                -76.98539,
                39.82715
              ],
              [
                -76.985614,
                39.82715
              ],
              [
                -76.985614,
                39.827166
              ]
            ]
          ],
          [
            [
              [
                -76.985635,
                39.82665
              ],
              [
                -76.985386,
                39.82665
              ],
              [
                -76.985386,
                39.826635
              ],
              [
                -76.985357,
                39.826635
              ],
              [
                -76.98535,
                39.826885
              ],
              [
                -76.985418,
                39.826885
              ],
              [
                -76.985418,
                39.826957
              ],
              [
                -76.985622,
                39.826957
              ],
              [
                -76.985622,
                39.82686
              ],
              [
                -76.985664,
                39.82686
              ],
              [
                -76.985664,
                39.826759
              ],
              [
                -76.985635,
                39.826759
              ],
              [
                -76.985635,
                39.82665
              ]
            ]
          ],
          [
            [
              [
                -76.986002,
                39.826864
              ],
              [
                -76.985987,
                39.826864
              ],
              [
                -76.985987,
                39.826838
              ],
              [
                -76.98598,
                39.826838
              ],
              [
                -76.98598,
                39.826812
              ],
              [
                -76.986002,
                39.826812
              ],
              [
                -76.986002,
                39.826864
              ]
            ]
          ],
          [
            [
              [
                -76.986436,
                39.826861
              ],
              [
                -76.986436,
                39.826835
              ],
              [
                -76.986382,
                39.826835
              ],
              [
                -76.986382,
                39.826856
              ],
              [
                -76.986329,
                39.826856
              ],
              [
                -76.986329,
                39.826861
              ],
              [
                -76.986436,
                39.826861
              ]
            ]
          ],
          [
            [
              [
                -76.986385,
                39.826901
              ],
              [
                -76.986332,
                39.826901
              ],
              [
                -76.986332,
                39.826887
              ],
              [
                -76.986281,
                39.826887
              ],
              [
                -76.986281,
                39.82688
              ],
              [
                -76.986385,
                39.82688
              ],
              [
                -76.986385,
                39.826894
              ],
              [
                -76.986385,
                39.826901
              ]
            ]
          ],
          [
            [
              [
                -76.98688,
                39.826602
              ],
              [
                -76.98688,
                39.826594
              ],
              [
                -76.986822,
                39.826594
              ],
              [
                -76.986822,
                39.826599
              ],
              [
                -76.986815,
                39.826599
              ],
              [
                -76.986815,
                39.826626
              ],
              [
                -76.98683,
                39.826626
              ],
              [
                -76.98683,
                39.826636
              ],
              [
                -76.986846,
                39.826636
              ],
              [
                -76.986846,
                39.826602
              ],
              [
                -76.98688,
                39.826602
              ]
            ]
          ],
          [
            [
              [
                -76.985842,
                39.826632
              ],
              [
                -76.985842,
                39.826606
              ],
              [
                -76.985872,
                39.826606
              ],
              [
                -76.985872,
                39.826594
              ],
              [
                -76.985988,
                39.826594
              ],
              [
                -76.985988,
                39.82661
              ],
              [
                -76.986008,
                39.82661
              ],
              [
                -76.986008,
                39.826632
              ],
              [
                -76.985842,
                39.826632
              ]
            ]
          ],
          [
            [
              [
                -76.986213,
                39.826634
              ],
              [
                -76.986122,
                39.826634
              ],
              [
                -76.986122,
                39.826611
              ],
              [
                -76.986213,
                39.826611
              ],
              [
                -76.986213,
                39.826634
              ]
            ]
          ],
          [
            [
              [
                -76.986408,
                39.826894
              ],
              [
                -76.986385,
                39.826894
              ],
              [
                -76.986385,
                39.826901
              ],
              [
                -76.986332,
                39.826901
              ],
              [
                -76.986332,
                39.826887
              ],
              [
                -76.986306,
                39.826887
              ],
              [
                -76.986306,
                39.826915
              ],
              [
                -76.986306,
                39.827076
              ],
              [
                -76.986408,
                39.827076
              ],
              [
                -76.986408,
                39.827033
              ],
              [
                -76.986408,
                39.826894
              ]
            ]
          ],
          [
            [
              [
                -76.986209,
                39.826759
              ],
              [
                -76.986187,
                39.826759
              ],
              [
                -76.986187,
                39.826773
              ],
              [
                -76.986164,
                39.826773
              ],
              [
                -76.986164,
                39.826801
              ],
              [
                -76.986187,
                39.826801
              ],
              [
                -76.986187,
                39.826815
              ],
              [
                -76.986209,
                39.826815
              ],
              [
                -76.986209,
                39.826759
              ]
            ]
          ],
          [
            [
              [
                -76.98535,
                39.826888
              ],
              [
                -76.985359,
                39.826581
              ],
              [
                -76.985664,
                39.826581
              ],
              [
                -76.985664,
                39.827166
              ],
              [
                -76.98535,
                39.827166
              ],
              [
                -76.98535,
                39.826888
              ]
            ]
          ]
        ]
      },
      "properties": {
        "fill": "#D9E2F6",
        "stroke-width": "0.5",
        "stroke": "#96A3BD",
        "opacity": "0.75"
      }
    },
    {
      "type": "Feature",
      "geometry": {
        "type": "MultiLineString",
        "coordinates": []
      },
      "properties": {
        "stroke-width": "0.5"
      }
    },
    {
      "type": "Feature",
      "geometry": {
        "type": "Point",
        "coordinates": [
          -76.986077,
          39.826938
        ]
      },
      "properties": {
        "type": "P",
        "sub_category": "ServiceDesks",
        "poi_name": "APPLIANCE DESK",
        "profile": "STORE SERVICES",
        "icon_id": "appliance_desk",
        "orientation": 0
      }
    },
    {
      "type": "Feature",
      "geometry": {
        "type": "Point",
        "coordinates": [
          -76.986521,
          39.827077
        ]
      },
      "properties": {
        "type": "P",
        "sub_category": "Services",
        "poi_name": "CARPET CUTTING",
        "profile": "STORE SERVICES",
        "icon_id": "carpet_cutting",
        "orientation": 0
      }
    },
    {
      "type": "Feature",
      "geometry": {
        "type": "Point",
        "coordinates": [
          -76.986046,
          39.826565
        ]
      },
      "properties": {
        "type": "P",
        "sub_category": "EntryExit",
        "poi_name": "MAIN ENTRANCE",
        "profile": "BASIC INFO",
        "icon_id": "entrance_exit",
        "orientation": 0
      }
    },
    {
      "type": "Feature",
      "geometry": {
        "type": "Point",
        "coordinates": [
          -76.986916,
          39.826585
        ]
      },
      "properties": {
        "type": "P",
        "sub_category": "EntryExit",
        "poi_name": "PRO ENTRANCE",
        "profile": "BASIC INFO",
        "icon_id": "entrance_exit",
        "orientation": 0
      }
    },
    {
      "type": "Feature",
      "geometry": {
        "type": "Point",
        "coordinates": [
          -76.986917,
          39.826608
        ]
      },
      "properties": {
        "type": "P",
        "sub_category": "EntryExit",
        "poi_name": "PRO EXIT",
        "profile": "BASIC INFO",
        "icon_id": "entrance_exit",
        "orientation": 0
      }
    },
    {
      "type": "Feature",
      "geometry": {
        "type": "Point",
        "coordinates": [
          -76.985441,
          39.826569
        ]
      },
      "properties": {
        "type": "P",
        "sub_category": "EntryExit",
        "poi_name": "GARDEN CENTER ENTRANCE",
        "profile": "BASIC INFO",
        "icon_id": "entrance_exit",
        "orientation": 0
      }
    },
    {
      "type": "Feature",
      "geometry": {
        "type": "Point",
        "coordinates": [
          -76.985441,
          39.826591
        ]
      },
      "properties": {
        "type": "P",
        "sub_category": "EntryExit",
        "poi_name": "GARDEN CENTER EXIT",
        "profile": "BASIC INFO",
        "icon_id": "entrance_exit",
        "orientation": 0
      }
    },
    {
      "type": "Feature",
      "geometry": {
        "type": "Point",
        "coordinates": [
          -76.986313,
          39.826581
        ]
      },
      "properties": {
        "type": "P",
        "sub_category": "Restrooms",
        "poi_name": "WOMEN’S RESTROOMS",
        "profile": "BASIC INFO",
        "icon_id": "restrooms",
        "orientation": 0
      }
    },
    {
      "type": "Feature",
      "geometry": {
        "type": "Point",
        "coordinates": [
          -76.986484,
          39.826581
        ]
      },
      "properties": {
        "type": "P",
        "sub_category": "Restrooms",
        "poi_name": "MEN’S RESTROOMS",
        "profile": "BASIC INFO",
        "icon_id": "restrooms",
        "orientation": 0
      }
    },
    {
      "type": "Feature",
      "geometry": {
        "type": "Point",
        "coordinates": [
          -76.986966,
          39.826626
        ]
      },
      "properties": {
        "type": "P",
        "sub_category": "ServiceDesks",
        "poi_name": "PRO SERVICE DESK",
        "profile": "BASIC INFO",
        "icon_id": "pro_service_desk",
        "orientation": 0
      }
    },
    {
      "type": "Feature",
      "geometry": {
        "type": "Point",
        "coordinates": [
          -76.986596,
          39.827077
        ]
      },
      "properties": {
        "type": "P",
        "sub_category": "Services",
        "poi_name": "CARPET CUTTING",
        "profile": "STORE SERVICES",
        "icon_id": "carpet_cutting",
        "orientation": 0
      }
    },
    {
      "type": "Feature",
      "geometry": {
        "type": "Point",
        "coordinates": [
          -76.986511,
          39.826905
        ]
      },
      "properties": {
        "type": "P",
        "sub_category": "ServiceDesks",
        "poi_name": "FLOORING DESK",
        "profile": "STORE SERVICES",
        "icon_id": "flooring_desk",
        "orientation": 0
      }
    },
    {
      "type": "Feature",
      "geometry": {
        "type": "Point",
        "coordinates": [
          -76.986256,
          39.826839
        ]
      },
      "properties": {
        "type": "P",
        "sub_category": "ServiceDesks",
        "poi_name": "HOME DECOR DESK",
        "profile": "STORE SERVICES",
        "icon_id": "home_décor_desk",
        "orientation": 0
      }
    },
    {
      "type": "Feature",
      "geometry": {
        "type": "Point",
        "coordinates": [
          -76.986215,
          39.82703
        ]
      },
      "properties": {
        "type": "P",
        "sub_category": "ServiceDesks",
        "poi_name": "KITCHEN DESIGN DESK",
        "profile": "STORE SERVICES",
        "icon_id": "kitchen_design_desk",
        "orientation": 0
      }
    },
    {
      "type": "Feature",
      "geometry": {
        "type": "Point",
        "coordinates": [
          -76.986916,
          39.826633
        ]
      },
      "properties": {
        "type": "P",
        "sub_category": "Checkouts",
        "poi_name": "PRO CHECKOUT",
        "profile": "BASIC INFO",
        "icon_id": "checkouts",
        "orientation": 0
      }
    },
    {
      "type": "Feature",
      "geometry": {
        "type": "Point",
        "coordinates": [
          -76.985441,
          39.826635
        ]
      },
      "properties": {
        "type": "P",
        "sub_category": "Checkouts",
        "poi_name": "GARDEN CENTER CHECKOUT",
        "profile": "BASIC INFO",
        "icon_id": "checkouts",
        "orientation": 0
      }
    },
    {
      "type": "Feature",
      "geometry": {
        "type": "Point",
        "coordinates": [
          -76.986524,
          39.826704
        ]
      },
      "properties": {
        "type": "P",
        "sub_category": "Services",
        "poi_name": "CHAIN AND ROPE CUTTING",
        "profile": "STORE SERVICES",
        "icon_id": "chain_rope_cutting",
        "orientation": 0
      }
    },
    {
      "type": "Feature",
      "geometry": {
        "type": "Point",
        "coordinates": [
          -76.986608,
          39.826669
        ]
      },
      "properties": {
        "type": "P",
        "sub_category": "Services",
        "poi_name": "KEY CUTTING",
        "profile": "STORE SERVICES",
        "icon_id": "key_copying",
        "orientation": 0
      }
    },
    {
      "type": "Feature",
      "geometry": {
        "type": "Point",
        "coordinates": [
          -76.986611,
          39.826724
        ]
      },
      "properties": {
        "type": "P",
        "sub_category": "Services",
        "poi_name": "GLASS CUTTING",
        "profile": "STORE SERVICES",
        "icon_id": "glass_cutting",
        "orientation": 0
      }
    },
    {
      "type": "Feature",
      "geometry": {
        "type": "Point",
        "coordinates": [
          -76.986957,
          39.827044
        ]
      },
      "properties": {
        "type": "P",
        "sub_category": "Services",
        "poi_name": "WOOD CUTTING",
        "profile": "STORE SERVICES",
        "icon_id": "wood_cutting",
        "orientation": 0
      }
    },
    {
      "type": "Feature",
      "geometry": {
        "type": "Point",
        "coordinates": [
          -76.98626,
          39.826794
        ]
      },
      "properties": {
        "type": "P",
        "sub_category": "Services",
        "poi_name": "BLIND CUTTING",
        "profile": "STORE SERVICES",
        "icon_id": "blind_cutting",
        "orientation": 0
      }
    },
    {
      "type": "Feature",
      "geometry": {
        "type": "Point",
        "coordinates": [
          -76.986744,
          39.826893
        ]
      },
      "properties": {
        "type": "P",
        "sub_category": "ServiceDesks",
        "poi_name": "MILLWORK DESK",
        "profile": "STORE SERVICES",
        "icon_id": "millwork_desk",
        "orientation": 0
      }
    },
    {
      "type": "Feature",
      "geometry": {
        "type": "Point",
        "coordinates": [
          -76.986498,
          39.82685
        ]
      },
      "properties": {
        "type": "P",
        "sub_category": "Services",
        "poi_name": "WIRE CUTTING",
        "profile": "STORE SERVICES",
        "icon_id": "wire_cutting",
        "orientation": 0
      }
    },
    {
      "type": "Feature",
      "geometry": {
        "type": "Point",
        "coordinates": [
          -76.986399,
          39.826599
        ]
      },
      "properties": {
        "type": "P",
        "sub_category": "EntryExit",
        "poi_name": "MAIN EXIT",
        "profile": "BASIC INFO",
        "icon_id": "entrance_exit",
        "orientation": 0
      }
    },
    {
      "type": "Feature",
      "geometry": {
        "type": "Point",
        "coordinates": [
          -76.986065,
          39.826622
        ]
      },
      "properties": {
        "type": "P",
        "sub_category": "ServiceDesks",
        "poi_name": "CUSTOMER SERVICE",
        "profile": "BASIC INFO",
        "icon_id": "customer_service_desk",
        "orientation": 0
      }
    },
    {
      "type": "Feature",
      "geometry": {
        "type": "Point",
        "coordinates": [
          -76.986065,
          39.82663
        ]
      },
      "properties": {
        "type": "P",
        "sub_category": "Services",
        "poi_name": "RETURNS",
        "profile": "BASIC INFO",
        "icon_id": "returns",
        "orientation": 0
      }
    },
    {
      "type": "Feature",
      "geometry": {
        "type": "Point",
        "coordinates": [
          -76.986171,
          39.826599
        ]
      },
      "properties": {
        "type": "P",
        "sub_category": "Services",
        "poi_name": "PRODUCT PICK-UP",
        "profile": "BASIC INFO",
        "icon_id": "store_pick_up",
        "orientation": 0
      }
    },
    {
      "type": "Feature",
      "geometry": {
        "type": "Point",
        "coordinates": [
          -76.986137,
          39.826599
        ]
      },
      "properties": {
        "type": "P",
        "sub_category": "Services",
        "poi_name": "PICKUP LOCKER",
        "profile": "BASIC INFO",
        "icon_id": "pickup_lockers",
        "orientation": 0
      }
    },
    {
      "type": "Feature",
      "geometry": {
        "type": "Point",
        "coordinates": [
          -76.986279,
          39.826644
        ]
      },
      "properties": {
        "type": "P",
        "sub_category": "Checkouts",
        "poi_name": "MAIN CHECKOUT",
        "profile": "BASIC INFO",
        "icon_id": "checkouts",
        "orientation": 0
      }
    },
    {
      "type": "Feature",
      "geometry": {
        "type": "Point",
        "coordinates": [
          -76.986377,
          39.826634
        ]
      },
      "properties": {
        "type": "P",
        "sub_category": "Checkouts",
        "poi_name": "MAIN SELF-CHECKOUT",
        "profile": "BASIC INFO",
        "icon_id": "checkouts",
        "orientation": 0
      }
    },
    {
      "type": "Feature",
      "geometry": {
        "type": "Point",
        "coordinates": [
          -76.985929,
          39.827167
        ]
      },
      "properties": {
        "type": "P",
        "sub_category": "ServiceDesks",
        "poi_name": "RECEIVING DESK",
        "profile": "BASIC INFO",
        "icon_id": "receiving_desk",
        "orientation": 0
      }
    },
    {
      "type": "Feature",
      "geometry": {
        "type": "Point",
        "coordinates": [
          -76.986981,
          39.826755
        ]
      },
      "properties": {
        "name": "LUMBER",
        "orientation": 0
      }
    },
    {
      "type": "Feature",
      "geometry": {
        "type": "Point",
        "coordinates": [
          -76.986861,
          39.826758
        ]
      },
      "properties": {
        "name": "LUMBER",
        "orientation": 0
      }
    },
    {
      "type": "Feature",
      "geometry": {
        "type": "Point",
        "coordinates": [
          -76.986879,
          39.826922
        ]
      },
      "properties": {
        "name": "LUMBER",
        "orientation": 0
      }
    },
    {
      "type": "Feature",
      "geometry": {
        "type": "Point",
        "coordinates": [
          -76.986849,
          39.827037
        ]
      },
      "properties": {
        "name": "LUMBER",
        "orientation": 0
      }
    },
    {
      "type": "Feature",
      "geometry": {
        "type": "Point",
        "coordinates": [
          -76.986962,
          39.826972
        ]
      },
      "properties": {
        "name": "LUMBER",
        "orientation": 0
      }
    },
    {
      "type": "Feature",
      "geometry": {
        "type": "Point",
        "coordinates": [
          -76.98698,
          39.826947
        ]
      },
      "properties": {
        "name": "BUILDING MATERIALS",
        "orientation": 0
      }
    },
    {
      "type": "Feature",
      "geometry": {
        "type": "Point",
        "coordinates": [
          -76.98684,
          39.826894
        ]
      },
      "properties": {
        "name": "BUILDING MATERIALS",
        "orientation": 0
      }
    },
    {
      "type": "Feature",
      "geometry": {
        "type": "Point",
        "coordinates": [
          -76.986879,
          39.82698
        ]
      },
      "properties": {
        "name": "BUILDING MATERIALS",
        "orientation": 0
      }
    },
    {
      "type": "Feature",
      "geometry": {
        "type": "Point",
        "coordinates": [
          -76.986996,
          39.826698
        ]
      },
      "properties": {
        "name": "BUILDING MATERIALS",
        "orientation": 0
      }
    },
    {
      "type": "Feature",
      "geometry": {
        "type": "Point",
        "coordinates": [
          -76.986757,
          39.826759
        ]
      },
      "properties": {
        "name": "BUILDING MATERIALS",
        "orientation": 0
      }
    },
    {
      "type": "Feature",
      "geometry": {
        "type": "Point",
        "coordinates": [
          -76.986867,
          39.826679
        ]
      },
      "properties": {
        "name": "BUILDING MATERIALS",
        "orientation": 0
      }
    },
    {
      "type": "Feature",
      "geometry": {
        "type": "Point",
        "coordinates": [
          -76.986746,
          39.827041
        ]
      },
      "properties": {
        "name": "BUILDING MATERIALS",
        "orientation": 0
      }
    },
    {
      "type": "Feature",
      "geometry": {
        "type": "Point",
        "coordinates": [
          -76.986732,
          39.826779
        ]
      },
      "properties": {
        "name": "MILLWORK",
        "orientation": 0
      }
    },
    {
      "type": "Feature",
      "geometry": {
        "type": "Point",
        "coordinates": [
          -76.986747,
          39.826977
        ]
      },
      "properties": {
        "name": "MILLWORK",
        "orientation": 0
      }
    },
    {
      "type": "Feature",
      "geometry": {
        "type": "Point",
        "coordinates": [
          -76.986371,
          39.826759
        ]
      },
      "properties": {
        "name": "LIGHTING",
        "orientation": 0
      }
    },
    {
      "type": "Feature",
      "geometry": {
        "type": "Point",
        "coordinates": [
          -76.986488,
          39.826759
        ]
      },
      "properties": {
        "name": "ROUGH ELECTRICAL",
        "orientation": 0
      }
    },
    {
      "type": "Feature",
      "geometry": {
        "type": "Point",
        "coordinates": [
          -76.985875,
          39.826929
        ]
      },
      "properties": {
        "name": "FASHION PLUMBING",
        "orientation": 0
      }
    },
    {
      "type": "Feature",
      "geometry": {
        "type": "Point",
        "coordinates": [
          -76.985681,
          39.826948
        ]
      },
      "properties": {
        "name": "FASHION PLUMBING",
        "orientation": 0
      }
    },
    {
      "type": "Feature",
      "geometry": {
        "type": "Point",
        "coordinates": [
          -76.986196,
          39.826905
        ]
      },
      "properties": {
        "name": "FASHION PLUMBING",
        "orientation": 0
      }
    },
    {
      "type": "Feature",
      "geometry": {
        "type": "Point",
        "coordinates": [
          -76.985863,
          39.827038
        ]
      },
      "properties": {
        "name": "ROUGH PLUMBING",
        "orientation": 0
      }
    },
    {
      "type": "Feature",
      "geometry": {
        "type": "Point",
        "coordinates": [
          -76.985681,
          39.827044
        ]
      },
      "properties": {
        "name": "ROUGH PLUMBING",
        "orientation": 0
      }
    },
    {
      "type": "Feature",
      "geometry": {
        "type": "Point",
        "coordinates": [
          -76.986267,
          39.826939
        ]
      },
      "properties": {
        "name": "APPLIANCES",
        "orientation": 0
      }
    },
    {
      "type": "Feature",
      "geometry": {
        "type": "Point",
        "coordinates": [
          -76.986016,
          39.826985
        ]
      },
      "properties": {
        "name": "APPLIANCES",
        "orientation": 0
      }
    },
    {
      "type": "Feature",
      "geometry": {
        "type": "Point",
        "coordinates": [
          -76.986193,
          39.827069
        ]
      },
      "properties": {
        "name": "APPLIANCES",
        "orientation": 0
      }
    },
    {
      "type": "Feature",
      "geometry": {
        "type": "Point",
        "coordinates": [
          -76.98659,
          39.826759
        ]
      },
      "properties": {
        "name": "HARDWARE",
        "orientation": 0
      }
    },
    {
      "type": "Feature",
      "geometry": {
        "type": "Point",
        "coordinates": [
          -76.986137,
          39.826757
        ]
      },
      "properties": {
        "name": "PAINT",
        "orientation": 0
      }
    },
    {
      "type": "Feature",
      "geometry": {
        "type": "Point",
        "coordinates": [
          -76.986634,
          39.826615
        ]
      },
      "properties": {
        "name": "TOOLS",
        "orientation": 0
      }
    },
    {
      "type": "Feature",
      "geometry": {
        "type": "Point",
        "coordinates": [
          -76.986704,
          39.826759
        ]
      },
      "properties": {
        "name": "TOOLS",
        "orientation": 0
      }
    },
    {
      "type": "Feature",
      "geometry": {
        "type": "Point",
        "coordinates": [
          -76.985838,
          39.826802
        ]
      },
      "properties": {
        "name": "OUTDOOR POWER EQUIPMENT",
        "orientation": 0
      }
    },
    {
      "type": "Feature",
      "geometry": {
        "type": "Point",
        "coordinates": [
          -76.986508,
          39.826985
        ]
      },
      "properties": {
        "name": "FLOORING",
        "orientation": 0
      }
    },
    {
      "type": "Feature",
      "geometry": {
        "type": "Point",
        "coordinates": [
          -76.986257,
          39.826988
        ]
      },
      "properties": {
        "name": "CABINETS",
        "orientation": 0
      }
    },
    {
      "type": "Feature",
      "geometry": {
        "type": "Point",
        "coordinates": [
          -76.985858,
          39.826844
        ]
      },
      "properties": {
        "name": "CLEANING",
        "orientation": 0
      }
    },
    {
      "type": "Feature",
      "geometry": {
        "type": "Point",
        "coordinates": [
          -76.98605,
          39.826759
        ]
      },
      "properties": {
        "name": "CLEANING",
        "orientation": 0
      }
    },
    {
      "type": "Feature",
      "geometry": {
        "type": "Point",
        "coordinates": [
          -76.986618,
          39.827033
        ]
      },
      "properties": {
        "name": "HOME DECOR",
        "orientation": 0
      }
    },
    {
      "type": "Feature",
      "geometry": {
        "type": "Point",
        "coordinates": [
          -76.986246,
          39.826762
        ]
      },
      "properties": {
        "name": "HOME DECOR",
        "orientation": 0
      }
    },
    {
      "type": "Feature",
      "geometry": {
        "type": "Point",
        "coordinates": [
          -76.986421,
          39.826909
        ]
      },
      "properties": {
        "name": "HOME DECOR",
        "orientation": 0
      }
    },
    {
      "type": "Feature",
      "geometry": {
        "type": "Point",
        "coordinates": [
          -76.986545,
          39.826998
        ]
      },
      "properties": {
        "name": "HOME DECOR",
        "orientation": 0
      }
    },
    {
      "type": "Feature",
      "geometry": {
        "type": "Point",
        "coordinates": [
          -76.985851,
          39.826831
        ]
      },
      "properties": {
        "name": "INSIDE LAWN AND GARDEN",
        "orientation": 0
      }
    },
    {
      "type": "Feature",
      "geometry": {
        "type": "Point",
        "coordinates": [
          -76.98577,
          39.826613
        ]
      },
      "properties": {
        "name": "INSIDE LAWN AND GARDEN",
        "orientation": 0
      }
    },
    {
      "type": "Feature",
      "geometry": {
        "type": "Point",
        "coordinates": [
          -76.985838,
          39.826738
        ]
      },
      "properties": {
        "name": "INSIDE LAWN AND GARDEN",
        "orientation": 0
      }
    },
    {
      "type": "Feature",
      "geometry": {
        "type": "Point",
        "coordinates": [
          -76.985827,
          39.826851
        ]
      },
      "properties": {
        "name": "INSIDE LAWN AND GARDEN",
        "orientation": 0
      }
    },
    {
      "type": "Feature",
      "geometry": {
        "type": "Point",
        "coordinates": [
          -76.985588,
          39.827004
        ]
      },
      "properties": {
        "name": "INSIDE LAWN AND GARDEN",
        "orientation": 0
      }
    },
    {
      "type": "Feature",
      "geometry": {
        "type": "Point",
        "coordinates": [
          -76.985649,
          39.826704
        ]
      },
      "properties": {
        "name": "INSIDE LAWN AND GARDEN",
        "orientation": 0
      }
    },
    {
      "type": "Feature",
      "geometry": {
        "type": "Point",
        "coordinates": [
          -76.985507,
          39.827016
        ]
      },
      "properties": {
        "name": "OUTSIDE LAWN AND GARDEN",
        "orientation": 0
      }
    },
    {
      "type": "Feature",
      "geometry": {
        "type": "Point",
        "coordinates": [
          -76.985565,
          39.826606
        ]
      },
      "properties": {
        "name": "OUTSIDE LAWN AND GARDEN",
        "orientation": 0
      }
    },
    {
      "type": "Feature",
      "geometry": {
        "type": "Point",
        "coordinates": [
          -76.985653,
          39.827124
        ]
      },
      "properties": {
        "name": "OUTSIDE LAWN AND GARDEN",
        "orientation": 0
      }
    },
    {
      "type": "Feature",
      "geometry": {
        "type": "Point",
        "coordinates": [
          -76.985482,
          39.827158
        ]
      },
      "properties": {
        "name": "OUTSIDE LAWN AND GARDEN",
        "orientation": 0
      }
    },
    {
      "type": "Feature",
      "geometry": {
        "type": "Point",
        "coordinates": [
          -76.985507,
          39.826796
        ]
      },
      "properties": {
        "name": "OUTSIDE LAWN AND GARDEN",
        "orientation": 0
      }
    },
    {
      "type": "Feature",
      "geometry": {
        "type": "Point",
        "coordinates": [
          -76.986357,
          39.826981
        ]
      },
      "properties": {
        "name": "STORAGE",
        "orientation": 0
      }
    },
    {
      "type": "Feature",
      "geometry": {
        "type": "Point",
        "coordinates": [
          -76.986187,
          39.826787
        ]
      },
      "properties": {
        "name": "STORAGE",
        "orientation": 0
      }
    },
    {
      "type": "Feature",
      "geometry": {
        "type": "Point",
        "coordinates": [
          -76.985507,
          39.826874
        ]
      },
      "properties": {
        "name": "GARDEN CENTER",
        "orientation": 0
      }
    }
  ]
}