{
  "type": "FeatureCollection",
  "features": [
    {
      "type": "Feature",
      "geometry": {
        "type": "MultiPolygon",
        "coordinates": [
          [
            [
              [
                -76.986526,
                39.827033
              ],
              [
                -76.986328,
                39.827033
              ],
              [
                -76.986328,
                39.827058
              ],
              [
                -76.986299,
                39.827058
              ],
              [
                -76.986299,
                39.827083
              ],
              [
                -76.986526,
                39.827083
              ],
              [
                -76.986526,
                39.827033
              ]
            ]
          ],
          [
            [
              [
                -76.986296,
                39.82683
              ],
              [
                -76.986296,
                39.827058
              ],
              [
                -76.986299,
                39.827058
              ],
              [
                -76.986299,
                39.827083
              ],
              [
                -76.986101,
                39.827083
              ],
              [
                -76.986101,
                39.827064
              ],
              [
                -76.986192,
                39.827064
              ],
              [
                -76.986192,
                39.826957
              ],
              [
                -76.986177,
                39.826957
              ],
              [
                -76.986177,
                39.826936
              ],
              [
                -76.986065,
                39.826936
              ],
              [
                -76.986059,
                39.826936
              ],
              [
                -76.986059,
                39.827038
              ],
              [
                -76.986059,
                39.827064
              ],
              [
                -76.986016,
                39.827064
              ],
              [
                -76.986016,
                39.826856
              ],
              [
                -76.986037,
                39.826856
              ],
              [
                -76.986037,
                39.826845
              ],
              [
                -76.986084,
                39.826845
              ],
              [
                -76.986084,
                39.82683
              ],
              [
                -76.986296,
                39.82683
              ]
            ]
          ],
          [
            [
              [
                -76.986544,
                39.827
              ],
              [
                -76.986565,
                39.827
              ],
              [
                -76.986565,
                39.827086
              ],
              [
                -76.986544,
                39.827086
              ],
              [
                -76.986544,
                39.827
              ]
            ]
          ],
          [
            [
              [
                -76.986468,
                39.826723
              ],
              [
                -76.986328,
                39.826723
              ],
              [
                -76.986328,
                39.826705
              ],
              [
                -76.986468,
                39.826705
              ],
              [
                -76.986468,
                39.826723
              ]
            ]
          ],
          [
            [
              [
                -76.986038,
                39.826529
              ],
              [
                -76.986038,
                39.826735
              ],
              [
                -76.986019,
                39.826735
              ],
              [
                -76.986019,
                39.826529
              ],
              [
                -76.986038,
                39.826529
              ]
            ]
          ],
          [
            [
              [
                -76.985926,
                39.826522
              ],
              [
                -76.986038,
                39.826522
              ],
              [
                -76.986038,
                39.826529
              ],
              [
                -76.986019,
                39.826529
              ],
              [
                -76.986019,
                39.82657
              ],
              [
                -76.985945,
                39.82657
              ],
              [
                -76.985945,
                39.826529
              ],
              [
                -76.985926,
                39.826529
              ],
              [
                -76.985926,
                39.826522
              ]
            ]
          ],
          [
            [
              [
                -76.9866,
                39.826888
              ],
              [
                -76.986591,
                39.826888
              ],
              [
                -76.986591,
                39.826869
              ],
              [
                -76.986596,
                39.826869
              ],
              [
                -76.986596,
                39.826847
              ],
              [
                -76.986568,
                39.826847
              ],
              [
                -76.986568,
                39.826971
              ],
              [
                -76.9866,
                39.826971
              ],
              [
                -76.9866,
                39.826888
              ]
            ]
          ],
          [
            [
              [
                -76.985641,
                39.826632
              ],
              [
                -76.98562,
                39.826632
              ],
              [
                -76.98562,
                39.826798
              ],
              [
                -76.985641,
                39.826798
              ],
              [
                -76.985641,
                39.826632
              ]
            ]
          ],
          [
            [
              [
                -76.98543,
                39.826846
              ],
              [
                -76.985406,
                39.826846
              ],
              [
                -76.985406,
                39.827059
              ],
              [
                -76.985431,
                39.827059
              ],
              [
                -76.985431,
                39.827062
              ],
              [
                -76.985456,
                39.827062
              ],
              [
                -76.985456,
                39.827039
              ],
              [
                -76.98543,
                39.827039
              ],
              [
                -76.98543,
                39.826846
              ]
            ]
          ],
          [
            [
              [
                -76.98654,
                39.826705
              ],
              [
                -76.986468,
                39.826705
              ],
              [
                -76.986468,
                39.826723
              ],
              [
                -76.986328,
                39.826723
              ],
              [
                -76.986328,
                39.82674
              ],
              [
                -76.98654,
                39.82674
              ],
              [
                -76.98654,
                39.826813
              ],
              [
                -76.986565,
                39.826813
              ],
              [
                -76.986565,
                39.826706
              ],
              [
                -76.98654,
                39.826706
              ],
              [
                -76.98654,
                39.826705
              ]
            ]
          ],
          [
            [
              [
                -76.985522,
                39.826518
              ],
              [
                -76.985522,
                39.826531
              ],
              [
                -76.985493,
                39.826531
              ],
              [
                -76.985493,
                39.826794
              ],
              [
                -76.985462,
                39.826794
              ],
              [
                -76.985462,
                39.826805
              ],
              [
                -76.985406,
                39.826805
              ],
              [
                -76.985406,
                39.826507
              ],
              [
                -76.985462,
                39.826507
              ],
              [
                -76.985462,
                39.826518
              ],
              [
                -76.985522,
                39.826518
              ]
            ]
          ],
          [
            [
              [
                -76.985377,
                39.826613
              ],
              [
                -76.985377,
                39.827049
              ],
              [
                -76.985352,
                39.827049
              ],
              [
                -76.985352,
                39.826478
              ],
              [
                -76.985387,
                39.826478
              ],
              [
                -76.985387,
                39.826613
              ],
              [
                -76.985377,
                39.826613
              ]
            ]
          ],
          [
            [
              [
                -76.985756,
                39.82655
              ],
              [
                -76.985735,
                39.82655
              ],
              [
                -76.985735,
                39.826714
              ],
              [
                -76.985756,
                39.826714
              ],
              [
                -76.985756,
                39.82655
              ]
            ]
          ],
          [
            [
              [
                -76.98562,
                39.826625
              ],
              [
                -76.98562,
                39.826791
              ],
              [
                -76.985598,
                39.826791
              ],
              [
                -76.985598,
                39.826625
              ],
              [
                -76.98562,
                39.826625
              ]
            ]
          ],
          [
            [
              [
                -76.986685,
                39.826511
              ],
              [
                -76.986685,
                39.826801
              ],
              [
                -76.986676,
                39.826801
              ],
              [
                -76.986676,
                39.826786
              ],
              [
                -76.986656,
                39.826786
              ],
              [
                -76.986656,
                39.826801
              ],
              [
                -76.986585,
                39.826801
              ],
              [
                -76.986585,
                39.826797
              ],
              [
                -76.986585,
                39.82677
              ],
              [
                -76.986568,
                39.82677
              ],
              [
                -76.986568,
                39.826518
              ],
              [
                -76.986596,
                39.826518
              ],
              [
                -76.986596,
                39.826511
              ],
              [
                -76.986685,
                39.826511
              ]
            ]
          ],
          [
            [
              [
                -76.986969,
                39.827086
              ],
              [
                -76.987126,
                39.827086
              ],
              [
                -76.987126,
                39.826888
              ],
              [
                -76.987078,
                39.826888
              ],
              [
                -76.987078,
                39.82684
              ],
              [
                -76.986967,
                39.82684
              ],
              [
                -76.986967,
                39.827071
              ],
              [
                -76.986969,
                39.827071
              ],
              [
                -76.986969,
                39.827086
              ]
            ]
          ],
          [
            [
              [
                -76.986717,
                39.826476
              ],
              [
                -76.986742,
                39.826476
              ],
              [
                -76.986742,
                39.826407
              ],
              [
                -76.986717,
                39.826407
              ],
              [
                -76.986717,
                39.826476
              ]
            ]
          ],
          [
            [
              [
                -76.986568,
                39.826801
              ],
              [
                -76.986654,
                39.826801
              ],
              [
                -76.986654,
                39.826816
              ],
              [
                -76.986655,
                39.826816
              ],
              [
                -76.986655,
                39.82682
              ],
              [
                -76.986596,
                39.82682
              ],
              [
                -76.986596,
                39.826813
              ],
              [
                -76.986568,
                39.826813
              ],
              [
                -76.986568,
                39.826801
              ]
            ]
          ],
          [
            [
              [
                -76.986596,
                39.826869
              ],
              [
                -76.986934,
                39.826869
              ],
              [
                -76.986934,
                39.82684
              ],
              [
                -76.986596,
                39.82684
              ],
              [
                -76.986596,
                39.826869
              ]
            ]
          ],
          [
            [
              [
                -76.986216,
                39.826495
              ],
              [
                -76.986126,
                39.826495
              ],
              [
                -76.986126,
                39.826477
              ],
              [
                -76.986216,
                39.826477
              ],
              [
                -76.986216,
                39.826495
              ]
            ]
          ],
          [
            [
              [
                -76.986568,
                39.826801
              ],
              [
                -76.986685,
                39.826801
              ],
              [
                -76.986685,
                39.826407
              ],
              [
                -76.986569,
                39.826407
              ],
              [
                -76.986569,
                39.826431
              ],
              [
                -76.986568,
                39.826431
              ],
              [
                -76.986568,
                39.826801
              ]
            ]
          ],
          [
            [
              [
                -76.986287,
                39.826529
              ],
              [
                -76.986287,
                39.826798
              ],
              [
                -76.986266,
                39.826798
              ],
              [
                -76.986266,
                39.826529
              ],
              [
                -76.986287,
                39.826529
              ]
            ]
          ],
          [
            [
              [
                -76.986101,
                39.827064
              ],
              [
                -76.986192,
                39.827064
              ],
              [
                -76.986192,
                39.826957
              ],
              [
                -76.986177,
                39.826957
              ],
              [
                -76.986177,
                39.826936
              ],
              [
                -76.986059,
                39.826936
              ],
              [
                -76.986059,
                39.827064
              ],
              [
                -76.986016,
                39.827064
              ],
              [
                -76.986016,
                39.827083
              ],
              [
                -76.986087,
                39.827083
              ],
              [
                -76.986087,
                39.827069
              ],
              [
                -76.986101,
                39.827069
              ],
              [
                -76.986101,
                39.827064
              ]
            ]
          ],
          [
            [
              [
                -76.986586,
                39.826484
              ],
              [
                -76.986568,
                39.826484
              ],
              [
                -76.986568,
                39.826407
              ],
              [
                -76.986586,
                39.826407
              ],
              [
                -76.986586,
                39.826484
              ]
            ]
          ],
          [
            [
              [
                -76.985911,
                39.826434
              ],
              [
                -76.985911,
                39.826454
              ],
              [
                -76.985947,
                39.826454
              ],
              [
                -76.985947,
                39.826469
              ],
              [
                -76.985957,
                39.826469
              ],
              [
                -76.985957,
                39.826454
              ],
              [
                -76.985967,
                39.826454
              ],
              [
                -76.985967,
                39.826491
              ],
              [
                -76.985948,
                39.826491
              ],
              [
                -76.985948,
                39.826497
              ],
              [
                -76.985591,
                39.826497
              ],
              [
                -76.985591,
                39.82649
              ],
              [
                -76.985605,
                39.82649
              ],
              [
                -76.985605,
                39.82645
              ],
              [
                -76.985585,
                39.82645
              ],
              [
                -76.985585,
                39.826434
              ],
              [
                -76.985731,
                39.826434
              ],
              [
                -76.985731,
                39.826448
              ],
              [
                -76.985744,
                39.826448
              ],
              [
                -76.985744,
                39.826434
              ],
              [
                -76.985911,
                39.826434
              ]
            ]
          ],
          [
            [
              [
                -76.986515,
                39.82661
              ],
              [
                -76.98654,
                39.82661
              ],
              [
                -76.98654,
                39.826705
              ],
              [
                -76.986328,
                39.826705
              ],
              [
                -76.986328,
                39.826686
              ],
              [
                -76.986317,
                39.826686
              ],
              [
                -76.986317,
                39.826681
              ],
              [
                -76.98631,
                39.826681
              ],
              [
                -76.98631,
                39.826638
              ],
              [
                -76.986387,
                39.826638
              ],
              [
                -76.986387,
                39.82661
              ],
              [
                -76.986398,
                39.82661
              ],
              [
                -76.986398,
                39.826629
              ],
              [
                -76.986515,
                39.826629
              ],
              [
                -76.986515,
                39.82661
              ]
            ]
          ],
          [
            [
              [
                -76.986565,
                39.826847
              ],
              [
                -76.986544,
                39.826847
              ],
              [
                -76.986544,
                39.827
              ],
              [
                -76.986565,
                39.827
              ],
              [
                -76.986565,
                39.826847
              ]
            ]
          ],
          [
            [
              [
                -76.986565,
                39.826451
              ],
              [
                -76.986565,
                39.826484
              ],
              [
                -76.986537,
                39.826484
              ],
              [
                -76.986537,
                39.826488
              ],
              [
                -76.986533,
                39.826488
              ],
              [
                -76.986533,
                39.826462
              ],
              [
                -76.986426,
                39.826462
              ],
              [
                -76.986426,
                39.826434
              ],
              [
                -76.986535,
                39.826434
              ],
              [
                -76.986535,
                39.826451
              ],
              [
                -76.986565,
                39.826451
              ]
            ]
          ],
          [
            [
              [
                -76.986016,
                39.827083
              ],
              [
                -76.986016,
                39.826856
              ],
              [
                -76.986037,
                39.826856
              ],
              [
                -76.986037,
                39.82683
              ],
              [
                -76.985814,
                39.82683
              ],
              [
                -76.985814,
                39.826845
              ],
              [
                -76.985788,
                39.826845
              ],
              [
                -76.985788,
                39.827041
              ],
              [
                -76.985767,
                39.827041
              ],
              [
                -76.985767,
                39.827058
              ],
              [
                -76.985775,
                39.827058
              ],
              [
                -76.985775,
                39.827083
              ],
              [
                -76.985873,
                39.827083
              ],
              [
                -76.985873,
                39.827069
              ],
              [
                -76.985887,
                39.827069
              ],
              [
                -76.985887,
                39.827083
              ],
              [
                -76.986016,
                39.827083
              ]
            ]
          ],
          [
            [
              [
                -76.986117,
                39.826799
              ],
              [
                -76.986075,
                39.826799
              ],
              [
                -76.986075,
                39.826798
              ],
              [
                -76.986057,
                39.826798
              ],
              [
                -76.986057,
                39.826529
              ],
              [
                -76.986117,
                39.826529
              ],
              [
                -76.986117,
                39.826799
              ]
            ]
          ],
          [
            [
              [
                -76.986934,
                39.826888
              ],
              [
                -76.986934,
                39.827071
              ],
              [
                -76.986932,
                39.827071
              ],
              [
                -76.986932,
                39.827086
              ],
              [
                -76.986831,
                39.827086
              ],
              [
                -76.986831,
                39.827082
              ],
              [
                -76.986568,
                39.827082
              ],
              [
                -76.986568,
                39.826971
              ],
              [
                -76.9866,
                39.826971
              ],
              [
                -76.9866,
                39.826888
              ],
              [
                -76.986934,
                39.826888
              ]
            ]
          ],
          [
            [
              [
                -76.985713,
                39.826529
              ],
              [
                -76.985641,
                39.826529
              ],
              [
                -76.985641,
                39.826798
              ],
              [
                -76.985713,
                39.826798
              ],
              [
                -76.985713,
                39.826529
              ]
            ]
          ],
          [
            [
              [
                -76.985598,
                39.826531
              ],
              [
                -76.985551,
                39.826531
              ],
              [
                -76.985551,
                39.826791
              ],
              [
                -76.985522,
                39.826791
              ],
              [
                -76.985522,
                39.826805
              ],
              [
                -76.985574,
                39.826805
              ],
              [
                -76.985574,
                39.826791
              ],
              [
                -76.985598,
                39.826791
              ],
              [
                -76.985598,
                39.826531
              ]
            ]
          ],
          [
            [
              [
                -76.986038,
                39.826529
              ],
              [
                -76.986057,
                39.826529
              ],
              [
                -76.986057,
                39.826798
              ],
              [
                -76.986019,
                39.826798
              ],
              [
                -76.986019,
                39.826735
              ],
              [
                -76.986038,
                39.826735
              ],
              [
                -76.986038,
                39.826529
              ]
            ]
          ],
          [
            [
              [
                -76.985788,
                39.826845
              ],
              [
                -76.985788,
                39.827041
              ],
              [
                -76.985767,
                39.827041
              ],
              [
                -76.985767,
                39.827058
              ],
              [
                -76.985775,
                39.827058
              ],
              [
                -76.985775,
                39.827083
              ],
              [
                -76.985442,
                39.827083
              ],
              [
                -76.985442,
                39.827069
              ],
              [
                -76.985431,
                39.827069
              ],
              [
                -76.985431,
                39.827062
              ],
              [
                -76.98552,
                39.827062
              ],
              [
                -76.98552,
                39.82704
              ],
              [
                -76.985549,
                39.82704
              ],
              [
                -76.985549,
                39.826953
              ],
              [
                -76.985575,
                39.826953
              ],
              [
                -76.985575,
                39.826954
              ],
              [
                -76.985602,
                39.826954
              ],
              [
                -76.985602,
                39.82683
              ],
              [
                -76.985673,
                39.82683
              ],
              [
                -76.985673,
                39.826845
              ],
              [
                -76.985788,
                39.826845
              ]
            ]
          ],
          [
            [
              [
                -76.985602,
                39.82683
              ],
              [
                -76.985602,
                39.826954
              ],
              [
                -76.985575,
                39.826954
              ],
              [
                -76.985575,
                39.826953
              ],
              [
                -76.985549,
                39.826953
              ],
              [
                -76.985549,
                39.82704
              ],
              [
                -76.98552,
                39.82704
              ],
              [
                -76.98552,
                39.827062
              ],
              [
                -76.985456,
                39.827062
              ],
              [
                -76.985456,
                39.827039
              ],
              [
                -76.98543,
                39.827039
              ],
              [
                -76.98543,
                39.826846
              ],
              [
                -76.985406,
                39.826846
              ],
              [
                -76.985406,
                39.82683
              ],
              [
                -76.985456,
                39.82683
              ],
              [
                -76.985456,
                39.826845
              ],
              [
                -76.985575,
                39.826845
              ],
              [
                -76.985575,
                39.82683
              ],
              [
                -76.985602,
                39.82683
              ]
            ]
          ],
          [
            [
              [
                -76.986526,
                39.826826
              ],
              [
                -76.986526,
                39.826857
              ],
              [
                -76.986526,
                39.827033
              ],
              [
                -76.986328,
                39.827033
              ],
              [
                -76.986328,
                39.827013
              ],
              [
                -76.986317,
                39.827013
              ],
              [
                -76.986317,
                39.826826
              ],
              [
                -76.986526,
                39.826826
              ]
            ]
          ],
          [
            [
              [
                -76.986565,
                39.826518
              ],
              [
                -76.986537,
                39.826518
              ],
              [
                -76.986537,
                39.826508
              ],
              [
                -76.986373,
                39.826508
              ],
              [
                -76.98631,
                39.826508
              ],
              [
                -76.98631,
                39.826638
              ],
              [
                -76.986387,
                39.826638
              ],
              [
                -76.986387,
                39.82661
              ],
              [
                -76.986398,
                39.82661
              ],
              [
                -76.986398,
                39.826629
              ],
              [
                -76.986515,
                39.826629
              ],
              [
                -76.986515,
                39.82661
              ],
              [
                -76.98654,
                39.82661
              ],
              [
                -76.98654,
                39.826706
              ],
              [
                -76.986565,
                39.826706
              ],
              [
                -76.986565,
                39.826518
              ]
            ]
          ],
          [
            [
              [
                -76.985833,
                39.826529
              ],
              [
                -76.985775,
                39.826529
              ],
              [
                -76.985775,
                39.82655
              ],
              [
                -76.985756,
                39.82655
              ],
              [
                -76.985756,
                39.826694
              ],
              [
                -76.985756,
                39.826714
              ],
              [
                -76.985735,
                39.826714
              ],
              [
                -76.985735,
                39.826529
              ],
              [
                -76.985713,
                39.826529
              ],
              [
                -76.985713,
                39.826755
              ],
              [
                -76.985713,
                39.826798
              ],
              [
                -76.985814,
                39.826798
              ],
              [
                -76.985814,
                39.826736
              ],
              [
                -76.985833,
                39.826736
              ],
              [
                -76.985833,
                39.826529
              ]
            ]
          ],
          [
            [
              [
                -76.985551,
                39.826791
              ],
              [
                -76.985551,
                39.826531
              ],
              [
                -76.985493,
                39.826531
              ],
              [
                -76.985493,
                39.826794
              ],
              [
                -76.985522,
                39.826794
              ],
              [
                -76.985522,
                39.826791
              ],
              [
                -76.985551,
                39.826791
              ]
            ]
          ],
          [
            [
              [
                -76.986328,
                39.826821
              ],
              [
                -76.986328,
                39.82674
              ],
              [
                -76.98654,
                39.82674
              ],
              [
                -76.98654,
                39.826813
              ],
              [
                -76.986537,
                39.826813
              ],
              [
                -76.986537,
                39.826821
              ],
              [
                -76.986328,
                39.826821
              ]
            ]
          ],
          [
            [
              [
                -76.986266,
                39.826529
              ],
              [
                -76.986245,
                39.826529
              ],
              [
                -76.986245,
                39.826532
              ],
              [
                -76.986161,
                39.826532
              ],
              [
                -76.986161,
                39.826529
              ],
              [
                -76.986117,
                39.826529
              ],
              [
                -76.986117,
                39.826798
              ],
              [
                -76.986266,
                39.826798
              ],
              [
                -76.986266,
                39.826653
              ],
              [
                -76.986266,
                39.826622
              ],
              [
                -76.986266,
                39.826529
              ]
            ]
          ],
          [
            [
              [
                -76.986019,
                39.82657
              ],
              [
                -76.985945,
                39.82657
              ],
              [
                -76.985945,
                39.82676
              ],
              [
                -76.985926,
                39.82676
              ],
              [
                -76.985926,
                39.826805
              ],
              [
                -76.986001,
                39.826805
              ],
              [
                -76.986001,
                39.826798
              ],
              [
                -76.986019,
                39.826798
              ],
              [
                -76.986019,
                39.826632
              ],
              [
                -76.986019,
                39.82657
              ]
            ]
          ],
          [
            [
              [
                -76.986677,
                39.82682
              ],
              [
                -76.987078,
                39.82682
              ],
              [
                -76.987078,
                39.826816
              ],
              [
                -76.987126,
                39.826816
              ],
              [
                -76.987126,
                39.826407
              ],
              [
                -76.986903,
                39.826407
              ],
              [
                -76.986903,
                39.826511
              ],
              [
                -76.986686,
                39.826511
              ],
              [
                -76.986686,
                39.826801
              ],
              [
                -76.986678,
                39.826801
              ],
              [
                -76.986678,
                39.826816
              ],
              [
                -76.986677,
                39.826816
              ],
              [
                -76.986677,
                39.82682
              ]
            ]
          ],
          [
            [
              [
                -76.986685,
                39.826476
              ],
              [
                -76.986685,
                39.826407
              ],
              [
                -76.986586,
                39.826407
              ],
              [
                -76.986586,
                39.826484
              ],
              [
                -76.986596,
                39.826484
              ],
              [
                -76.986596,
                39.826491
              ],
              [
                -76.986657,
                39.826491
              ],
              [
                -76.986657,
                39.826476
              ],
              [
                -76.986685,
                39.826476
              ]
            ]
          ],
          [
            [
              [
                -76.985641,
                39.826529
              ],
              [
                -76.98562,
                39.826529
              ],
              [
                -76.98562,
                39.826531
              ],
              [
                -76.985598,
                39.826531
              ],
              [
                -76.985598,
                39.826625
              ],
              [
                -76.98562,
                39.826625
              ],
              [
                -76.98562,
                39.826632
              ],
              [
                -76.985641,
                39.826632
              ],
              [
                -76.985641,
                39.826529
              ]
            ]
          ],
          [
            [
              [
                -76.985945,
                39.826529
              ],
              [
                -76.985926,
                39.826529
              ],
              [
                -76.985926,
                39.826522
              ],
              [
                -76.985852,
                39.826522
              ],
              [
                -76.985852,
                39.826529
              ],
              [
                -76.985833,
                39.826529
              ],
              [
                -76.985833,
                39.826736
              ],
              [
                -76.985814,
                39.826736
              ],
              [
                -76.985814,
                39.826798
              ],
              [
                -76.985926,
                39.826798
              ],
              [
                -76.985926,
                39.82676
              ],
              [
                -76.985945,
                39.82676
              ],
              [
                -76.985945,
                39.826529
              ]
            ]
          ]
        ]
      },
      "properties": {
        "fill": "#D9E2F6",
        "stroke-width": "0.5",
        "stroke": "#96A3BD",
        "opacity": "0.75"
      }
    },
    {
      "type": "Feature",
      "geometry": {
        "type": "MultiLineString",
        "coordinates": []
      },
      "properties": {
        "stroke-width": "0.5"
      }
    },
    {
      "type": "Feature",
      "geometry": {
        "type": "Point",
        "coordinates": [
          -76.986815,
          39.826388
        ]
      },
      "properties": {
        "type": "P",
        "sub_category": "EntryExit",
        "poi_name": "GARDEN CENTER ENTRANCE",
        "profile": "BASIC INFO",
        "icon_id": "entrance_exit",
        "orientation": 0
      }
    },
    {
      "type": "Feature",
      "geometry": {
        "type": "Point",
        "coordinates": [
          -76.986814,
          39.826416
        ]
      },
      "properties": {
        "type": "P",
        "sub_category": "EntryExit",
        "poi_name": "GARDEN CENTER EXIT",
        "profile": "BASIC INFO",
        "icon_id": "entrance_exit",
        "orientation": 0
      }
    },
    {
      "type": "Feature",
      "geometry": {
        "type": "Point",
        "coordinates": [
          -76.986814,
          39.826477
        ]
      },
      "properties": {
        "type": "P",
        "sub_category": "Checkouts",
        "poi_name": "GARDEN CENTER CHECKOUT",
        "profile": "BASIC INFO",
        "icon_id": "checkouts",
        "orientation": 0
      }
    },
    {
      "type": "Feature",
      "geometry": {
        "type": "Point",
        "coordinates": [
          -76.985445,
          39.82642
        ]
      },
      "properties": {
        "type": "P",
        "sub_category": "EntryExit",
        "poi_name": "PRO ENTRANCE",
        "profile": "BASIC INFO",
        "icon_id": "entrance_exit",
        "orientation": 0
      }
    },
    {
      "type": "Feature",
      "geometry": {
        "type": "Point",
        "coordinates": [
          -76.985445,
          39.826446
        ]
      },
      "properties": {
        "type": "P",
        "sub_category": "EntryExit",
        "poi_name": "PRO EXIT",
        "profile": "BASIC INFO",
        "icon_id": "entrance_exit",
        "orientation": 0
      }
    },
    {
      "type": "Feature",
      "geometry": {
        "type": "Point",
        "coordinates": [
          -76.985444,
          39.826478
        ]
      },
      "properties": {
        "type": "P",
        "sub_category": "Checkouts",
        "poi_name": "PRO CHECKOUT",
        "profile": "BASIC INFO",
        "icon_id": "checkouts",
        "orientation": 0
      }
    },
    {
      "type": "Feature",
      "geometry": {
        "type": "Point",
        "coordinates": [
          -76.985498,
          39.826485
        ]
      },
      "properties": {
        "type": "P",
        "sub_category": "ServiceDesks",
        "poi_name": "PRO SERVICE DESK",
        "profile": "BASIC INFO",
        "icon_id": "pro_service_desk",
        "orientation": 0
      }
    },
    {
      "type": "Feature",
      "geometry": {
        "type": "Point",
        "coordinates": [
          -76.986091,
          39.827
        ]
      },
      "properties": {
        "type": "P",
        "sub_category": "ServiceDesks",
        "poi_name": "KITCHEN DESIGN DESK",
        "profile": "STORE SERVICES",
        "icon_id": "kitchen_design_desk",
        "orientation": 0
      }
    },
    {
      "type": "Feature",
      "geometry": {
        "type": "Point",
        "coordinates": [
          -76.985429,
          39.827055
        ]
      },
      "properties": {
        "type": "P",
        "sub_category": "Services",
        "poi_name": "WOOD CUTTING",
        "profile": "STORE SERVICES",
        "icon_id": "wood_cutting",
        "orientation": 0
      }
    },
    {
      "type": "Feature",
      "geometry": {
        "type": "Point",
        "coordinates": [
          -76.986082,
          39.826788
        ]
      },
      "properties": {
        "type": "P",
        "sub_category": "Services",
        "poi_name": "WIRE CUTTING",
        "profile": "STORE SERVICES",
        "icon_id": "wire_cutting",
        "orientation": 0
      }
    },
    {
      "type": "Feature",
      "geometry": {
        "type": "Point",
        "coordinates": [
          -76.985606,
          39.826781
        ]
      },
      "properties": {
        "type": "P",
        "sub_category": "Services",
        "poi_name": "GLASS CUTTING",
        "profile": "STORE SERVICES",
        "icon_id": "glass_cutting",
        "orientation": 0
      }
    },
    {
      "type": "Feature",
      "geometry": {
        "type": "Point",
        "coordinates": [
          -76.985986,
          39.826725
        ]
      },
      "properties": {
        "type": "P",
        "sub_category": "Services",
        "poi_name": "BLIND CUTTING",
        "profile": "STORE SERVICES",
        "icon_id": "blind_cutting",
        "orientation": 0
      }
    },
    {
      "type": "Feature",
      "geometry": {
        "type": "Point",
        "coordinates": [
          -76.985645,
          39.826724
        ]
      },
      "properties": {
        "type": "P",
        "sub_category": "Services",
        "poi_name": "CHAIN AND ROPE CUTTING",
        "profile": "STORE SERVICES",
        "icon_id": "chain_rope_cutting",
        "orientation": 0
      }
    },
    {
      "type": "Feature",
      "geometry": {
        "type": "Point",
        "coordinates": [
          -76.985943,
          39.826764
        ]
      },
      "properties": {
        "type": "P",
        "sub_category": "ServiceDesks",
        "poi_name": "HOME DECOR DESK",
        "profile": "STORE SERVICES",
        "icon_id": "home_décor_desk",
        "orientation": 0
      }
    },
    {
      "type": "Feature",
      "geometry": {
        "type": "Point",
        "coordinates": [
          -76.985673,
          39.82654
        ]
      },
      "properties": {
        "type": "P",
        "sub_category": "Services",
        "poi_name": "KEY CUTTING",
        "profile": "STORE SERVICES",
        "icon_id": "key_copying",
        "orientation": 0
      }
    },
    {
      "type": "Feature",
      "geometry": {
        "type": "Point",
        "coordinates": [
          -76.986096,
          39.827106
        ]
      },
      "properties": {
        "type": "P",
        "sub_category": "Restrooms",
        "poi_name": "MEN/WOMEN’S RESTROOMS",
        "profile": "BASIC INFO",
        "icon_id": "restrooms",
        "orientation": 0
      }
    },
    {
      "type": "Feature",
      "geometry": {
        "type": "Point",
        "coordinates": [
          -76.986197,
          39.826929
        ]
      },
      "properties": {
        "type": "P",
        "sub_category": "ServiceDesks",
        "poi_name": "APPLIANCE DESK",
        "profile": "STORE SERVICES",
        "icon_id": "appliance_desk",
        "orientation": 0
      }
    },
    {
      "type": "Feature",
      "geometry": {
        "type": "Point",
        "coordinates": [
          -76.986294,
          39.82638
        ]
      },
      "properties": {
        "type": "P",
        "sub_category": "EntryExit",
        "poi_name": "MAIN ENTRANCE",
        "profile": "BASIC INFO",
        "icon_id": "entrance_exit",
        "orientation": 0
      }
    },
    {
      "type": "Feature",
      "geometry": {
        "type": "Point",
        "coordinates": [
          -76.985895,
          39.826866
        ]
      },
      "properties": {
        "type": "P",
        "sub_category": "ServiceDesks",
        "poi_name": "FLOORING DESK",
        "profile": "STORE SERVICES",
        "icon_id": "flooring_desk",
        "orientation": 0
      }
    },
    {
      "type": "Feature",
      "geometry": {
        "type": "Point",
        "coordinates": [
          -76.986059,
          39.826438
        ]
      },
      "properties": {
        "type": "P",
        "sub_category": "EntryExit",
        "poi_name": "MAIN EXIT",
        "profile": "BASIC INFO",
        "icon_id": "entrance_exit",
        "orientation": 0
      }
    },
    {
      "type": "Feature",
      "geometry": {
        "type": "Point",
        "coordinates": [
          -76.986086,
          39.82651
        ]
      },
      "properties": {
        "type": "P",
        "sub_category": "Checkouts",
        "poi_name": "MAIN CHECKOUT",
        "profile": "BASIC INFO",
        "icon_id": "checkouts",
        "orientation": 0
      }
    },
    {
      "type": "Feature",
      "geometry": {
        "type": "Point",
        "coordinates": [
          -76.98605,
          39.826511
        ]
      },
      "properties": {
        "type": "P",
        "sub_category": "Checkouts",
        "poi_name": "MAIN SELF-CHECKOUT",
        "profile": "BASIC INFO",
        "icon_id": "checkouts",
        "orientation": 0
      }
    },
    {
      "type": "Feature",
      "geometry": {
        "type": "Point",
        "coordinates": [
          -76.98627,
          39.826486
        ]
      },
      "properties": {
        "type": "P",
        "sub_category": "Services",
        "poi_name": "RETURNS",
        "profile": "BASIC INFO",
        "icon_id": "returns",
        "orientation": 0
      }
    },
    {
      "type": "Feature",
      "geometry": {
        "type": "Point",
        "coordinates": [
          -76.986185,
          39.826442
        ]
      },
      "properties": {
        "type": "P",
        "sub_category": "Services",
        "poi_name": "PRODUCT PICK-UP",
        "profile": "BASIC INFO",
        "icon_id": "store_pick_up",
        "orientation": 0
      }
    },
    {
      "type": "Feature",
      "geometry": {
        "type": "Point",
        "coordinates": [
          -76.986271,
          39.826477
        ]
      },
      "properties": {
        "type": "P",
        "sub_category": "ServiceDesks",
        "poi_name": "CUSTOMER SERVICE",
        "profile": "BASIC INFO",
        "icon_id": "customer_service_desk",
        "orientation": 0
      }
    },
    {
      "type": "Feature",
      "geometry": {
        "type": "Point",
        "coordinates": [
          -76.986209,
          39.826442
        ]
      },
      "properties": {
        "type": "P",
        "sub_category": "Services",
        "poi_name": "PICKUP LOCKER",
        "profile": "BASIC INFO",
        "icon_id": "pickup_lockers",
        "orientation": 0
      }
    },
    {
      "type": "Feature",
      "geometry": {
        "type": "Point",
        "coordinates": [
          -76.98599,
          39.827064
        ]
      },
      "properties": {
        "type": "P",
        "sub_category": "Services",
        "poi_name": "CARPET CUTTING",
        "profile": "STORE SERVICES",
        "icon_id": "carpet_cutting",
        "orientation": 0
      }
    },
    {
      "type": "Feature",
      "geometry": {
        "type": "Point",
        "coordinates": [
          -76.985649,
          39.826833
        ]
      },
      "properties": {
        "type": "P",
        "sub_category": "ServiceDesks",
        "poi_name": "MILLWORK DESK",
        "profile": "STORE SERVICES",
        "icon_id": "millwork_desk",
        "orientation": 0
      }
    },
    {
      "type": "Feature",
      "geometry": {
        "type": "Point",
        "coordinates": [
          -76.986369,
          39.827164
        ]
      },
      "properties": {
        "type": "P",
        "sub_category": "ServiceDesks",
        "poi_name": "RECEIVING DESK",
        "profile": "BASIC INFO",
        "icon_id": "receiving_desk",
        "orientation": 0
      }
    },
    {
      "type": "Feature",
      "geometry": {
        "type": "Point",
        "coordinates": [
          -76.986413,
          39.827058
        ]
      },
      "properties": {
        "name": "CABINETS",
        "orientation": 0
      }
    },
    {
      "type": "Feature",
      "geometry": {
        "type": "Point",
        "coordinates": [
          -76.986158,
          39.826957
        ]
      },
      "properties": {
        "name": "APPLIANCES",
        "orientation": 0
      }
    },
    {
      "type": "Feature",
      "geometry": {
        "type": "Point",
        "coordinates": [
          -76.986554,
          39.827043
        ]
      },
      "properties": {
        "name": "CABINETS",
        "orientation": 0
      }
    },
    {
      "type": "Feature",
      "geometry": {
        "type": "Point",
        "coordinates": [
          -76.986398,
          39.826714
        ]
      },
      "properties": {
        "name": "INSIDE LAWN AND GARDEN",
        "orientation": 0
      }
    },
    {
      "type": "Feature",
      "geometry": {
        "type": "Point",
        "coordinates": [
          -76.986029,
          39.826632
        ]
      },
      "properties": {
        "name": "ROUGH ELECTRICAL",
        "orientation": 0
      }
    },
    {
      "type": "Feature",
      "geometry": {
        "type": "Point",
        "coordinates": [
          -76.985982,
          39.826546
        ]
      },
      "properties": {
        "name": "HARDWARE",
        "orientation": 0
      }
    },
    {
      "type": "Feature",
      "geometry": {
        "type": "Point",
        "coordinates": [
          -76.986584,
          39.826909
        ]
      },
      "properties": {
        "name": "INSIDE LAWN AND GARDEN",
        "orientation": 0
      }
    },
    {
      "type": "Feature",
      "geometry": {
        "type": "Point",
        "coordinates": [
          -76.98563,
          39.826715
        ]
      },
      "properties": {
        "name": "BUILDING MATERIALS",
        "orientation": 0
      }
    },
    {
      "type": "Feature",
      "geometry": {
        "type": "Point",
        "coordinates": [
          -76.985431,
          39.826954
        ]
      },
      "properties": {
        "name": "LUMBER",
        "orientation": 0
      }
    },
    {
      "type": "Feature",
      "geometry": {
        "type": "Point",
        "coordinates": [
          -76.986447,
          39.826759
        ]
      },
      "properties": {
        "name": "CLEANING",
        "orientation": 0
      }
    },
    {
      "type": "Feature",
      "geometry": {
        "type": "Point",
        "coordinates": [
          -76.985464,
          39.826656
        ]
      },
      "properties": {
        "name": "LUMBER",
        "orientation": 0
      }
    },
    {
      "type": "Feature",
      "geometry": {
        "type": "Point",
        "coordinates": [
          -76.98537,
          39.826764
        ]
      },
      "properties": {
        "name": "LUMBER",
        "orientation": 0
      }
    },
    {
      "type": "Feature",
      "geometry": {
        "type": "Point",
        "coordinates": [
          -76.985745,
          39.826632
        ]
      },
      "properties": {
        "name": "HARDWARE",
        "orientation": 0
      }
    },
    {
      "type": "Feature",
      "geometry": {
        "type": "Point",
        "coordinates": [
          -76.985609,
          39.826708
        ]
      },
      "properties": {
        "name": "HARDWARE",
        "orientation": 0
      }
    },
    {
      "type": "Feature",
      "geometry": {
        "type": "Point",
        "coordinates": [
          -76.986627,
          39.826656
        ]
      },
      "properties": {
        "name": "INSIDE LAWN AND GARDEN",
        "orientation": 0
      }
    },
    {
      "type": "Feature",
      "geometry": {
        "type": "Point",
        "coordinates": [
          -76.987047,
          39.826963
        ]
      },
      "properties": {
        "name": "OUTSIDE LAWN AND GARDEN",
        "orientation": 0
      }
    },
    {
      "type": "Feature",
      "geometry": {
        "type": "Point",
        "coordinates": [
          -76.986729,
          39.826442
        ]
      },
      "properties": {
        "name": "OUTSIDE LAWN AND GARDEN",
        "orientation": 0
      }
    },
    {
      "type": "Feature",
      "geometry": {
        "type": "Point",
        "coordinates": [
          -76.986612,
          39.82681
        ]
      },
      "properties": {
        "name": "OUTSIDE LAWN AND GARDEN",
        "orientation": 0
      }
    },
    {
      "type": "Feature",
      "geometry": {
        "type": "Point",
        "coordinates": [
          -76.986765,
          39.826854
        ]
      },
      "properties": {
        "name": "OUTSIDE LAWN AND GARDEN",
        "orientation": 0
      }
    },
    {
      "type": "Feature",
      "geometry": {
        "type": "Point",
        "coordinates": [
          -76.986627,
          39.826604
        ]
      },
      "properties": {
        "name": "GREENHOUSE",
        "orientation": 0
      }
    },
    {
      "type": "Feature",
      "geometry": {
        "type": "Point",
        "coordinates": [
          -76.986276,
          39.826663
        ]
      },
      "properties": {
        "name": "CLEANING",
        "orientation": 0
      }
    },
    {
      "type": "Feature",
      "geometry": {
        "type": "Point",
        "coordinates": [
          -76.986104,
          39.82701
        ]
      },
      "properties": {
        "name": "CABINETS",
        "orientation": 0
      }
    },
    {
      "type": "Feature",
      "geometry": {
        "type": "Point",
        "coordinates": [
          -76.986577,
          39.826445
        ]
      },
      "properties": {
        "name": "OUTSIDE LAWN AND GARDEN",
        "orientation": 0
      }
    },
    {
      "type": "Feature",
      "geometry": {
        "type": "Point",
        "coordinates": [
          -76.985776,
          39.826465
        ]
      },
      "properties": {
        "name": "TOOLS",
        "orientation": 0
      }
    },
    {
      "type": "Feature",
      "geometry": {
        "type": "Point",
        "coordinates": [
          -76.986425,
          39.826658
        ]
      },
      "properties": {
        "name": "OUTDOOR POWER EQUIPMENT",
        "orientation": 0
      }
    },
    {
      "type": "Feature",
      "geometry": {
        "type": "Point",
        "coordinates": [
          -76.986554,
          39.826923
        ]
      },
      "properties": {
        "name": "APPLIANCES",
        "orientation": 0
      }
    },
    {
      "type": "Feature",
      "geometry": {
        "type": "Point",
        "coordinates": [
          -76.986495,
          39.826461
        ]
      },
      "properties": {
        "name": "INSIDE LAWN AND GARDEN",
        "orientation": 0
      }
    },
    {
      "type": "Feature",
      "geometry": {
        "type": "Point",
        "coordinates": [
          -76.985902,
          39.826957
        ]
      },
      "properties": {
        "name": "FLOORING",
        "orientation": 0
      }
    },
    {
      "type": "Feature",
      "geometry": {
        "type": "Point",
        "coordinates": [
          -76.986369,
          39.827164
        ]
      },
      "properties": {
        "name": "RECEIVING DESK",
        "orientation": 0
      }
    },
    {
      "type": "Feature",
      "geometry": {
        "type": "Point",
        "coordinates": [
          -76.986087,
          39.826664
        ]
      },
      "properties": {
        "name": "ROUGH ELECTRICAL",
        "orientation": 0
      }
    },
    {
      "type": "Feature",
      "geometry": {
        "type": "Point",
        "coordinates": [
          -76.986751,
          39.826987
        ]
      },
      "properties": {
        "name": "OUTSIDE LAWN AND GARDEN",
        "orientation": 0
      }
    },
    {
      "type": "Feature",
      "geometry": {
        "type": "Point",
        "coordinates": [
          -76.985677,
          39.826663
        ]
      },
      "properties": {
        "name": "HARDWARE",
        "orientation": 0
      }
    },
    {
      "type": "Feature",
      "geometry": {
        "type": "Point",
        "coordinates": [
          -76.98556,
          39.826668
        ]
      },
      "properties": {
        "name": "MILLWORK",
        "orientation": 0
      }
    },
    {
      "type": "Feature",
      "geometry": {
        "type": "Point",
        "coordinates": [
          -76.986038,
          39.826663
        ]
      },
      "properties": {
        "name": "ROUGH PLUMBING",
        "orientation": 0
      }
    },
    {
      "type": "Feature",
      "geometry": {
        "type": "Point",
        "coordinates": [
          -76.98561,
          39.826957
        ]
      },
      "properties": {
        "name": "MILLWORK",
        "orientation": 0
      }
    },
    {
      "type": "Feature",
      "geometry": {
        "type": "Point",
        "coordinates": [
          -76.985504,
          39.826946
        ]
      },
      "properties": {
        "name": "BUILDING MATERIALS",
        "orientation": 0
      }
    },
    {
      "type": "Feature",
      "geometry": {
        "type": "Point",
        "coordinates": [
          -76.986421,
          39.82693
        ]
      },
      "properties": {
        "name": "FASHION PLUMBING",
        "orientation": 0
      }
    },
    {
      "type": "Feature",
      "geometry": {
        "type": "Point",
        "coordinates": [
          -76.986437,
          39.826607
        ]
      },
      "properties": {
        "name": "INSIDE LAWN AND GARDEN",
        "orientation": 0
      }
    },
    {
      "type": "Feature",
      "geometry": {
        "type": "Point",
        "coordinates": [
          -76.985773,
          39.826663
        ]
      },
      "properties": {
        "name": "STORAGE",
        "orientation": 0
      }
    },
    {
      "type": "Feature",
      "geometry": {
        "type": "Point",
        "coordinates": [
          -76.985522,
          39.826662
        ]
      },
      "properties": {
        "name": "BUILDING MATERIALS",
        "orientation": 0
      }
    },
    {
      "type": "Feature",
      "geometry": {
        "type": "Point",
        "coordinates": [
          -76.986435,
          39.82678
        ]
      },
      "properties": {
        "name": "ROUGH PLUMBING",
        "orientation": 0
      }
    },
    {
      "type": "Feature",
      "geometry": {
        "type": "Point",
        "coordinates": [
          -76.986191,
          39.826663
        ]
      },
      "properties": {
        "name": "LIGHTING",
        "orientation": 0
      }
    },
    {
      "type": "Feature",
      "geometry": {
        "type": "Point",
        "coordinates": [
          -76.985973,
          39.826688
        ]
      },
      "properties": {
        "name": "HOME DECOR",
        "orientation": 0
      }
    },
    {
      "type": "Feature",
      "geometry": {
        "type": "Point",
        "coordinates": [
          -76.986901,
          39.826613
        ]
      },
      "properties": {
        "name": "OUTSIDE LAWN AND GARDEN",
        "orientation": 0
      }
    },
    {
      "type": "Feature",
      "geometry": {
        "type": "Point",
        "coordinates": [
          -76.986635,
          39.826449
        ]
      },
      "properties": {
        "name": "INSIDE LAWN AND GARDEN",
        "orientation": 0
      }
    },
    {
      "type": "Feature",
      "geometry": {
        "type": "Point",
        "coordinates": [
          -76.985619,
          39.82658
        ]
      },
      "properties": {
        "name": "TOOLS",
        "orientation": 0
      }
    },
    {
      "type": "Feature",
      "geometry": {
        "type": "Point",
        "coordinates": [
          -76.985879,
          39.82666
        ]
      },
      "properties": {
        "name": "PAINT",
        "orientation": 0
      }
    }
  ]
}