{
  "type": "FeatureCollection",
  "features": [
    {
      "type": "Feature",
      "geometry": {
        "type": "MultiPolygon",
        "coordinates": [
          [
            [
              [
                -76.985511,
                39.827109
              ],
              [
                -76.98553,
                39.827109
              ],
              [
                -76.98553,
                39.827103
              ],
              [
                -76.98559,
                39.827103
              ],
              [
                -76.98559,
                39.826972
              ],
              [
                -76.985547,
                39.826972
              ],
              [
                -76.985547,
                39.826919
              ],
              [
                -76.98559,
                39.826919
              ],
              [
                -76.98559,
                39.826876
              ],
              [
                -76.985511,
                39.826876
              ],
              [
                -76.985511,
                39.827109
              ]
            ]
          ],
          [
            [
              [
                -76.98543,
                39.827109
              ],
              [
                -76.985474,
                39.827109
              ],
              [
                -76.985474,
                39.826876
              ],
              [
                -76.985438,
                39.826876
              ],
              [
                -76.985438,
                39.827026
              ],
              [
                -76.985396,
                39.827026
              ],
              [
                -76.985396,
                39.827101
              ],
              [
                -76.98543,
                39.827101
              ],
              [
                -76.98543,
                39.827109
              ]
            ]
          ],
          [
            [
              [
                -76.985486,
                39.826618
              ],
              [
                -76.985471,
                39.826618
              ],
              [
                -76.985471,
                39.826605
              ],
              [
                -76.985396,
                39.826605
              ],
              [
                -76.985396,
                39.826617
              ],
              [
                -76.985437,
                39.826617
              ],
              [
                -76.985437,
                39.826743
              ],
              [
                -76.985396,
                39.826743
              ],
              [
                -76.985396,
                39.826814
              ],
              [
                -76.985352,
                39.826814
              ],
              [
                -76.985352,
                39.826856
              ],
              [
                -76.985396,
                39.826856
              ],
              [
                -76.985396,
                39.826838
              ],
              [
                -76.985473,
                39.826838
              ],
              [
                -76.985473,
                39.826698
              ],
              [
                -76.985486,
                39.826698
              ],
              [
                -76.985486,
                39.826618
              ]
            ]
          ],
          [
            [
              [
                -76.985598,
                39.826606
              ],
              [
                -76.985511,
                39.826606
              ],
              [
                -76.985511,
                39.82684
              ],
              [
                -76.985598,
                39.82684
              ],
              [
                -76.985598,
                39.826606
              ]
            ]
          ],
          [
            [
              [
                -76.98574,
                39.827133
              ],
              [
                -76.98574,
                39.827111
              ],
              [
                -76.985663,
                39.827111
              ],
              [
                -76.985663,
                39.827109
              ],
              [
                -76.98559,
                39.827109
              ],
              [
                -76.98559,
                39.827103
              ],
              [
                -76.98553,
                39.827103
              ],
              [
                -76.98553,
                39.827133
              ],
              [
                -76.985654,
                39.827133
              ],
              [
                -76.985654,
                39.827119
              ],
              [
                -76.985673,
                39.827119
              ],
              [
                -76.985673,
                39.827133
              ],
              [
                -76.98574,
                39.827133
              ]
            ]
          ],
          [
            [
              [
                -76.985632,
                39.826876
              ],
              [
                -76.98559,
                39.826876
              ],
              [
                -76.98559,
                39.826919
              ],
              [
                -76.985548,
                39.826919
              ],
              [
                -76.985547,
                39.826919
              ],
              [
                -76.985547,
                39.826972
              ],
              [
                -76.98559,
                39.826972
              ],
              [
                -76.98559,
                39.827033
              ],
              [
                -76.985632,
                39.827033
              ],
              [
                -76.985632,
                39.826876
              ]
            ]
          ],
          [
            [
              [
                -76.985352,
                39.826856
              ],
              [
                -76.985352,
                39.827133
              ],
              [
                -76.98543,
                39.827133
              ],
              [
                -76.98543,
                39.827109
              ],
              [
                -76.98543,
                39.827101
              ],
              [
                -76.985396,
                39.827101
              ],
              [
                -76.985396,
                39.827026
              ],
              [
                -76.985437,
                39.827026
              ],
              [
                -76.985438,
                39.827026
              ],
              [
                -76.985438,
                39.826876
              ],
              [
                -76.985474,
                39.826876
              ],
              [
                -76.985474,
                39.826868
              ],
              [
                -76.985396,
                39.826868
              ],
              [
                -76.985396,
                39.826856
              ],
              [
                -76.985352,
                39.826856
              ]
            ]
          ],
          [
            [
              [
                -76.985352,
                39.826597
              ],
              [
                -76.985352,
                39.826814
              ],
              [
                -76.985396,
                39.826814
              ],
              [
                -76.985396,
                39.826743
              ],
              [
                -76.985437,
                39.826743
              ],
              [
                -76.985437,
                39.826617
              ],
              [
                -76.985396,
                39.826617
              ],
              [
                -76.985396,
                39.826597
              ],
              [
                -76.985352,
                39.826597
              ]
            ]
          ],
          [
            [
              [
                -76.985649,
                39.82661
              ],
              [
                -76.985598,
                39.82661
              ],
              [
                -76.985598,
                39.826833
              ],
              [
                -76.985677,
                39.826833
              ],
              [
                -76.985677,
                39.826653
              ],
              [
                -76.985649,
                39.826653
              ],
              [
                -76.985649,
                39.82661
              ]
            ]
          ],
          [
            [
              [
                -76.98588,
                39.826873
              ],
              [
                -76.985847,
                39.826873
              ],
              [
                -76.985847,
                39.826868
              ],
              [
                -76.985726,
                39.826868
              ],
              [
                -76.985726,
                39.826876
              ],
              [
                -76.985696,
                39.826876
              ],
              [
                -76.985695,
                39.826876
              ],
              [
                -76.985633,
                39.826876
              ],
              [
                -76.985632,
                39.826876
              ],
              [
                -76.985632,
                39.827033
              ],
              [
                -76.98559,
                39.827033
              ],
              [
                -76.98559,
                39.827109
              ],
              [
                -76.985663,
                39.827109
              ],
              [
                -76.985663,
                39.827111
              ],
              [
                -76.98574,
                39.827111
              ],
              [
                -76.98574,
                39.827133
              ],
              [
                -76.985775,
                39.827133
              ],
              [
                -76.985775,
                39.827119
              ],
              [
                -76.985792,
                39.827119
              ],
              [
                -76.985792,
                39.827112
              ],
              [
                -76.985849,
                39.827112
              ],
              [
                -76.985849,
                39.827095
              ],
              [
                -76.98588,
                39.827095
              ],
              [
                -76.98588,
                39.826873
              ]
            ]
          ],
          [
            [
              [
                -76.985928,
                39.826611
              ],
              [
                -76.985927,
                39.826611
              ],
              [
                -76.985927,
                39.826833
              ],
              [
                -76.986018,
                39.826833
              ],
              [
                -76.986018,
                39.826839
              ],
              [
                -76.986079,
                39.826839
              ],
              [
                -76.986079,
                39.826833
              ],
              [
                -76.98611,
                39.826833
              ],
              [
                -76.98611,
                39.826611
              ],
              [
                -76.985928,
                39.826611
              ]
            ]
          ],
          [
            [
              [
                -76.985927,
                39.826833
              ],
              [
                -76.985927,
                39.826611
              ],
              [
                -76.985852,
                39.826611
              ],
              [
                -76.985852,
                39.826835
              ],
              [
                -76.985903,
                39.826835
              ],
              [
                -76.985903,
                39.826833
              ],
              [
                -76.985927,
                39.826833
              ]
            ]
          ],
          [
            [
              [
                -76.986166,
                39.826876
              ],
              [
                -76.986141,
                39.826876
              ],
              [
                -76.986141,
                39.826868
              ],
              [
                -76.98612,
                39.826868
              ],
              [
                -76.986016,
                39.826868
              ],
              [
                -76.986016,
                39.826873
              ],
              [
                -76.985987,
                39.826873
              ],
              [
                -76.985986,
                39.826873
              ],
              [
                -76.985986,
                39.827096
              ],
              [
                -76.985954,
                39.827096
              ],
              [
                -76.985954,
                39.827113
              ],
              [
                -76.986033,
                39.827113
              ],
              [
                -76.986033,
                39.827133
              ],
              [
                -76.986171,
                39.827133
              ],
              [
                -76.986171,
                39.827106
              ],
              [
                -76.986141,
                39.827106
              ],
              [
                -76.986141,
                39.827088
              ],
              [
                -76.986166,
                39.827088
              ],
              [
                -76.986166,
                39.826876
              ]
            ]
          ],
          [
            [
              [
                -76.98678,
                39.82704
              ],
              [
                -76.986824,
                39.82704
              ],
              [
                -76.986824,
                39.827083
              ],
              [
                -76.98678,
                39.827083
              ],
              [
                -76.98678,
                39.82704
              ]
            ]
          ],
          [
            [
              [
                -76.985986,
                39.826873
              ],
              [
                -76.985955,
                39.826873
              ],
              [
                -76.985881,
                39.826873
              ],
              [
                -76.98588,
                39.826873
              ],
              [
                -76.98588,
                39.827095
              ],
              [
                -76.985849,
                39.827095
              ],
              [
                -76.985849,
                39.827112
              ],
              [
                -76.985792,
                39.827112
              ],
              [
                -76.985792,
                39.827133
              ],
              [
                -76.986033,
                39.827133
              ],
              [
                -76.986033,
                39.827113
              ],
              [
                -76.985954,
                39.827113
              ],
              [
                -76.985954,
                39.827096
              ],
              [
                -76.985986,
                39.827096
              ],
              [
                -76.985986,
                39.826873
              ]
            ]
          ],
          [
            [
              [
                -76.986746,
                39.826699
              ],
              [
                -76.986776,
                39.826699
              ],
              [
                -76.986776,
                39.826739
              ],
              [
                -76.986746,
                39.826739
              ],
              [
                -76.986746,
                39.826699
              ]
            ]
          ],
          [
            [
              [
                -76.986746,
                39.826872
              ],
              [
                -76.986776,
                39.826872
              ],
              [
                -76.986776,
                39.826978
              ],
              [
                -76.986746,
                39.826978
              ],
              [
                -76.986746,
                39.826872
              ]
            ]
          ],
          [
            [
              [
                -76.986776,
                39.827133
              ],
              [
                -76.986776,
                39.827096
              ],
              [
                -76.986746,
                39.827096
              ],
              [
                -76.986746,
                39.827114
              ],
              [
                -76.986529,
                39.827114
              ],
              [
                -76.986529,
                39.827133
              ],
              [
                -76.986776,
                39.827133
              ]
            ]
          ],
          [
            [
              [
                -76.986728,
                39.82698
              ],
              [
                -76.986657,
                39.82698
              ],
              [
                -76.986657,
                39.826971
              ],
              [
                -76.986535,
                39.826971
              ],
              [
                -76.986535,
                39.827103
              ],
              [
                -76.986483,
                39.827103
              ],
              [
                -76.986483,
                39.827106
              ],
              [
                -76.98644,
                39.827106
              ],
              [
                -76.98644,
                39.827083
              ],
              [
                -76.986418,
                39.827083
              ],
              [
                -76.986418,
                39.826894
              ],
              [
                -76.98644,
                39.826894
              ],
              [
                -76.98644,
                39.826868
              ],
              [
                -76.986728,
                39.826868
              ],
              [
                -76.986728,
                39.82698
              ]
            ]
          ],
          [
            [
              [
                -76.985852,
                39.826839
              ],
              [
                -76.985852,
                39.826611
              ],
              [
                -76.985707,
                39.826611
              ],
              [
                -76.985707,
                39.826759
              ],
              [
                -76.985677,
                39.826759
              ],
              [
                -76.985677,
                39.826833
              ],
              [
                -76.985736,
                39.826833
              ],
              [
                -76.985736,
                39.826839
              ],
              [
                -76.985852,
                39.826839
              ]
            ]
          ],
          [
            [
              [
                -76.986374,
                39.826611
              ],
              [
                -76.986363,
                39.826611
              ],
              [
                -76.986363,
                39.826606
              ],
              [
                -76.986225,
                39.826606
              ],
              [
                -76.986225,
                39.826611
              ],
              [
                -76.986215,
                39.826611
              ],
              [
                -76.986214,
                39.826611
              ],
              [
                -76.986214,
                39.826832
              ],
              [
                -76.986214,
                39.826833
              ],
              [
                -76.986374,
                39.826833
              ],
              [
                -76.986374,
                39.826611
              ]
            ]
          ],
          [
            [
              [
                -76.986451,
                39.826811
              ],
              [
                -76.986518,
                39.826811
              ],
              [
                -76.986518,
                39.826829
              ],
              [
                -76.986451,
                39.826829
              ],
              [
                -76.986451,
                39.826811
              ]
            ]
          ],
          [
            [
              [
                -76.985677,
                39.826759
              ],
              [
                -76.985677,
                39.826653
              ],
              [
                -76.985649,
                39.826653
              ],
              [
                -76.985649,
                39.82661
              ],
              [
                -76.985694,
                39.82661
              ],
              [
                -76.985694,
                39.826611
              ],
              [
                -76.985707,
                39.826611
              ],
              [
                -76.985707,
                39.826759
              ],
              [
                -76.985677,
                39.826759
              ]
            ]
          ],
          [
            [
              [
                -76.98598,
                39.826519
              ],
              [
                -76.985621,
                39.826519
              ],
              [
                -76.985621,
                39.826575
              ],
              [
                -76.985602,
                39.826575
              ],
              [
                -76.985602,
                39.826579
              ],
              [
                -76.985994,
                39.826579
              ],
              [
                -76.985994,
                39.826534
              ],
              [
                -76.98598,
                39.826534
              ],
              [
                -76.98598,
                39.826519
              ]
            ]
          ],
          [
            [
              [
                -76.986451,
                39.826793
              ],
              [
                -76.986451,
                39.826775
              ],
              [
                -76.986437,
                39.826775
              ],
              [
                -76.986437,
                39.826703
              ],
              [
                -76.986535,
                39.826703
              ],
              [
                -76.986535,
                39.826775
              ],
              [
                -76.986549,
                39.826775
              ],
              [
                -76.986549,
                39.826703
              ],
              [
                -76.986717,
                39.826703
              ],
              [
                -76.986717,
                39.826793
              ],
              [
                -76.986451,
                39.826793
              ]
            ]
          ],
          [
            [
              [
                -76.986428,
                39.827083
              ],
              [
                -76.98644,
                39.827083
              ],
              [
                -76.98644,
                39.827106
              ],
              [
                -76.986483,
                39.827106
              ],
              [
                -76.986483,
                39.827133
              ],
              [
                -76.98624,
                39.827133
              ],
              [
                -76.98624,
                39.827106
              ],
              [
                -76.986141,
                39.827106
              ],
              [
                -76.986141,
                39.827088
              ],
              [
                -76.986166,
                39.827088
              ],
              [
                -76.986166,
                39.827077
              ],
              [
                -76.9862,
                39.827077
              ],
              [
                -76.9862,
                39.827084
              ],
              [
                -76.986233,
                39.827084
              ],
              [
                -76.986233,
                39.827062
              ],
              [
                -76.9862,
                39.827062
              ],
              [
                -76.9862,
                39.826876
              ],
              [
                -76.9862,
                39.826868
              ],
              [
                -76.98644,
                39.826868
              ],
              [
                -76.98644,
                39.826894
              ],
              [
                -76.986419,
                39.826894
              ],
              [
                -76.986418,
                39.826894
              ],
              [
                -76.986418,
                39.827083
              ],
              [
                -76.986428,
                39.827083
              ]
            ]
          ],
          [
            [
              [
                -76.986776,
                39.827084
              ],
              [
                -76.986746,
                39.827084
              ],
              [
                -76.986746,
                39.826978
              ],
              [
                -76.986776,
                39.826978
              ],
              [
                -76.986776,
                39.827084
              ]
            ]
          ],
          [
            [
              [
                -76.986728,
                39.827103
              ],
              [
                -76.986535,
                39.827103
              ],
              [
                -76.986535,
                39.826971
              ],
              [
                -76.986657,
                39.826971
              ],
              [
                -76.986657,
                39.82698
              ],
              [
                -76.986728,
                39.82698
              ],
              [
                -76.986728,
                39.827103
              ]
            ]
          ],
          [
            [
              [
                -76.986866,
                39.827077
              ],
              [
                -76.986908,
                39.827077
              ],
              [
                -76.986908,
                39.82702
              ],
              [
                -76.986866,
                39.82702
              ],
              [
                -76.986866,
                39.827077
              ]
            ]
          ],
          [
            [
              [
                -76.986451,
                39.826829
              ],
              [
                -76.986717,
                39.826829
              ],
              [
                -76.986717,
                39.826847
              ],
              [
                -76.986451,
                39.826847
              ],
              [
                -76.986451,
                39.826829
              ]
            ]
          ],
          [
            [
              [
                -76.986374,
                39.826833
              ],
              [
                -76.986404,
                39.826833
              ],
              [
                -76.986404,
                39.826611
              ],
              [
                -76.986374,
                39.826611
              ],
              [
                -76.986374,
                39.826833
              ]
            ]
          ],
          [
            [
              [
                -76.98624,
                39.827133
              ],
              [
                -76.986171,
                39.827133
              ],
              [
                -76.986171,
                39.827106
              ],
              [
                -76.98624,
                39.827106
              ],
              [
                -76.98624,
                39.827133
              ]
            ]
          ],
          [
            [
              [
                -76.986166,
                39.826876
              ],
              [
                -76.986166,
                39.827077
              ],
              [
                -76.9862,
                39.827077
              ],
              [
                -76.9862,
                39.827084
              ],
              [
                -76.986232,
                39.827084
              ],
              [
                -76.986233,
                39.827084
              ],
              [
                -76.986233,
                39.827062
              ],
              [
                -76.9862,
                39.827062
              ],
              [
                -76.9862,
                39.826876
              ],
              [
                -76.986166,
                39.826876
              ]
            ]
          ],
          [
            [
              [
                -76.986111,
                39.826833
              ],
              [
                -76.986133,
                39.826833
              ],
              [
                -76.986133,
                39.826839
              ],
              [
                -76.986191,
                39.826839
              ],
              [
                -76.986191,
                39.826833
              ],
              [
                -76.986191,
                39.826772
              ],
              [
                -76.986161,
                39.826772
              ],
              [
                -76.98616,
                39.826772
              ],
              [
                -76.98616,
                39.826612
              ],
              [
                -76.986111,
                39.826612
              ],
              [
                -76.98611,
                39.826612
              ],
              [
                -76.98611,
                39.826833
              ],
              [
                -76.986111,
                39.826833
              ]
            ]
          ],
          [
            [
              [
                -76.986835,
                39.826851
              ],
              [
                -76.986835,
                39.826872
              ],
              [
                -76.986824,
                39.826872
              ],
              [
                -76.986824,
                39.827077
              ],
              [
                -76.986866,
                39.827077
              ],
              [
                -76.986866,
                39.826851
              ],
              [
                -76.986835,
                39.826851
              ]
            ]
          ],
          [
            [
              [
                -76.98678,
                39.826755
              ],
              [
                -76.986815,
                39.826755
              ],
              [
                -76.986815,
                39.826597
              ],
              [
                -76.98678,
                39.826597
              ],
              [
                -76.98678,
                39.826755
              ]
            ]
          ],
          [
            [
              [
                -76.986776,
                39.826597
              ],
              [
                -76.986737,
                39.826597
              ],
              [
                -76.986737,
                39.826596
              ],
              [
                -76.986437,
                39.826596
              ],
              [
                -76.986437,
                39.826703
              ],
              [
                -76.986535,
                39.826703
              ],
              [
                -76.986535,
                39.826632
              ],
              [
                -76.986549,
                39.826632
              ],
              [
                -76.986549,
                39.826703
              ],
              [
                -76.986717,
                39.826703
              ],
              [
                -76.986717,
                39.826739
              ],
              [
                -76.986746,
                39.826739
              ],
              [
                -76.986746,
                39.826699
              ],
              [
                -76.986776,
                39.826699
              ],
              [
                -76.986776,
                39.826597
              ]
            ]
          ],
          [
            [
              [
                -76.986776,
                39.826519
              ],
              [
                -76.986565,
                39.826519
              ],
              [
                -76.986565,
                39.826535
              ],
              [
                -76.986633,
                39.826535
              ],
              [
                -76.986633,
                39.826571
              ],
              [
                -76.986737,
                39.826571
              ],
              [
                -76.986737,
                39.826564
              ],
              [
                -76.986776,
                39.826564
              ],
              [
                -76.986776,
                39.826519
              ]
            ]
          ],
          [
            [
              [
                -76.986834,
                39.826442
              ],
              [
                -76.986865,
                39.826442
              ],
              [
                -76.986865,
                39.826451
              ],
              [
                -76.986871,
                39.826451
              ],
              [
                -76.986871,
                39.826496
              ],
              [
                -76.986834,
                39.826496
              ],
              [
                -76.986834,
                39.826442
              ]
            ]
          ],
          [
            [
              [
                -76.987124,
                39.826683
              ],
              [
                -76.98708,
                39.826683
              ],
              [
                -76.98708,
                39.82678
              ],
              [
                -76.987124,
                39.82678
              ],
              [
                -76.987124,
                39.826683
              ]
            ]
          ],
          [
            [
              [
                -76.98678,
                39.826872
              ],
              [
                -76.986824,
                39.826872
              ],
              [
                -76.986824,
                39.82704
              ],
              [
                -76.98678,
                39.82704
              ],
              [
                -76.98678,
                39.826872
              ]
            ]
          ],
          [
            [
              [
                -76.987124,
                39.827077
              ],
              [
                -76.987101,
                39.827077
              ],
              [
                -76.987101,
                39.82709
              ],
              [
                -76.987124,
                39.82709
              ],
              [
                -76.987124,
                39.827107
              ],
              [
                -76.986957,
                39.827107
              ],
              [
                -76.986957,
                39.827106
              ],
              [
                -76.98678,
                39.827106
              ],
              [
                -76.98678,
                39.827096
              ],
              [
                -76.986804,
                39.827096
              ],
              [
                -76.986804,
                39.827083
              ],
              [
                -76.986824,
                39.827083
              ],
              [
                -76.986824,
                39.827077
              ],
              [
                -76.986908,
                39.827077
              ],
              [
                -76.986908,
                39.82702
              ],
              [
                -76.986867,
                39.82702
              ],
              [
                -76.986866,
                39.82702
              ],
              [
                -76.986866,
                39.826851
              ],
              [
                -76.986835,
                39.826851
              ],
              [
                -76.986835,
                39.826842
              ],
              [
                -76.987098,
                39.826842
              ],
              [
                -76.987098,
                39.82685
              ],
              [
                -76.987124,
                39.82685
              ],
              [
                -76.987124,
                39.827077
              ]
            ]
          ],
          [
            [
              [
                -76.986565,
                39.826519
              ],
              [
                -76.986466,
                39.826519
              ],
              [
                -76.986466,
                39.826543
              ],
              [
                -76.986437,
                39.826543
              ],
              [
                -76.986437,
                39.826571
              ],
              [
                -76.986633,
                39.826571
              ],
              [
                -76.986633,
                39.826535
              ],
              [
                -76.986565,
                39.826535
              ],
              [
                -76.986565,
                39.826519
              ]
            ]
          ],
          [
            [
              [
                -76.985602,
                39.826519
              ],
              [
                -76.985548,
                39.826519
              ],
              [
                -76.985548,
                39.826534
              ],
              [
                -76.985577,
                39.826534
              ],
              [
                -76.985577,
                39.826579
              ],
              [
                -76.985602,
                39.826579
              ],
              [
                -76.985602,
                39.826575
              ],
              [
                -76.985621,
                39.826575
              ],
              [
                -76.985621,
                39.826533
              ],
              [
                -76.985602,
                39.826533
              ],
              [
                -76.985602,
                39.826519
              ]
            ]
          ],
          [
            [
              [
                -76.986313,
                39.826575
              ],
              [
                -76.986207,
                39.826575
              ],
              [
                -76.986207,
                39.826519
              ],
              [
                -76.986313,
                39.826519
              ],
              [
                -76.986313,
                39.826575
              ]
            ]
          ],
          [
            [
              [
                -76.986717,
                39.826739
              ],
              [
                -76.986717,
                39.826793
              ],
              [
                -76.986451,
                39.826793
              ],
              [
                -76.986451,
                39.826811
              ],
              [
                -76.986518,
                39.826811
              ],
              [
                -76.986518,
                39.826829
              ],
              [
                -76.986717,
                39.826829
              ],
              [
                -76.986717,
                39.826847
              ],
              [
                -76.986737,
                39.826847
              ],
              [
                -76.986737,
                39.826839
              ],
              [
                -76.986776,
                39.826839
              ],
              [
                -76.986776,
                39.826739
              ],
              [
                -76.986746,
                39.826739
              ],
              [
                -76.986717,
                39.826739
              ]
            ]
          ],
          [
            [
              [
                -76.986192,
                39.826611
              ],
              [
                -76.98616,
                39.826611
              ],
              [
                -76.98616,
                39.826772
              ],
              [
                -76.986191,
                39.826772
              ],
              [
                -76.986191,
                39.826833
              ],
              [
                -76.986214,
                39.826833
              ],
              [
                -76.986214,
                39.826673
              ],
              [
                -76.986192,
                39.826673
              ],
              [
                -76.986192,
                39.826611
              ]
            ]
          ],
          [
            [
              [
                -76.98678,
                39.827106
              ],
              [
                -76.986957,
                39.827106
              ],
              [
                -76.986957,
                39.827107
              ],
              [
                -76.987124,
                39.827107
              ],
              [
                -76.987124,
                39.826442
              ],
              [
                -76.98678,
                39.826442
              ],
              [
                -76.98678,
                39.827106
              ]
            ]
          ]
        ]
      },
      "properties": {
        "fill": "#D9E2F6",
        "stroke-width": "0.5",
        "stroke": "#96A3BD",
        "opacity": "0.75"
      }
    },
    {
      "type": "Feature",
      "geometry": {
        "type": "MultiLineString",
        "coordinates": []
      },
      "properties": {
        "stroke-width": "0.5"
      }
    },
    {
      "type": "Feature",
      "geometry": {
        "type": "Point",
        "coordinates": [
          -76.986109,
          39.826525
        ]
      },
      "properties": {
        "type": "P",
        "sub_category": "EntryExit",
        "poi_name": "MAIN EXIT",
        "profile": "BASIC INFO",
        "icon_id": "entrance_exit",
        "orientation": 0
      }
    },
    {
      "type": "Feature",
      "geometry": {
        "type": "Point",
        "coordinates": [
          -76.986357,
          39.82656
        ]
      },
      "properties": {
        "type": "P",
        "sub_category": "ServiceDesks",
        "poi_name": "CUSTOMER SERVICE",
        "profile": "BASIC INFO",
        "icon_id": "customer_service_desk",
        "orientation": 0
      }
    },
    {
      "type": "Feature",
      "geometry": {
        "type": "Point",
        "coordinates": [
          -76.986358,
          39.826569
        ]
      },
      "properties": {
        "type": "P",
        "sub_category": "Services",
        "poi_name": "RETURNS",
        "profile": "BASIC INFO",
        "icon_id": "returns",
        "orientation": 0
      }
    },
    {
      "type": "Feature",
      "geometry": {
        "type": "Point",
        "coordinates": [
          -76.986237,
          39.826526
        ]
      },
      "properties": {
        "type": "P",
        "sub_category": "Services",
        "poi_name": "PRODUCT PICK-UP",
        "profile": "BASIC INFO",
        "icon_id": "store_pick_up",
        "orientation": 0
      }
    },
    {
      "type": "Feature",
      "geometry": {
        "type": "Point",
        "coordinates": [
          -76.986274,
          39.826526
        ]
      },
      "properties": {
        "type": "P",
        "sub_category": "Services",
        "poi_name": "PICKUP LOCKER",
        "profile": "BASIC INFO",
        "icon_id": "pickup_lockers",
        "orientation": 0
      }
    },
    {
      "type": "Feature",
      "geometry": {
        "type": "Point",
        "coordinates": [
          -76.986119,
          39.826583
        ]
      },
      "properties": {
        "type": "P",
        "sub_category": "Checkouts",
        "poi_name": "MAIN SELF-CHECKOUT",
        "profile": "BASIC INFO",
        "icon_id": "checkouts",
        "orientation": 0
      }
    },
    {
      "type": "Feature",
      "geometry": {
        "type": "Point",
        "coordinates": [
          -76.986022,
          39.826591
        ]
      },
      "properties": {
        "type": "P",
        "sub_category": "Checkouts",
        "poi_name": "MAIN CHECKOUT",
        "profile": "BASIC INFO",
        "icon_id": "checkouts",
        "orientation": 0
      }
    },
    {
      "type": "Feature",
      "geometry": {
        "type": "Point",
        "coordinates": [
          -76.986407,
          39.826442
        ]
      },
      "properties": {
        "type": "P",
        "sub_category": "EntryExit",
        "poi_name": "MAIN ENTRANCE",
        "profile": "BASIC INFO",
        "icon_id": "entrance_exit",
        "orientation": 0
      }
    },
    {
      "type": "Feature",
      "geometry": {
        "type": "Point",
        "coordinates": [
          -76.985489,
          39.826506
        ]
      },
      "properties": {
        "type": "P",
        "sub_category": "EntryExit",
        "poi_name": "PRO ENTRANCE",
        "profile": "BASIC INFO",
        "icon_id": "entrance_exit",
        "orientation": 0
      }
    },
    {
      "type": "Feature",
      "geometry": {
        "type": "Point",
        "coordinates": [
          -76.985491,
          39.826538
        ]
      },
      "properties": {
        "type": "P",
        "sub_category": "EntryExit",
        "poi_name": "PRO EXIT",
        "profile": "BASIC INFO",
        "icon_id": "entrance_exit",
        "orientation": 0
      }
    },
    {
      "type": "Feature",
      "geometry": {
        "type": "Point",
        "coordinates": [
          -76.987028,
          39.8264
        ]
      },
      "properties": {
        "type": "P",
        "sub_category": "EntryExit",
        "poi_name": "GARDEN CENTER ENTRANCE",
        "profile": "BASIC INFO",
        "icon_id": "entrance_exit",
        "orientation": 0
      }
    },
    {
      "type": "Feature",
      "geometry": {
        "type": "Point",
        "coordinates": [
          -76.98703,
          39.826455
        ]
      },
      "properties": {
        "type": "P",
        "sub_category": "EntryExit",
        "poi_name": "GARDEN CENTER EXIT",
        "profile": "BASIC INFO",
        "icon_id": "entrance_exit",
        "orientation": 0
      }
    },
    {
      "type": "Feature",
      "geometry": {
        "type": "Point",
        "coordinates": [
          -76.985961,
          39.8265
        ]
      },
      "properties": {
        "type": "P",
        "sub_category": "Restrooms",
        "poi_name": "MEN/WOMEN’S RESTROOMS",
        "profile": "BASIC INFO",
        "icon_id": "restrooms",
        "orientation": 0
      }
    },
    {
      "type": "Feature",
      "geometry": {
        "type": "Point",
        "coordinates": [
          -76.985927,
          39.826492
        ]
      },
      "properties": {
        "type": "P",
        "sub_category": "Restrooms",
        "poi_name": "UNISEX",
        "profile": "BASIC INFO",
        "icon_id": "restrooms",
        "orientation": 0
      }
    },
    {
      "type": "Feature",
      "geometry": {
        "type": "Point",
        "coordinates": [
          -76.985408,
          39.826527
        ]
      },
      "properties": {
        "type": "P",
        "sub_category": "ServiceDesks",
        "poi_name": "PRO SERVICE DESK",
        "profile": "BASIC INFO",
        "icon_id": "pro_service_desk",
        "orientation": 0
      }
    },
    {
      "type": "Feature",
      "geometry": {
        "type": "Point",
        "coordinates": [
          -76.986564,
          39.826952
        ]
      },
      "properties": {
        "type": "P",
        "sub_category": "ServiceDesks",
        "poi_name": "APPLIANCE DESK",
        "profile": "STORE SERVICES",
        "icon_id": "appliance_desk",
        "orientation": 0
      }
    },
    {
      "type": "Feature",
      "geometry": {
        "type": "Point",
        "coordinates": [
          -76.986315,
          39.826893
        ]
      },
      "properties": {
        "type": "P",
        "sub_category": "ServiceDesks",
        "poi_name": "FLOORING DESK",
        "profile": "STORE SERVICES",
        "icon_id": "flooring_desk",
        "orientation": 0
      }
    },
    {
      "type": "Feature",
      "geometry": {
        "type": "Point",
        "coordinates": [
          -76.986159,
          39.826782
        ]
      },
      "properties": {
        "type": "P",
        "sub_category": "ServiceDesks",
        "poi_name": "HOME DECOR DESK",
        "profile": "STORE SERVICES",
        "icon_id": "home_décor_desk",
        "orientation": 0
      }
    },
    {
      "type": "Feature",
      "geometry": {
        "type": "Point",
        "coordinates": [
          -76.986659,
          39.827048
        ]
      },
      "properties": {
        "type": "P",
        "sub_category": "ServiceDesks",
        "poi_name": "KITCHEN DESIGN DESK",
        "profile": "STORE SERVICES",
        "icon_id": "kitchen_design_desk",
        "orientation": 0
      }
    },
    {
      "type": "Feature",
      "geometry": {
        "type": "Point",
        "coordinates": [
          -76.985758,
          39.82689
        ]
      },
      "properties": {
        "type": "P",
        "sub_category": "ServiceDesks",
        "poi_name": "MILLWORK DESK",
        "profile": "STORE SERVICES",
        "icon_id": "millwork_desk",
        "orientation": 0
      }
    },
    {
      "type": "Feature",
      "geometry": {
        "type": "Point",
        "coordinates": [
          -76.986312,
          39.826608
        ]
      },
      "properties": {
        "type": "P",
        "sub_category": "ServiceDesks",
        "poi_name": "PAINT DESK",
        "profile": "STORE SERVICES",
        "icon_id": "paint_desk",
        "orientation": 0
      }
    },
    {
      "type": "Feature",
      "geometry": {
        "type": "Point",
        "coordinates": [
          -76.985493,
          39.826584
        ]
      },
      "properties": {
        "type": "P",
        "sub_category": "Checkouts",
        "poi_name": "PRO CHECKOUT",
        "profile": "BASIC INFO",
        "icon_id": "checkouts",
        "orientation": 0
      }
    },
    {
      "type": "Feature",
      "geometry": {
        "type": "Point",
        "coordinates": [
          -76.987026,
          39.826513
        ]
      },
      "properties": {
        "type": "P",
        "sub_category": "Checkouts",
        "poi_name": "GARDEN CENTER CHECKOUT",
        "profile": "BASIC INFO",
        "icon_id": "checkouts",
        "orientation": 0
      }
    },
    {
      "type": "Feature",
      "geometry": {
        "type": "Point",
        "coordinates": [
          -76.985773,
          39.82677
        ]
      },
      "properties": {
        "type": "P",
        "sub_category": "Services",
        "poi_name": "CHAIN AND ROPE CUTTING",
        "profile": "STORE SERVICES",
        "icon_id": "chain_rope_cutting",
        "orientation": 0
      }
    },
    {
      "type": "Feature",
      "geometry": {
        "type": "Point",
        "coordinates": [
          -76.985757,
          39.826623
        ]
      },
      "properties": {
        "type": "P",
        "sub_category": "Services",
        "poi_name": "KEY CUTTING",
        "profile": "STORE SERVICES",
        "icon_id": "key_copying",
        "orientation": 0
      }
    },
    {
      "type": "Feature",
      "geometry": {
        "type": "Point",
        "coordinates": [
          -76.985832,
          39.826722
        ]
      },
      "properties": {
        "type": "P",
        "sub_category": "Services",
        "poi_name": "GLASS CUTTING",
        "profile": "STORE SERVICES",
        "icon_id": "glass_cutting",
        "orientation": 0
      }
    },
    {
      "type": "Feature",
      "geometry": {
        "type": "Point",
        "coordinates": [
          -76.985897,
          39.826824
        ]
      },
      "properties": {
        "type": "P",
        "sub_category": "Services",
        "poi_name": "WIRE CUTTING",
        "profile": "STORE SERVICES",
        "icon_id": "wire_cutting",
        "orientation": 0
      }
    },
    {
      "type": "Feature",
      "geometry": {
        "type": "Point",
        "coordinates": [
          -76.986424,
          39.827114
        ]
      },
      "properties": {
        "type": "P",
        "sub_category": "Services",
        "poi_name": "CARPET CUTTING",
        "profile": "STORE SERVICES",
        "icon_id": "carpet_cutting",
        "orientation": 0
      }
    },
    {
      "type": "Feature",
      "geometry": {
        "type": "Point",
        "coordinates": [
          -76.98544,
          39.827085
        ]
      },
      "properties": {
        "type": "P",
        "sub_category": "Services",
        "poi_name": "WOOD CUTTING",
        "profile": "STORE SERVICES",
        "icon_id": "wood_cutting",
        "orientation": 0
      }
    },
    {
      "type": "Feature",
      "geometry": {
        "type": "Point",
        "coordinates": [
          -76.986115,
          39.826723
        ]
      },
      "properties": {
        "type": "P",
        "sub_category": "Services",
        "poi_name": "BLIND CUTTING",
        "profile": "STORE SERVICES",
        "icon_id": "blind_cutting",
        "orientation": 0
      }
    },
    {
      "type": "Feature",
      "geometry": {
        "type": "Point",
        "coordinates": [
          -76.986199,
          39.827188
        ]
      },
      "properties": {
        "type": "P",
        "sub_category": "ServiceDesks",
        "poi_name": "RECEIVING DESK",
        "profile": "BASIC INFO",
        "icon_id": "receiving_desk",
        "orientation": 0
      }
    },
    {
      "type": "Feature",
      "geometry": {
        "type": "Point",
        "coordinates": [
          -76.985551,
          39.826993
        ]
      },
      "properties": {
        "name": "LUMBER",
        "orientation": 0
      }
    },
    {
      "type": "Feature",
      "geometry": {
        "type": "Point",
        "coordinates": [
          -76.985435,
          39.826993
        ]
      },
      "properties": {
        "name": "LUMBER",
        "orientation": 0
      }
    },
    {
      "type": "Feature",
      "geometry": {
        "type": "Point",
        "coordinates": [
          -76.985419,
          39.82673
        ]
      },
      "properties": {
        "name": "LUMBER",
        "orientation": 0
      }
    },
    {
      "type": "Feature",
      "geometry": {
        "type": "Point",
        "coordinates": [
          -76.985554,
          39.826723
        ]
      },
      "properties": {
        "name": "LUMBER",
        "orientation": 0
      }
    },
    {
      "type": "Feature",
      "geometry": {
        "type": "Point",
        "coordinates": [
          -76.985635,
          39.827118
        ]
      },
      "properties": {
        "name": "BUILDING MATERIALS",
        "orientation": 0
      }
    },
    {
      "type": "Feature",
      "geometry": {
        "type": "Point",
        "coordinates": [
          -76.98559,
          39.826954
        ]
      },
      "properties": {
        "name": "BUILDING MATERIALS",
        "orientation": 0
      }
    },
    {
      "type": "Feature",
      "geometry": {
        "type": "Point",
        "coordinates": [
          -76.985413,
          39.826995
        ]
      },
      "properties": {
        "name": "BUILDING MATERIALS",
        "orientation": 0
      }
    },
    {
      "type": "Feature",
      "geometry": {
        "type": "Point",
        "coordinates": [
          -76.985395,
          39.826705
        ]
      },
      "properties": {
        "name": "BUILDING MATERIALS",
        "orientation": 0
      }
    },
    {
      "type": "Feature",
      "geometry": {
        "type": "Point",
        "coordinates": [
          -76.985637,
          39.826722
        ]
      },
      "properties": {
        "name": "BUILDING MATERIALS",
        "orientation": 0
      }
    },
    {
      "type": "Feature",
      "geometry": {
        "type": "Point",
        "coordinates": [
          -76.985734,
          39.827001
        ]
      },
      "properties": {
        "name": "MILLWORK",
        "orientation": 0
      }
    },
    {
      "type": "Feature",
      "geometry": {
        "type": "Point",
        "coordinates": [
          -76.986018,
          39.826725
        ]
      },
      "properties": {
        "name": "LIGHTING",
        "orientation": 0
      }
    },
    {
      "type": "Feature",
      "geometry": {
        "type": "Point",
        "coordinates": [
          -76.985889,
          39.826723
        ]
      },
      "properties": {
        "name": "ROUGH ELECTRICAL",
        "orientation": 0
      }
    },
    {
      "type": "Feature",
      "geometry": {
        "type": "Point",
        "coordinates": [
          -76.986063,
          39.827001
        ]
      },
      "properties": {
        "name": "FASHION PLUMBING",
        "orientation": 0
      }
    },
    {
      "type": "Feature",
      "geometry": {
        "type": "Point",
        "coordinates": [
          -76.986802,
          39.827061
        ]
      },
      "properties": {
        "name": "ROUGH PLUMBING",
        "orientation": 0
      }
    },
    {
      "type": "Feature",
      "geometry": {
        "type": "Point",
        "coordinates": [
          -76.985912,
          39.827003
        ]
      },
      "properties": {
        "name": "ROUGH PLUMBING",
        "orientation": 0
      }
    },
    {
      "type": "Feature",
      "geometry": {
        "type": "Point",
        "coordinates": [
          -76.986761,
          39.826719
        ]
      },
      "properties": {
        "name": "APPLIANCES",
        "orientation": 0
      }
    },
    {
      "type": "Feature",
      "geometry": {
        "type": "Point",
        "coordinates": [
          -76.986761,
          39.826925
        ]
      },
      "properties": {
        "name": "APPLIANCES",
        "orientation": 0
      }
    },
    {
      "type": "Feature",
      "geometry": {
        "type": "Point",
        "coordinates": [
          -76.986653,
          39.827114
        ]
      },
      "properties": {
        "name": "APPLIANCES",
        "orientation": 0
      }
    },
    {
      "type": "Feature",
      "geometry": {
        "type": "Point",
        "coordinates": [
          -76.986573,
          39.826987
        ]
      },
      "properties": {
        "name": "APPLIANCES",
        "orientation": 0
      }
    },
    {
      "type": "Feature",
      "geometry": {
        "type": "Point",
        "coordinates": [
          -76.985765,
          39.826725
        ]
      },
      "properties": {
        "name": "HARDWARE",
        "orientation": 0
      }
    },
    {
      "type": "Feature",
      "geometry": {
        "type": "Point",
        "coordinates": [
          -76.986294,
          39.82672
        ]
      },
      "properties": {
        "name": "PAINT",
        "orientation": 0
      }
    },
    {
      "type": "Feature",
      "geometry": {
        "type": "Point",
        "coordinates": [
          -76.986484,
          39.82682
        ]
      },
      "properties": {
        "name": "TOOLS",
        "orientation": 0
      }
    },
    {
      "type": "Feature",
      "geometry": {
        "type": "Point",
        "coordinates": [
          -76.985678,
          39.826685
        ]
      },
      "properties": {
        "name": "TOOLS",
        "orientation": 0
      }
    },
    {
      "type": "Feature",
      "geometry": {
        "type": "Point",
        "coordinates": [
          -76.985798,
          39.826549
        ]
      },
      "properties": {
        "name": "TOOLS",
        "orientation": 0
      }
    },
    {
      "type": "Feature",
      "geometry": {
        "type": "Point",
        "coordinates": [
          -76.986577,
          39.826748
        ]
      },
      "properties": {
        "name": "OUTDOOR POWER EQUIPMENT",
        "orientation": 0
      }
    },
    {
      "type": "Feature",
      "geometry": {
        "type": "Point",
        "coordinates": [
          -76.986312,
          39.827001
        ]
      },
      "properties": {
        "name": "FLOORING",
        "orientation": 0
      }
    },
    {
      "type": "Feature",
      "geometry": {
        "type": "Point",
        "coordinates": [
          -76.986761,
          39.827031
        ]
      },
      "properties": {
        "name": "CABINETS",
        "orientation": 0
      }
    },
    {
      "type": "Feature",
      "geometry": {
        "type": "Point",
        "coordinates": [
          -76.986632,
          39.827037
        ]
      },
      "properties": {
        "name": "CABINETS",
        "orientation": 0
      }
    },
    {
      "type": "Feature",
      "geometry": {
        "type": "Point",
        "coordinates": [
          -76.986887,
          39.827048
        ]
      },
      "properties": {
        "name": "CLEANING",
        "orientation": 0
      }
    },
    {
      "type": "Feature",
      "geometry": {
        "type": "Point",
        "coordinates": [
          -76.986584,
          39.826838
        ]
      },
      "properties": {
        "name": "CLEANING",
        "orientation": 0
      }
    },
    {
      "type": "Feature",
      "geometry": {
        "type": "Point",
        "coordinates": [
          -76.986389,
          39.826723
        ]
      },
      "properties": {
        "name": "CLEANING",
        "orientation": 0
      }
    },
    {
      "type": "Feature",
      "geometry": {
        "type": "Point",
        "coordinates": [
          -76.986205,
          39.82712
        ]
      },
      "properties": {
        "name": "HOME DECOR",
        "orientation": 0
      }
    },
    {
      "type": "Feature",
      "geometry": {
        "type": "Point",
        "coordinates": [
          -76.9862,
          39.82698
        ]
      },
      "properties": {
        "name": "HOME DECOR",
        "orientation": 0
      }
    },
    {
      "type": "Feature",
      "geometry": {
        "type": "Point",
        "coordinates": [
          -76.986151,
          39.826725
        ]
      },
      "properties": {
        "name": "HOME DECOR",
        "orientation": 0
      }
    },
    {
      "type": "Feature",
      "geometry": {
        "type": "Point",
        "coordinates": [
          -76.986845,
          39.826964
        ]
      },
      "properties": {
        "name": "INSIDE LAWN AND GARDEN",
        "orientation": 0
      }
    },
    {
      "type": "Feature",
      "geometry": {
        "type": "Point",
        "coordinates": [
          -76.986798,
          39.826676
        ]
      },
      "properties": {
        "name": "INSIDE LAWN AND GARDEN",
        "orientation": 0
      }
    },
    {
      "type": "Feature",
      "geometry": {
        "type": "Point",
        "coordinates": [
          -76.986607,
          39.826667
        ]
      },
      "properties": {
        "name": "INSIDE LAWN AND GARDEN",
        "orientation": 0
      }
    },
    {
      "type": "Feature",
      "geometry": {
        "type": "Point",
        "coordinates": [
          -76.986671,
          39.826545
        ]
      },
      "properties": {
        "name": "INSIDE LAWN AND GARDEN",
        "orientation": 0
      }
    },
    {
      "type": "Feature",
      "geometry": {
        "type": "Point",
        "coordinates": [
          -76.986852,
          39.826469
        ]
      },
      "properties": {
        "name": "OUTSIDE LAWN AND GARDEN",
        "orientation": 0
      }
    },
    {
      "type": "Feature",
      "geometry": {
        "type": "Point",
        "coordinates": [
          -76.987102,
          39.826732
        ]
      },
      "properties": {
        "name": "OUTSIDE LAWN AND GARDEN",
        "orientation": 0
      }
    },
    {
      "type": "Feature",
      "geometry": {
        "type": "Point",
        "coordinates": [
          -76.986802,
          39.826956
        ]
      },
      "properties": {
        "name": "OUTSIDE LAWN AND GARDEN",
        "orientation": 0
      }
    },
    {
      "type": "Feature",
      "geometry": {
        "type": "Point",
        "coordinates": [
          -76.986952,
          39.826975
        ]
      },
      "properties": {
        "name": "OUTSIDE LAWN AND GARDEN",
        "orientation": 0
      }
    },
    {
      "type": "Feature",
      "geometry": {
        "type": "Point",
        "coordinates": [
          -76.986614,
          39.826793
        ]
      },
      "properties": {
        "name": "STORAGE",
        "orientation": 0
      }
    },
    {
      "type": "Feature",
      "geometry": {
        "type": "Point",
        "coordinates": [
          -76.986187,
          39.826723
        ]
      },
      "properties": {
        "name": "STORAGE",
        "orientation": 0
      }
    },
    {
      "type": "Feature",
      "geometry": {
        "type": "Point",
        "coordinates": [
          -76.986952,
          39.826775
        ]
      },
      "properties": {
        "name": "GARDEN CENTER",
        "orientation": 0
      }
    }
  ]
}