{
  "type": "FeatureCollection",
  "features": [
    {
      "type": "Feature",
      "geometry": {
        "type": "MultiPolygon",
        "coordinates": [
          [
            [
              [
                -76.986906,
                39.826551
              ],
              [
                -76.986979,
                39.826551
              ],
              [
                -76.986979,
                39.826813
              ],
              [
                -76.986906,
                39.826813
              ],
              [
                -76.986906,
                39.826805
              ],
              [
                -76.986896,
                39.826805
              ],
              [
                -76.986867,
                39.826805
              ],
              [
                -76.986867,
                39.826768
              ],
              [
                -76.986906,
                39.826768
              ],
              [
                -76.986906,
                39.826551
              ]
            ]
          ],
          [
            [
              [
                -76.987016,
                39.826556
              ],
              [
                -76.987046,
                39.826556
              ],
              [
                -76.987046,
                39.826656
              ],
              [
                -76.987085,
                39.826656
              ],
              [
                -76.987085,
                39.826807
              ],
              [
                -76.987014,
                39.826807
              ],
              [
                -76.987014,
                39.826611
              ],
              [
                -76.987001,
                39.826611
              ],
              [
                -76.987001,
                39.826556
              ],
              [
                -76.987016,
                39.826556
              ]
            ]
          ],
          [
            [
              [
                -76.987046,
                39.826847
              ],
              [
                -76.987012,
                39.826847
              ],
              [
                -76.987012,
                39.827092
              ],
              [
                -76.987083,
                39.827092
              ],
              [
                -76.987083,
                39.827059
              ],
              [
                -76.987046,
                39.827059
              ],
              [
                -76.987046,
                39.826847
              ]
            ]
          ],
          [
            [
              [
                -76.986976,
                39.826858
              ],
              [
                -76.986945,
                39.826858
              ],
              [
                -76.986945,
                39.826946
              ],
              [
                -76.986976,
                39.826946
              ],
              [
                -76.986976,
                39.826858
              ]
            ]
          ],
          [
            [
              [
                -76.986976,
                39.827039
              ],
              [
                -76.986945,
                39.827039
              ],
              [
                -76.986945,
                39.827092
              ],
              [
                -76.986976,
                39.827092
              ],
              [
                -76.986976,
                39.827039
              ]
            ]
          ],
          [
            [
              [
                -76.986822,
                39.826551
              ],
              [
                -76.986883,
                39.826551
              ],
              [
                -76.986906,
                39.826551
              ],
              [
                -76.986906,
                39.826768
              ],
              [
                -76.986867,
                39.826768
              ],
              [
                -76.986867,
                39.826807
              ],
              [
                -76.986852,
                39.826807
              ],
              [
                -76.986852,
                39.826813
              ],
              [
                -76.986822,
                39.826813
              ],
              [
                -76.986822,
                39.826806
              ],
              [
                -76.986762,
                39.826806
              ],
              [
                -76.986762,
                39.826642
              ],
              [
                -76.986792,
                39.826642
              ],
              [
                -76.986792,
                39.826587
              ],
              [
                -76.986822,
                39.826587
              ],
              [
                -76.986822,
                39.826551
              ]
            ]
          ],
          [
            [
              [
                -76.987125,
                39.826497
              ],
              [
                -76.987085,
                39.826497
              ],
              [
                -76.987085,
                39.826544
              ],
              [
                -76.987016,
                39.826544
              ],
              [
                -76.987016,
                39.826556
              ],
              [
                -76.987046,
                39.826556
              ],
              [
                -76.987046,
                39.826656
              ],
              [
                -76.987085,
                39.826656
              ],
              [
                -76.987085,
                39.826813
              ],
              [
                -76.987062,
                39.826813
              ],
              [
                -76.987062,
                39.826838
              ],
              [
                -76.987085,
                39.826838
              ],
              [
                -76.987085,
                39.826845
              ],
              [
                -76.987085,
                39.826847
              ],
              [
                -76.987046,
                39.826847
              ],
              [
                -76.987046,
                39.827059
              ],
              [
                -76.987083,
                39.827059
              ],
              [
                -76.987083,
                39.827091
              ],
              [
                -76.98704,
                39.827091
              ],
              [
                -76.98704,
                39.8271
              ],
              [
                -76.987059,
                39.8271
              ],
              [
                -76.987059,
                39.827113
              ],
              [
                -76.987125,
                39.827113
              ],
              [
                -76.987125,
                39.826497
              ]
            ]
          ],
          [
            [
              [
                -76.986976,
                39.826946
              ],
              [
                -76.986945,
                39.826946
              ],
              [
                -76.986945,
                39.827039
              ],
              [
                -76.986976,
                39.827039
              ],
              [
                -76.986976,
                39.826946
              ]
            ]
          ],
          [
            [
              [
                -76.986945,
                39.826858
              ],
              [
                -76.986912,
                39.826858
              ],
              [
                -76.986912,
                39.826847
              ],
              [
                -76.986851,
                39.826847
              ],
              [
                -76.986851,
                39.826838
              ],
              [
                -76.986732,
                39.826838
              ],
              [
                -76.986732,
                39.826848
              ],
              [
                -76.986703,
                39.826848
              ],
              [
                -76.986703,
                39.827091
              ],
              [
                -76.986717,
                39.827091
              ],
              [
                -76.986718,
                39.827091
              ],
              [
                -76.986718,
                39.827113
              ],
              [
                -76.986958,
                39.827113
              ],
              [
                -76.986958,
                39.827092
              ],
              [
                -76.986945,
                39.827092
              ],
              [
                -76.986945,
                39.826858
              ]
            ]
          ],
          [
            [
              [
                -76.986329,
                39.826551
              ],
              [
                -76.986383,
                39.826551
              ],
              [
                -76.986383,
                39.826555
              ],
              [
                -76.986495,
                39.826554
              ],
              [
                -76.986495,
                39.826551
              ],
              [
                -76.986526,
                39.826551
              ],
              [
                -76.986526,
                39.826751
              ],
              [
                -76.986495,
                39.826752
              ],
              [
                -76.986495,
                39.826788
              ],
              [
                -76.986526,
                39.826788
              ],
              [
                -76.986525,
                39.826808
              ],
              [
                -76.986495,
                39.826808
              ],
              [
                -76.986495,
                39.826797
              ],
              [
                -76.986467,
                39.826797
              ],
              [
                -76.986467,
                39.826798
              ],
              [
                -76.986439,
                39.826798
              ],
              [
                -76.986439,
                39.826807
              ],
              [
                -76.986385,
                39.826807
              ],
              [
                -76.986385,
                39.82677
              ],
              [
                -76.986329,
                39.82677
              ],
              [
                -76.986329,
                39.826551
              ]
            ]
          ],
          [
            [
              [
                -76.986525,
                39.826551
              ],
              [
                -76.986583,
                39.826551
              ],
              [
                -76.986583,
                39.826642
              ],
              [
                -76.986606,
                39.826642
              ],
              [
                -76.986606,
                39.826807
              ],
              [
                -76.986555,
                39.826807
              ],
              [
                -76.986555,
                39.826808
              ],
              [
                -76.986525,
                39.826808
              ],
              [
                -76.986526,
                39.826788
              ],
              [
                -76.986495,
                39.826788
              ],
              [
                -76.986495,
                39.826751
              ],
              [
                -76.986526,
                39.826751
              ],
              [
                -76.986525,
                39.826551
              ]
            ]
          ],
          [
            [
              [
                -76.986045,
                39.826838
              ],
              [
                -76.986045,
                39.82682
              ],
              [
                -76.985745,
                39.82682
              ],
              [
                -76.985745,
                39.826974
              ],
              [
                -76.986034,
                39.826974
              ],
              [
                -76.986034,
                39.826957
              ],
              [
                -76.986045,
                39.826957
              ],
              [
                -76.986045,
                39.826838
              ]
            ]
          ],
          [
            [
              [
                -76.985715,
                39.827036
              ],
              [
                -76.985685,
                39.827036
              ],
              [
                -76.985685,
                39.826827
              ],
              [
                -76.985715,
                39.826827
              ],
              [
                -76.985715,
                39.827036
              ]
            ]
          ],
          [
            [
              [
                -76.986034,
                39.826974
              ],
              [
                -76.986034,
                39.827095
              ],
              [
                -76.985903,
                39.827095
              ],
              [
                -76.985903,
                39.827087
              ],
              [
                -76.985823,
                39.827087
              ],
              [
                -76.985823,
                39.827084
              ],
              [
                -76.985745,
                39.827084
              ],
              [
                -76.985745,
                39.826974
              ],
              [
                -76.986034,
                39.826974
              ]
            ]
          ],
          [
            [
              [
                -76.985856,
                39.827095
              ],
              [
                -76.985706,
                39.827095
              ],
              [
                -76.985706,
                39.827102
              ],
              [
                -76.985685,
                39.827102
              ],
              [
                -76.985685,
                39.827113
              ],
              [
                -76.985857,
                39.827113
              ],
              [
                -76.985856,
                39.827095
              ]
            ]
          ],
          [
            [
              [
                -76.985715,
                39.827092
              ],
              [
                -76.985685,
                39.827092
              ],
              [
                -76.985685,
                39.827036
              ],
              [
                -76.985715,
                39.827036
              ],
              [
                -76.985715,
                39.827092
              ]
            ]
          ],
          [
            [
              [
                -76.986358,
                39.826847
              ],
              [
                -76.986328,
                39.826847
              ],
              [
                -76.986328,
                39.826846
              ],
              [
                -76.986298,
                39.826846
              ],
              [
                -76.986298,
                39.826919
              ],
              [
                -76.986332,
                39.826919
              ],
              [
                -76.986332,
                39.827002
              ],
              [
                -76.986358,
                39.827002
              ],
              [
                -76.986358,
                39.826847
              ]
            ]
          ],
          [
            [
              [
                -76.986265,
                39.826846
              ],
              [
                -76.986265,
                39.826838
              ],
              [
                -76.986045,
                39.826838
              ],
              [
                -76.986045,
                39.827054
              ],
              [
                -76.986034,
                39.827054
              ],
              [
                -76.986034,
                39.827095
              ],
              [
                -76.985903,
                39.827095
              ],
              [
                -76.985903,
                39.827113
              ],
              [
                -76.986124,
                39.827113
              ],
              [
                -76.986124,
                39.827095
              ],
              [
                -76.9863,
                39.827095
              ],
              [
                -76.9863,
                39.827077
              ],
              [
                -76.986202,
                39.827077
              ],
              [
                -76.986202,
                39.827085
              ],
              [
                -76.986178,
                39.827085
              ],
              [
                -76.986178,
                39.827007
              ],
              [
                -76.986148,
                39.827007
              ],
              [
                -76.986148,
                39.82691
              ],
              [
                -76.986265,
                39.82691
              ],
              [
                -76.986265,
                39.826838
              ],
              [
                -76.986265,
                39.826846
              ]
            ]
          ],
          [
            [
              [
                -76.986583,
                39.826551
              ],
              [
                -76.986606,
                39.826551
              ],
              [
                -76.986734,
                39.826551
              ],
              [
                -76.986734,
                39.826807
              ],
              [
                -76.986606,
                39.826807
              ],
              [
                -76.986606,
                39.826642
              ],
              [
                -76.986583,
                39.826642
              ],
              [
                -76.986583,
                39.826551
              ]
            ]
          ],
          [
            [
              [
                -76.986103,
                39.82655
              ],
              [
                -76.986128,
                39.82655
              ],
              [
                -76.986128,
                39.826544
              ],
              [
                -76.986232,
                39.826544
              ],
              [
                -76.986232,
                39.826551
              ],
              [
                -76.986257,
                39.826551
              ],
              [
                -76.986257,
                39.826678
              ],
              [
                -76.986232,
                39.826678
              ],
              [
                -76.986232,
                39.826679
              ],
              [
                -76.986208,
                39.826679
              ],
              [
                -76.986208,
                39.826807
              ],
              [
                -76.986103,
                39.826807
              ],
              [
                -76.986103,
                39.82655
              ]
            ]
          ],
          [
            [
              [
                -76.986734,
                39.826551
              ],
              [
                -76.986822,
                39.826551
              ],
              [
                -76.986822,
                39.826587
              ],
              [
                -76.986792,
                39.826587
              ],
              [
                -76.986792,
                39.826642
              ],
              [
                -76.986762,
                39.826642
              ],
              [
                -76.986762,
                39.826807
              ],
              [
                -76.986734,
                39.826807
              ],
              [
                -76.986734,
                39.826551
              ]
            ]
          ],
          [
            [
              [
                -76.986529,
                39.826461
              ],
              [
                -76.986529,
                39.826481
              ],
              [
                -76.986497,
                39.826481
              ],
              [
                -76.986497,
                39.826518
              ],
              [
                -76.986764,
                39.826518
              ],
              [
                -76.986764,
                39.826514
              ],
              [
                -76.986823,
                39.826514
              ],
              [
                -76.986823,
                39.826518
              ],
              [
                -76.986899,
                39.826518
              ],
              [
                -76.986899,
                39.826513
              ],
              [
                -76.986881,
                39.826513
              ],
              [
                -76.986881,
                39.826461
              ],
              [
                -76.986529,
                39.826461
              ]
            ]
          ],
          [
            [
              [
                -76.986012,
                39.826756
              ],
              [
                -76.986012,
                39.826739
              ],
              [
                -76.986027,
                39.826739
              ],
              [
                -76.986027,
                39.826738
              ],
              [
                -76.986044,
                39.826738
              ],
              [
                -76.986044,
                39.826708
              ],
              [
                -76.985906,
                39.826708
              ],
              [
                -76.985906,
                39.826739
              ],
              [
                -76.985893,
                39.826739
              ],
              [
                -76.985893,
                39.82669
              ],
              [
                -76.98574,
                39.826689
              ],
              [
                -76.98574,
                39.826672
              ],
              [
                -76.985712,
                39.826672
              ],
              [
                -76.985712,
                39.82674
              ],
              [
                -76.985685,
                39.82674
              ],
              [
                -76.985685,
                39.826777
              ],
              [
                -76.985712,
                39.826777
              ],
              [
                -76.98574,
                39.826777
              ],
              [
                -76.98574,
                39.826756
              ],
              [
                -76.986012,
                39.826756
              ]
            ]
          ],
          [
            [
              [
                -76.986703,
                39.826848
              ],
              [
                -76.986672,
                39.826848
              ],
              [
                -76.986672,
                39.826838
              ],
              [
                -76.986442,
                39.826838
              ],
              [
                -76.986442,
                39.826857
              ],
              [
                -76.986466,
                39.826857
              ],
              [
                -76.986466,
                39.827088
              ],
              [
                -76.986479,
                39.827088
              ],
              [
                -76.986479,
                39.827113
              ],
              [
                -76.9867,
                39.827113
              ],
              [
                -76.9867,
                39.8271
              ],
              [
                -76.986718,
                39.8271
              ],
              [
                -76.986718,
                39.827091
              ],
              [
                -76.986703,
                39.827091
              ],
              [
                -76.986703,
                39.826848
              ]
            ]
          ],
          [
            [
              [
                -76.986298,
                39.826846
              ],
              [
                -76.986265,
                39.826846
              ],
              [
                -76.986265,
                39.82691
              ],
              [
                -76.986148,
                39.82691
              ],
              [
                -76.986148,
                39.827007
              ],
              [
                -76.986178,
                39.827007
              ],
              [
                -76.986178,
                39.827085
              ],
              [
                -76.986202,
                39.827085
              ],
              [
                -76.986202,
                39.827077
              ],
              [
                -76.9863,
                39.827077
              ],
              [
                -76.9863,
                39.827095
              ],
              [
                -76.986124,
                39.827095
              ],
              [
                -76.986124,
                39.827113
              ],
              [
                -76.986479,
                39.827113
              ],
              [
                -76.986479,
                39.827094
              ],
              [
                -76.986358,
                39.827094
              ],
              [
                -76.986358,
                39.827002
              ],
              [
                -76.986332,
                39.827002
              ],
              [
                -76.986332,
                39.826919
              ],
              [
                -76.986298,
                39.826919
              ],
              [
                -76.986298,
                39.826846
              ]
            ]
          ],
          [
            [
              [
                -76.986074,
                39.82655
              ],
              [
                -76.986103,
                39.82655
              ],
              [
                -76.986103,
                39.826806
              ],
              [
                -76.986074,
                39.826806
              ],
              [
                -76.986074,
                39.82655
              ]
            ]
          ],
          [
            [
              [
                -76.986012,
                39.82679
              ],
              [
                -76.986012,
                39.826773
              ],
              [
                -76.9858,
                39.826773
              ],
              [
                -76.9858,
                39.826756
              ],
              [
                -76.98574,
                39.826756
              ],
              [
                -76.98574,
                39.82679
              ],
              [
                -76.986012,
                39.82679
              ]
            ]
          ],
          [
            [
              [
                -76.986257,
                39.826551
              ],
              [
                -76.986329,
                39.826551
              ],
              [
                -76.986329,
                39.82677
              ],
              [
                -76.986385,
                39.82677
              ],
              [
                -76.986385,
                39.826813
              ],
              [
                -76.986232,
                39.826813
              ],
              [
                -76.986232,
                39.826807
              ],
              [
                -76.986208,
                39.826807
              ],
              [
                -76.986208,
                39.826734
              ],
              [
                -76.986232,
                39.826734
              ],
              [
                -76.986232,
                39.826751
              ],
              [
                -76.986257,
                39.826751
              ],
              [
                -76.986257,
                39.826551
              ]
            ]
          ],
          [
            [
              [
                -76.985685,
                39.826796
              ],
              [
                -76.985721,
                39.826796
              ],
              [
                -76.985721,
                39.826806
              ],
              [
                -76.986012,
                39.826806
              ],
              [
                -76.986012,
                39.82679
              ],
              [
                -76.98574,
                39.82679
              ],
              [
                -76.98574,
                39.826777
              ],
              [
                -76.985685,
                39.826777
              ],
              [
                -76.985685,
                39.826796
              ]
            ]
          ],
          [
            [
              [
                -76.986012,
                39.826773
              ],
              [
                -76.9858,
                39.826773
              ],
              [
                -76.9858,
                39.826756
              ],
              [
                -76.986012,
                39.826756
              ],
              [
                -76.986012,
                39.826773
              ]
            ]
          ],
          [
            [
              [
                -76.986044,
                39.826708
              ],
              [
                -76.986044,
                39.826537
              ],
              [
                -76.985721,
                39.826537
              ],
              [
                -76.985721,
                39.826535
              ],
              [
                -76.985685,
                39.826535
              ],
              [
                -76.985685,
                39.82674
              ],
              [
                -76.985712,
                39.82674
              ],
              [
                -76.985712,
                39.826672
              ],
              [
                -76.98574,
                39.826672
              ],
              [
                -76.98574,
                39.826689
              ],
              [
                -76.985891,
                39.82669
              ],
              [
                -76.985891,
                39.826602
              ],
              [
                -76.985906,
                39.826602
              ],
              [
                -76.985906,
                39.826708
              ],
              [
                -76.986044,
                39.826708
              ]
            ]
          ],
          [
            [
              [
                -76.985681,
                39.826534
              ],
              [
                -76.985651,
                39.826534
              ],
              [
                -76.985651,
                39.826765
              ],
              [
                -76.985681,
                39.826765
              ],
              [
                -76.985681,
                39.826534
              ]
            ]
          ],
          [
            [
              [
                -76.985521,
                39.827015
              ],
              [
                -76.985561,
                39.827015
              ],
              [
                -76.985561,
                39.827073
              ],
              [
                -76.985482,
                39.827073
              ],
              [
                -76.985482,
                39.827054
              ],
              [
                -76.985521,
                39.827054
              ],
              [
                -76.985521,
                39.827015
              ]
            ]
          ],
          [
            [
              [
                -76.985685,
                39.826504
              ],
              [
                -76.985721,
                39.826504
              ],
              [
                -76.985721,
                39.82652
              ],
              [
                -76.985834,
                39.82652
              ],
              [
                -76.985834,
                39.826478
              ],
              [
                -76.985809,
                39.826478
              ],
              [
                -76.985809,
                39.826461
              ],
              [
                -76.985685,
                39.826461
              ],
              [
                -76.985685,
                39.826504
              ]
            ]
          ],
          [
            [
              [
                -76.985634,
                39.826481
              ],
              [
                -76.985506,
                39.826481
              ],
              [
                -76.985506,
                39.826414
              ],
              [
                -76.985634,
                39.826414
              ],
              [
                -76.985634,
                39.826481
              ]
            ]
          ],
          [
            [
              [
                -76.98536,
                39.826414
              ],
              [
                -76.98535,
                39.826414
              ],
              [
                -76.98535,
                39.826833
              ],
              [
                -76.985634,
                39.826833
              ],
              [
                -76.985634,
                39.826797
              ],
              [
                -76.985681,
                39.826797
              ],
              [
                -76.985681,
                39.826765
              ],
              [
                -76.985651,
                39.826765
              ],
              [
                -76.985651,
                39.826534
              ],
              [
                -76.985645,
                39.826534
              ],
              [
                -76.985645,
                39.826522
              ],
              [
                -76.985623,
                39.826522
              ],
              [
                -76.985623,
                39.826503
              ],
              [
                -76.98536,
                39.826502
              ],
              [
                -76.98536,
                39.826414
              ]
            ]
          ],
          [
            [
              [
                -76.985681,
                39.826826
              ],
              [
                -76.985659,
                39.826826
              ],
              [
                -76.985659,
                39.826851
              ],
              [
                -76.98535,
                39.826851
              ],
              [
                -76.98535,
                39.827092
              ],
              [
                -76.985681,
                39.827092
              ],
              [
                -76.985681,
                39.826826
              ]
            ]
          ],
          [
            [
              [
                -76.985681,
                39.827101
              ],
              [
                -76.985681,
                39.827113
              ],
              [
                -76.98535,
                39.827114
              ],
              [
                -76.98535,
                39.827101
              ],
              [
                -76.985681,
                39.827101
              ]
            ]
          ],
          [
            [
              [
                -76.985827,
                39.826461
              ],
              [
                -76.986008,
                39.826461
              ],
              [
                -76.986008,
                39.826483
              ],
              [
                -76.986028,
                39.826483
              ],
              [
                -76.986028,
                39.82652
              ],
              [
                -76.985834,
                39.82652
              ],
              [
                -76.985834,
                39.826478
              ],
              [
                -76.985809,
                39.826478
              ],
              [
                -76.985809,
                39.826474
              ],
              [
                -76.985827,
                39.826474
              ],
              [
                -76.985827,
                39.826461
              ]
            ]
          ],
          [
            [
              [
                -76.986234,
                39.826513
              ],
              [
                -76.986161,
                39.826513
              ],
              [
                -76.986161,
                39.8265
              ],
              [
                -76.986234,
                39.8265
              ],
              [
                -76.986234,
                39.826513
              ]
            ]
          ],
          [
            [
              [
                -76.986881,
                39.826461
              ],
              [
                -76.986949,
                39.826461
              ],
              [
                -76.986949,
                39.826476
              ],
              [
                -76.986927,
                39.826476
              ],
              [
                -76.986927,
                39.826518
              ],
              [
                -76.986898,
                39.826518
              ],
              [
                -76.986898,
                39.826513
              ],
              [
                -76.986881,
                39.826513
              ],
              [
                -76.986881,
                39.826461
              ]
            ]
          ],
          [
            [
              [
                -76.986976,
                39.826858
              ],
              [
                -76.986976,
                39.826838
              ],
              [
                -76.986851,
                39.826838
              ],
              [
                -76.986851,
                39.826847
              ],
              [
                -76.986912,
                39.826847
              ],
              [
                -76.986912,
                39.826858
              ],
              [
                -76.986976,
                39.826858
              ]
            ]
          ],
          [
            [
              [
                -76.986441,
                39.826866
              ],
              [
                -76.986441,
                39.826838
              ],
              [
                -76.986265,
                39.826838
              ],
              [
                -76.986265,
                39.826846
              ],
              [
                -76.986328,
                39.826846
              ],
              [
                -76.986328,
                39.826847
              ],
              [
                -76.986385,
                39.826847
              ],
              [
                -76.986385,
                39.826866
              ],
              [
                -76.986441,
                39.826866
              ]
            ]
          ],
          [
            [
              [
                -76.986385,
                39.826813
              ],
              [
                -76.986822,
                39.826813
              ],
              [
                -76.986822,
                39.826806
              ],
              [
                -76.986762,
                39.826806
              ],
              [
                -76.986762,
                39.826807
              ],
              [
                -76.986555,
                39.826807
              ],
              [
                -76.986555,
                39.826808
              ],
              [
                -76.986495,
                39.826808
              ],
              [
                -76.986495,
                39.826797
              ],
              [
                -76.986467,
                39.826797
              ],
              [
                -76.986467,
                39.826798
              ],
              [
                -76.986439,
                39.826798
              ],
              [
                -76.986439,
                39.826807
              ],
              [
                -76.986385,
                39.826807
              ],
              [
                -76.986385,
                39.826813
              ]
            ]
          ],
          [
            [
              [
                -76.986257,
                39.826751
              ],
              [
                -76.986232,
                39.826751
              ],
              [
                -76.986232,
                39.826734
              ],
              [
                -76.986208,
                39.826734
              ],
              [
                -76.986208,
                39.826679
              ],
              [
                -76.986232,
                39.826679
              ],
              [
                -76.986232,
                39.826678
              ],
              [
                -76.986257,
                39.826678
              ],
              [
                -76.986257,
                39.826751
              ]
            ]
          ],
          [
            [
              [
                -76.986466,
                39.826857
              ],
              [
                -76.986442,
                39.826857
              ],
              [
                -76.986442,
                39.826866
              ],
              [
                -76.986385,
                39.826866
              ],
              [
                -76.986385,
                39.826847
              ],
              [
                -76.986358,
                39.826847
              ],
              [
                -76.986358,
                39.827094
              ],
              [
                -76.986479,
                39.827094
              ],
              [
                -76.986479,
                39.827088
              ],
              [
                -76.986466,
                39.827088
              ],
              [
                -76.986466,
                39.826857
              ]
            ]
          ],
          [
            [
              [
                -76.985681,
                39.826414
              ],
              [
                -76.98535,
                39.826414
              ],
              [
                -76.98535,
                39.827114
              ],
              [
                -76.985438,
                39.827114
              ],
              [
                -76.985438,
                39.827113
              ],
              [
                -76.985681,
                39.827113
              ],
              [
                -76.985681,
                39.826414
              ]
            ]
          ]
        ]
      },
      "properties": {
        "fill": "#D9E2F6",
        "stroke-width": "0.5",
        "stroke": "#96A3BD",
        "opacity": "0.75"
      }
    },
    {
      "type": "Feature",
      "geometry": {
        "type": "MultiLineString",
        "coordinates": []
      },
      "properties": {
        "stroke-width": "0.5"
      }
    },
    {
      "type": "Feature",
      "geometry": {
        "type": "Point",
        "coordinates": [
          -76.986081,
          39.826399
        ]
      },
      "properties": {
        "type": "P",
        "sub_category": "EntryExit",
        "poi_name": "MAIN ENTRANCE",
        "profile": "BASIC INFO",
        "icon_id": "entrance_exit",
        "orientation": 0
      }
    },
    {
      "type": "Feature",
      "geometry": {
        "type": "Point",
        "coordinates": [
          -76.986382,
          39.826458
        ]
      },
      "properties": {
        "type": "P",
        "sub_category": "EntryExit",
        "poi_name": "MAIN EXIT",
        "profile": "BASIC INFO",
        "icon_id": "entrance_exit",
        "orientation": 0
      }
    },
    {
      "type": "Feature",
      "geometry": {
        "type": "Point",
        "coordinates": [
          -76.986999,
          39.826452
        ]
      },
      "properties": {
        "type": "P",
        "sub_category": "EntryExit",
        "poi_name": "PRO ENTRANCE",
        "profile": "BASIC INFO",
        "icon_id": "entrance_exit",
        "orientation": 0
      }
    },
    {
      "type": "Feature",
      "geometry": {
        "type": "Point",
        "coordinates": [
          -76.986999,
          39.826483
        ]
      },
      "properties": {
        "type": "P",
        "sub_category": "EntryExit",
        "poi_name": "PRO EXIT",
        "profile": "BASIC INFO",
        "icon_id": "entrance_exit",
        "orientation": 0
      }
    },
    {
      "type": "Feature",
      "geometry": {
        "type": "Point",
        "coordinates": [
          -76.985434,
          39.826369
        ]
      },
      "properties": {
        "type": "P",
        "sub_category": "EntryExit",
        "poi_name": "GARDEN CENTER ENTRANCE",
        "profile": "BASIC INFO",
        "icon_id": "entrance_exit",
        "orientation": 0
      }
    },
    {
      "type": "Feature",
      "geometry": {
        "type": "Point",
        "coordinates": [
          -76.985434,
          39.826429
        ]
      },
      "properties": {
        "type": "P",
        "sub_category": "EntryExit",
        "poi_name": "GARDEN CENTER EXIT",
        "profile": "BASIC INFO",
        "icon_id": "entrance_exit",
        "orientation": 0
      }
    },
    {
      "type": "Feature",
      "geometry": {
        "type": "Point",
        "coordinates": [
          -76.986527,
          39.826445
        ]
      },
      "properties": {
        "type": "P",
        "sub_category": "Restrooms",
        "poi_name": "MEN/WOMEN’S RESTROOMS",
        "profile": "BASIC INFO",
        "icon_id": "restrooms",
        "orientation": 0
      }
    },
    {
      "type": "Feature",
      "geometry": {
        "type": "Point",
        "coordinates": [
          -76.986568,
          39.826439
        ]
      },
      "properties": {
        "type": "P",
        "sub_category": "Restrooms",
        "poi_name": "UNISEX",
        "profile": "BASIC INFO",
        "icon_id": "restrooms",
        "orientation": 0
      }
    },
    {
      "type": "Feature",
      "geometry": {
        "type": "Point",
        "coordinates": [
          -76.987067,
          39.826508
        ]
      },
      "properties": {
        "type": "P",
        "sub_category": "ServiceDesks",
        "poi_name": "PRO SERVICE DESK",
        "profile": "BASIC INFO",
        "icon_id": "pro_service_desk",
        "orientation": 0
      }
    },
    {
      "type": "Feature",
      "geometry": {
        "type": "Point",
        "coordinates": [
          -76.98612,
          39.826934
        ]
      },
      "properties": {
        "type": "P",
        "sub_category": "ServiceDesks",
        "poi_name": "APPLIANCE DESK",
        "profile": "STORE SERVICES",
        "icon_id": "appliance_desk",
        "orientation": 0
      }
    },
    {
      "type": "Feature",
      "geometry": {
        "type": "Point",
        "coordinates": [
          -76.986574,
          39.826872
        ]
      },
      "properties": {
        "type": "P",
        "sub_category": "ServiceDesks",
        "poi_name": "FLOORING DESK",
        "profile": "STORE SERVICES",
        "icon_id": "flooring_desk",
        "orientation": 0
      }
    },
    {
      "type": "Feature",
      "geometry": {
        "type": "Point",
        "coordinates": [
          -76.986306,
          39.826784
        ]
      },
      "properties": {
        "type": "P",
        "sub_category": "ServiceDesks",
        "poi_name": "HOME DECOR DESK",
        "profile": "STORE SERVICES",
        "icon_id": "home_décor_desk",
        "orientation": 0
      }
    },
    {
      "type": "Feature",
      "geometry": {
        "type": "Point",
        "coordinates": [
          -76.986256,
          39.827039
        ]
      },
      "properties": {
        "type": "P",
        "sub_category": "ServiceDesks",
        "poi_name": "KITCHEN DESIGN DESK",
        "profile": "STORE SERVICES",
        "icon_id": "kitchen_design_desk",
        "orientation": 0
      }
    },
    {
      "type": "Feature",
      "geometry": {
        "type": "Point",
        "coordinates": [
          -76.986761,
          39.826844
        ]
      },
      "properties": {
        "type": "P",
        "sub_category": "ServiceDesks",
        "poi_name": "MILLWORK DESK",
        "profile": "STORE SERVICES",
        "icon_id": "millwork_desk",
        "orientation": 0
      }
    },
    {
      "type": "Feature",
      "geometry": {
        "type": "Point",
        "coordinates": [
          -76.986999,
          39.826512
        ]
      },
      "properties": {
        "type": "P",
        "sub_category": "Checkouts",
        "poi_name": "PRO CHECKOUT",
        "profile": "BASIC INFO",
        "icon_id": "checkouts",
        "orientation": 0
      }
    },
    {
      "type": "Feature",
      "geometry": {
        "type": "Point",
        "coordinates": [
          -76.985472,
          39.826486
        ]
      },
      "properties": {
        "type": "P",
        "sub_category": "Checkouts",
        "poi_name": "GARDEN CENTER CHECKOUT",
        "profile": "BASIC INFO",
        "icon_id": "checkouts",
        "orientation": 0
      }
    },
    {
      "type": "Feature",
      "geometry": {
        "type": "Point",
        "coordinates": [
          -76.986588,
          39.826605
        ]
      },
      "properties": {
        "type": "P",
        "sub_category": "Services",
        "poi_name": "CHAIN AND ROPE CUTTING",
        "profile": "STORE SERVICES",
        "icon_id": "chain_rope_cutting",
        "orientation": 0
      }
    },
    {
      "type": "Feature",
      "geometry": {
        "type": "Point",
        "coordinates": [
          -76.986677,
          39.826561
        ]
      },
      "properties": {
        "type": "P",
        "sub_category": "Services",
        "poi_name": "KEY CUTTING",
        "profile": "STORE SERVICES",
        "icon_id": "key_copying",
        "orientation": 0
      }
    },
    {
      "type": "Feature",
      "geometry": {
        "type": "Point",
        "coordinates": [
          -76.98668,
          39.826633
        ]
      },
      "properties": {
        "type": "P",
        "sub_category": "Services",
        "poi_name": "GLASS CUTTING",
        "profile": "STORE SERVICES",
        "icon_id": "glass_cutting",
        "orientation": 0
      }
    },
    {
      "type": "Feature",
      "geometry": {
        "type": "Point",
        "coordinates": [
          -76.986561,
          39.826798
        ]
      },
      "properties": {
        "type": "P",
        "sub_category": "Services",
        "poi_name": "WIRE CUTTING",
        "profile": "STORE SERVICES",
        "icon_id": "wire_cutting",
        "orientation": 0
      }
    },
    {
      "type": "Feature",
      "geometry": {
        "type": "Point",
        "coordinates": [
          -76.987043,
          39.827073
        ]
      },
      "properties": {
        "type": "P",
        "sub_category": "Services",
        "poi_name": "WOOD CUTTING",
        "profile": "STORE SERVICES",
        "icon_id": "wood_cutting",
        "orientation": 0
      }
    },
    {
      "type": "Feature",
      "geometry": {
        "type": "Point",
        "coordinates": [
          -76.98631,
          39.826706
        ]
      },
      "properties": {
        "type": "P",
        "sub_category": "Services",
        "poi_name": "BLIND CUTTING",
        "profile": "STORE SERVICES",
        "icon_id": "blind_cutting",
        "orientation": 0
      }
    },
    {
      "type": "Feature",
      "geometry": {
        "type": "Point",
        "coordinates": [
          -76.986669,
          39.827096
        ]
      },
      "properties": {
        "type": "P",
        "sub_category": "Services",
        "poi_name": "CARPET CUTTING",
        "profile": "STORE SERVICES",
        "icon_id": "carpet_cutting",
        "orientation": 0
      }
    },
    {
      "type": "Feature",
      "geometry": {
        "type": "Point",
        "coordinates": [
          -76.986102,
          39.826509
        ]
      },
      "properties": {
        "type": "P",
        "sub_category": "Services",
        "poi_name": "RETURNS",
        "profile": "BASIC INFO",
        "icon_id": "returns",
        "orientation": 0
      }
    },
    {
      "type": "Feature",
      "geometry": {
        "type": "Point",
        "coordinates": [
          -76.986102,
          39.826499
        ]
      },
      "properties": {
        "type": "P",
        "sub_category": "ServiceDesks",
        "poi_name": "CUSTOMER SERVICE",
        "profile": "BASIC INFO",
        "icon_id": "customer_service_desk",
        "orientation": 0
      }
    },
    {
      "type": "Feature",
      "geometry": {
        "type": "Point",
        "coordinates": [
          -76.986214,
          39.826469
        ]
      },
      "properties": {
        "type": "P",
        "sub_category": "Services",
        "poi_name": "PRODUCT PICK-UP",
        "profile": "BASIC INFO",
        "icon_id": "store_pick_up",
        "orientation": 0
      }
    },
    {
      "type": "Feature",
      "geometry": {
        "type": "Point",
        "coordinates": [
          -76.986178,
          39.826469
        ]
      },
      "properties": {
        "type": "P",
        "sub_category": "Services",
        "poi_name": "PICKUP LOCKER",
        "profile": "BASIC INFO",
        "icon_id": "pickup_lockers",
        "orientation": 0
      }
    },
    {
      "type": "Feature",
      "geometry": {
        "type": "Point",
        "coordinates": [
          -76.98628,
          39.826527
        ]
      },
      "properties": {
        "type": "P",
        "sub_category": "Checkouts",
        "poi_name": "MAIN CHECKOUT",
        "profile": "BASIC INFO",
        "icon_id": "checkouts",
        "orientation": 0
      }
    },
    {
      "type": "Feature",
      "geometry": {
        "type": "Point",
        "coordinates": [
          -76.986361,
          39.826516
        ]
      },
      "properties": {
        "type": "P",
        "sub_category": "Checkouts",
        "poi_name": "MAIN SELF-CHECKOUT",
        "profile": "BASIC INFO",
        "icon_id": "checkouts",
        "orientation": 0
      }
    },
    {
      "type": "Feature",
      "geometry": {
        "type": "Point",
        "coordinates": [
          -76.986249,
          39.827178
        ]
      },
      "properties": {
        "type": "P",
        "sub_category": "ServiceDesks",
        "poi_name": "RECEIVING DESK",
        "profile": "BASIC INFO",
        "icon_id": "receiving_desk",
        "orientation": 0
      }
    },
    {
      "type": "Feature",
      "geometry": {
        "type": "Point",
        "coordinates": [
          -76.986923,
          39.826682
        ]
      },
      "properties": {
        "name": "LUMBER",
        "orientation": 0
      }
    },
    {
      "type": "Feature",
      "geometry": {
        "type": "Point",
        "coordinates": [
          -76.987043,
          39.826681
        ]
      },
      "properties": {
        "name": "LUMBER",
        "orientation": 0
      }
    },
    {
      "type": "Feature",
      "geometry": {
        "type": "Point",
        "coordinates": [
          -76.987047,
          39.826969
        ]
      },
      "properties": {
        "name": "LUMBER",
        "orientation": 0
      }
    },
    {
      "type": "Feature",
      "geometry": {
        "type": "Point",
        "coordinates": [
          -76.986961,
          39.826902
        ]
      },
      "properties": {
        "name": "LUMBER",
        "orientation": 0
      }
    },
    {
      "type": "Feature",
      "geometry": {
        "type": "Point",
        "coordinates": [
          -76.986961,
          39.827065
        ]
      },
      "properties": {
        "name": "LUMBER",
        "orientation": 0
      }
    },
    {
      "type": "Feature",
      "geometry": {
        "type": "Point",
        "coordinates": [
          -76.986834,
          39.826682
        ]
      },
      "properties": {
        "name": "BUILDING MATERIALS",
        "orientation": 0
      }
    },
    {
      "type": "Feature",
      "geometry": {
        "type": "Point",
        "coordinates": [
          -76.98707,
          39.826805
        ]
      },
      "properties": {
        "name": "BUILDING MATERIALS",
        "orientation": 0
      }
    },
    {
      "type": "Feature",
      "geometry": {
        "type": "Point",
        "coordinates": [
          -76.986961,
          39.826992
        ]
      },
      "properties": {
        "name": "BUILDING MATERIALS",
        "orientation": 0
      }
    },
    {
      "type": "Feature",
      "geometry": {
        "type": "Point",
        "coordinates": [
          -76.98683,
          39.826976
        ]
      },
      "properties": {
        "name": "MILLWORK",
        "orientation": 0
      }
    },
    {
      "type": "Feature",
      "geometry": {
        "type": "Point",
        "coordinates": [
          -76.986428,
          39.826679
        ]
      },
      "properties": {
        "name": "LIGHTING",
        "orientation": 0
      }
    },
    {
      "type": "Feature",
      "geometry": {
        "type": "Point",
        "coordinates": [
          -76.986551,
          39.826679
        ]
      },
      "properties": {
        "name": "ROUGH ELECTRICAL",
        "orientation": 0
      }
    },
    {
      "type": "Feature",
      "geometry": {
        "type": "Point",
        "coordinates": [
          -76.985895,
          39.826897
        ]
      },
      "properties": {
        "name": "FASHION PLUMBING",
        "orientation": 0
      }
    },
    {
      "type": "Feature",
      "geometry": {
        "type": "Point",
        "coordinates": [
          -76.985699,
          39.826932
        ]
      },
      "properties": {
        "name": "FASHION PLUMBING",
        "orientation": 0
      }
    },
    {
      "type": "Feature",
      "geometry": {
        "type": "Point",
        "coordinates": [
          -76.98589,
          39.827034
        ]
      },
      "properties": {
        "name": "ROUGH PLUMBING",
        "orientation": 0
      }
    },
    {
      "type": "Feature",
      "geometry": {
        "type": "Point",
        "coordinates": [
          -76.985771,
          39.827104
        ]
      },
      "properties": {
        "name": "ROUGH PLUMBING",
        "orientation": 0
      }
    },
    {
      "type": "Feature",
      "geometry": {
        "type": "Point",
        "coordinates": [
          -76.985699,
          39.827064
        ]
      },
      "properties": {
        "name": "ROUGH PLUMBING",
        "orientation": 0
      }
    },
    {
      "type": "Feature",
      "geometry": {
        "type": "Point",
        "coordinates": [
          -76.986328,
          39.826924
        ]
      },
      "properties": {
        "name": "APPLIANCES",
        "orientation": 0
      }
    },
    {
      "type": "Feature",
      "geometry": {
        "type": "Point",
        "coordinates": [
          -76.986101,
          39.826976
        ]
      },
      "properties": {
        "name": "APPLIANCES",
        "orientation": 0
      }
    },
    {
      "type": "Feature",
      "geometry": {
        "type": "Point",
        "coordinates": [
          -76.986658,
          39.826679
        ]
      },
      "properties": {
        "name": "HARDWARE",
        "orientation": 0
      }
    },
    {
      "type": "Feature",
      "geometry": {
        "type": "Point",
        "coordinates": [
          -76.98618,
          39.826675
        ]
      },
      "properties": {
        "name": "PAINT",
        "orientation": 0
      }
    },
    {
      "type": "Feature",
      "geometry": {
        "type": "Point",
        "coordinates": [
          -76.986778,
          39.826679
        ]
      },
      "properties": {
        "name": "TOOLS",
        "orientation": 0
      }
    },
    {
      "type": "Feature",
      "geometry": {
        "type": "Point",
        "coordinates": [
          -76.986698,
          39.82649
        ]
      },
      "properties": {
        "name": "TOOLS",
        "orientation": 0
      }
    },
    {
      "type": "Feature",
      "geometry": {
        "type": "Point",
        "coordinates": [
          -76.985864,
          39.826724
        ]
      },
      "properties": {
        "name": "OUTDOOR POWER EQUIPMENT",
        "orientation": 0
      }
    },
    {
      "type": "Feature",
      "geometry": {
        "type": "Point",
        "coordinates": [
          -76.98658,
          39.826976
        ]
      },
      "properties": {
        "name": "FLOORING",
        "orientation": 0
      }
    },
    {
      "type": "Feature",
      "geometry": {
        "type": "Point",
        "coordinates": [
          -76.986302,
          39.82698
        ]
      },
      "properties": {
        "name": "CABINETS",
        "orientation": 0
      }
    },
    {
      "type": "Feature",
      "geometry": {
        "type": "Point",
        "coordinates": [
          -76.986088,
          39.826678
        ]
      },
      "properties": {
        "name": "CLEANING",
        "orientation": 0
      }
    },
    {
      "type": "Feature",
      "geometry": {
        "type": "Point",
        "coordinates": [
          -76.985876,
          39.826773
        ]
      },
      "properties": {
        "name": "CLEANING",
        "orientation": 0
      }
    },
    {
      "type": "Feature",
      "geometry": {
        "type": "Point",
        "coordinates": [
          -76.986297,
          39.826682
        ]
      },
      "properties": {
        "name": "HOME DECOR",
        "orientation": 0
      }
    },
    {
      "type": "Feature",
      "geometry": {
        "type": "Point",
        "coordinates": [
          -76.985848,
          39.826791
        ]
      },
      "properties": {
        "name": "INSIDE LAWN AND GARDEN",
        "orientation": 0
      }
    },
    {
      "type": "Feature",
      "geometry": {
        "type": "Point",
        "coordinates": [
          -76.985906,
          39.826765
        ]
      },
      "properties": {
        "name": "INSIDE LAWN AND GARDEN",
        "orientation": 0
      }
    },
    {
      "type": "Feature",
      "geometry": {
        "type": "Point",
        "coordinates": [
          -76.985864,
          39.826637
        ]
      },
      "properties": {
        "name": "INSIDE LAWN AND GARDEN",
        "orientation": 0
      }
    },
    {
      "type": "Feature",
      "geometry": {
        "type": "Point",
        "coordinates": [
          -76.985666,
          39.82665
        ]
      },
      "properties": {
        "name": "INSIDE LAWN AND GARDEN",
        "orientation": 0
      }
    },
    {
      "type": "Feature",
      "geometry": {
        "type": "Point",
        "coordinates": [
          -76.985521,
          39.827044
        ]
      },
      "properties": {
        "name": "INSIDE LAWN AND GARDEN",
        "orientation": 0
      }
    },
    {
      "type": "Feature",
      "geometry": {
        "type": "Point",
        "coordinates": [
          -76.985759,
          39.82649
        ]
      },
      "properties": {
        "name": "INSIDE LAWN AND GARDEN",
        "orientation": 0
      }
    },
    {
      "type": "Feature",
      "geometry": {
        "type": "Point",
        "coordinates": [
          -76.98557,
          39.826448
        ]
      },
      "properties": {
        "name": "OUTSIDE LAWN AND GARDEN",
        "orientation": 0
      }
    },
    {
      "type": "Feature",
      "geometry": {
        "type": "Point",
        "coordinates": [
          -76.985515,
          39.826624
        ]
      },
      "properties": {
        "name": "OUTSIDE LAWN AND GARDEN",
        "orientation": 0
      }
    },
    {
      "type": "Feature",
      "geometry": {
        "type": "Point",
        "coordinates": [
          -76.985515,
          39.826959
        ]
      },
      "properties": {
        "name": "OUTSIDE LAWN AND GARDEN",
        "orientation": 0
      }
    },
    {
      "type": "Feature",
      "geometry": {
        "type": "Point",
        "coordinates": [
          -76.985515,
          39.827108
        ]
      },
      "properties": {
        "name": "OUTSIDE LAWN AND GARDEN",
        "orientation": 0
      }
    },
    {
      "type": "Feature",
      "geometry": {
        "type": "Point",
        "coordinates": [
          -76.986232,
          39.826715
        ]
      },
      "properties": {
        "name": "STORAGE",
        "orientation": 0
      }
    },
    {
      "type": "Feature",
      "geometry": {
        "type": "Point",
        "coordinates": [
          -76.986419,
          39.826971
        ]
      },
      "properties": {
        "name": "STORAGE",
        "orientation": 0
      }
    },
    {
      "type": "Feature",
      "geometry": {
        "type": "Point",
        "coordinates": [
          -76.985515,
          39.826764
        ]
      },
      "properties": {
        "name": "GARDEN CENTER",
        "orientation": 0
      }
    }
  ]
}